Entity Type,License Number,Sidewalk Cafe Type,Lic Area Sq Ft,Entity Name,Camis Trade Name,Address Street Name,Street Address,Address Location,Address Zip Code,Camis Phone Number,Location 1
SIDEWALK CAFE,293907,Unenclosed,611,DMF GRAMERCY ENTERPRISES INC,PETE'S TAVERN       S/C #111,EAST   18 STREET,129 EAST   18 STREET,,10003,2124737676,"129 18 STREET
NEW YORK, NY 10003
(40.736444345672204, -73.98686092577286)"
SIDEWALK CAFE,571720,Enclosed,435,1616 SECOND AVENUE RESTAURANT INC,DORRIAN'S RED HAND  E/S/C #217,2 AVENUE,1616 2 AVENUE,,10028,2127726660,"1616 2 AVENUE
NEW YORK, NY 10028
(40.77643245813948, -73.95277678574939)"
SIDEWALK CAFE,578810,Enclosed,407,CAFFE ISLE OF CAPRI INC,,3 AVENUE,1028 3 AVENUE,,10065,2127581828,"1028 3 AVENUE
NEW YORK, NY 10065
(40.76269981075205, -73.96573601619161)"
SIDEWALK CAFE,623018,Enclosed,479,P J COFFEE SHOP INC,,CLARK STREET,80 CLARK STREET,,11201,7188555484,"80 CLARK STREET
BROOKLYN, NY 11201
(40.697425853420235, -73.99304094634415)"
SIDEWALK CAFE,629616,Enclosed,366,ZONOR REST CORP,,WEST    4 STREET,225 WEST    4 STREET,,10014,2122436722,"225 4 STREET
NEW YORK, NY 10014
(40.73401546913192, -74.0028671367192)"
SIDEWALK CAFE,670525,Unenclosed,752,CALIENTE CAB REST. CO INC,CALIENTE CAB CO,7 AVENUE SOUTH,61 7 AVENUE SOUTH,,10014,2122438517,"61 7 AVENUE
NEW YORK, NY 10014
(40.7316615068668, -74.00388110812699)"
SIDEWALK CAFE,693313,Enclosed,129,SANGE RESTAURANT INC,TIO PEPE            S/C #215,WEST    4 STREET,168 WEST    4 STREET,,10014,2126755097,"168 4 STREET
NEW YORK, NY 10014
(40.73210487531526, -74.00144809397511)"
SIDEWALK CAFE,695954,Enclosed,416,269 COLUMBUS REST. CORP.,THE CITY GRILL,COLUMBUS AVENUE,269 COLUMBUS AVENUE,,10023,2123970666,"269 COLUMBUS AVENUE
NEW YORK, NY 10023
(40.777705412080245, -73.97853705123687)"
SIDEWALK CAFE,697987,Enclosed,429,MIMIS REST CORP,E/S/C #255,2 AVENUE,984 2 AVENUE,,10022,2126884692,"984 2 AVENUE
NEW YORK, NY 10022
(40.756233685361394, -73.96752566702992)"
SIDEWALK CAFE,698346,Enclosed,260,ROLL-N-ROASTER CORP.,,EMMONS AVENUE,2901 EMMONS AVENUE,,11235,7187695831,"2901 EMMONS AVENUE
BROOKLYN, NY 11235
(40.58395122457237, -73.93980406423125)"
SIDEWALK CAFE,699252,Enclosed,170,NECTAR RESTAURANT CORP,,MADISON AVENUE,1090 MADISON AVENUE,,10028,2127720916,"1090 MADISON AVENUE
NY, NY 10028
(40.77826959973669, -73.96074547206369)"
SIDEWALK CAFE,733469,Enclosed,500,STAGE DELICATESSEN & RESTAURANT INC.,E/S/C #294,7 AVENUE,832 7 AVENUE,832-834 7 AVE,10019,2122457850,"832 7 AVENUE
NEW YORK, NY 10019
(40.76338057629478, -73.98165429371588)"
SIDEWALK CAFE,735569,Enclosed,548,INDIA FOODS INTERNATIONAL INC,INDIAN CAFE,BROADWAY,2791 BROADWAY,,10025,2127499200,"2791 BROADWAY
NEW YORK, NY 10025
(40.80265862752833, -73.96783838281848)"
SIDEWALK CAFE,737570,Enclosed,201,352 EAST 86TH STREET INC.,GRACIE'S CORNER,EAST   86 STREET,352 EAST   86 STREET,,10028,2127378505,"352 86 STREET
NEW YORK, NY 10028
(40.77732116023205, -73.95049287258203)"
SIDEWALK CAFE,738544,Enclosed,298,320 COLUMBUS AVE INC,MUGHLAI INDIAN CUISINE,COLUMBUS AVENUE,320 COLUMBUS AVENUE,,10023,2127247073,"320 COLUMBUS AVENUE
NEW YORK, NY 10023
(40.77944518693761, -73.97731029070872)"
SIDEWALK CAFE,760685,Enclosed,240,603 SECOND AVE CORP,BENJAMIN,2 AVENUE,603 2 AVENUE,,10016,2128890750,"603 2 AVENUE
NEW YORK, NY 10016
(40.744227736270204, -73.9762850635953)"
SIDEWALK CAFE,761576,Enclosed,422,FORTUNATO BROS.CAFE & BAKERY CORP,,MANHATTAN AVENUE,289 MANHATTAN AVENUE,E/S/C #357,11211,7183872281,"289 MANHATTAN AVENUE
BROOKLYN, NY 11211
(40.71365115947321, -73.94597281334283)"
SIDEWALK CAFE,762511,Unenclosed,162,LU-ANN BAKERY SHOP INC,BRUNO BAKERY        S/C #362,LA GUARDIA PLACE,506 LA GUARDIA PLACE,,10012,2129825894,"506 LA GUARDIA PLACE
NEW YORK, NY 10012
(40.727626251609365, -73.99933468720627)"
SIDEWALK CAFE,768933,Unenclosed,148,CAFFE DANTE INC,,MACDOUGAL STREET,81 MACDOUGAL STREET,,10012,2129825275,"81 MACDOUGAL STREET
NEW YORK, NY 10012
(40.72885959730405, -74.001494103853)"
SIDEWALK CAFE,769760,Enclosed,422,FIRST 69TH ST REALTY CORP,WESTSIDE RESTAURANT E/S/C #417,BROADWAY,2020 BROADWAY,,10023,2127244000,"2020 BROADWAY
NEW YORK, NY 10023
(40.77639648525826, -73.98200475170165)"
SIDEWALK CAFE,769952,Unenclosed,728,"567 HUDSON STREET, INC.",WHITE HORSE TAVERN,HUDSON STREET,567 HUDSON STREET,,10014,2129893956,"567 HUDSON STREET
NEW YORK, NY 10014
(40.73582761714791, -74.00599264107973)"
SIDEWALK CAFE,782187,Enclosed,227,MEXICO LINDO RESTAURANT INC,MEXICO LINDO        E/S/C #431,2 AVENUE,459 2 AVENUE,,10010,2126793665,"459 2 AVENUE
NEW YORK, NY 10010
(40.73966817358166, -73.97957658222253)"
SIDEWALK CAFE,782318,Unenclosed,43,"CAVALLACCI, FABRIZIO",CAFE REGGIO,MACDOUGAL STREET,119 MACDOUGAL STREET,119-123 MACDOUGAL ST,10012,2124759557,"119 MACDOUGAL STREET
NEW YORK, NY 10012
(40.73022220068271, -74.00033182492402)"
SIDEWALK CAFE,786740,Unenclosed,121,CORNELIA STREET CAFE INC,CORNELIA STREET CAFE  S/C #480,CORNELIA STREET,29 CORNELIA STREET,,10014,2129899319,"29 CORNELIA STREET
NEW YORK, NY 10014
(40.73133145837005, -74.00236540244504)"
SIDEWALK CAFE,787968,Unenclosed,144,A.C.A. 110 MULBERRY INC.,LA BELLA FERRARA COFFEE SHOP,MULBERRY STREET,110 MULBERRY STREET,,10013,2129661488,"110 MULBERRY STREET
NEW YORK, NY 10013
(40.71752686522029, -73.99830946009286)"
SIDEWALK CAFE,789922,Enclosed,420,345 COURT ST CORP,MARCO POLO REST     E/S/C #508,COURT STREET,345 COURT STREET,,11231,7188525015,"345 COURT STREET
BROOKLYN, NY 11231
(40.68236117903273, -73.99586560966354)"
SIDEWALK CAFE,804523,Unenclosed,535,TWO & EIGHT GOURMET LTD.,DALLAS BBQ,SECOND AVENUE,132 SECOND AVENUE,,10003,2125292563,"132 SECOND AVENUE
MANHATTAN, NY 10003
(40.72869644482421, -73.98758054828335)"
SIDEWALK CAFE,804849,Enclosed,375,THE BORDON AVE REST. INC,WATERFRONT CRABHOUSEE/S/C #530,BORDEN AVENUE,40577 BORDEN AVENUE,,11101,7187294862,"40577 BORDEN AVENUE
LIC, NY 11101
(40.74570244980828, -73.93866902925225)"
SIDEWALK CAFE,805433,Unenclosed,226,TORTILLA FLATS INC,,WASHINGTON STREET,767 WASHINGTON STREET,,10014,2122431053,"767 WASHINGTON STREET
NEW YORK, NY 10014
(40.73745584138959, -74.00821998885579)"
SIDEWALK CAFE,806050,Unenclosed,283,316 RESTAURANT CORP,PAPPARDELLA,COLUMBUS AVENUE,316 COLUMBUS AVENUE,,10023,2127247073,"316 COLUMBUS AVENUE
NEW YORK, NY 10023
(40.77928521534567, -73.97746649505467)"
SIDEWALK CAFE,807555,Unenclosed,46,DYNAMIC MUSIC CORP,,MACDOUGAL STREET,117 MACDOUGAL STREET,,10012,2122547533,"117 MACDOUGAL STREET
NEW YORK, NY 10012
(40.73009039396965, -74.00039588720085)"
SIDEWALK CAFE,811193,Unenclosed,63,MEZZALUNA ASSOCIATES,,3 AVENUE,1295 3 AVENUE,,10021,2125359600,"1295 3 AVENUE
NEW YORK, NY 10021
(40.77124337003039, -73.9595127077489)"
SIDEWALK CAFE,811344,Unenclosed,251,SEVEN A CAFE INC,,AVENUE A,109 AVENUE A,,10009,2126736583,"109 AVENUE
NY, NY 10009
(40.72664935898081, -73.97911148500697)"
SIDEWALK CAFE,812902,Unenclosed,453,RE SPEC CORP,JACKSON HOLE        S/C #594,COLUMBUS AVENUE,517 COLUMBUS AVENUE,,10024,2123625177,"517 COLUMBUS AVENUE
NEW YORK, NY 10024
(40.78577087491027, -73.97265268041868)"
SIDEWALK CAFE,814506,Unenclosed,356,CROISSANT CONSORTIUM LIMITED,THE HUNGARIAN PASTRY SHOP,AMSTERDAM AVENUE,1030 AMSTERDAM AVENUE,,10025,2128664230,"1030 AMSTERDAM AVENUE
NEW YORK, NY 10025
(40.80339362533206, -73.96359374086383)"
SIDEWALK CAFE,819452,Unenclosed,252,FRIEND OF A FARMER CORP,,IRVING PLACE,77 IRVING PLACE,,10003,2124772188,"77 IRVING PLACE
NEW YORK, NY 10003
(40.73696665103033, -73.98664760572923)"
SIDEWALK CAFE,832521,Enclosed,307,J N P K INC,ARMONDO'S RESTAURANTE/S/C #672,37 AVENUE,74-27 37 AVENUE,,11372,7188980113,"74 27 37 AVENUE
JACKSON HEIGHTS, NY 11372
(40.75163073936716, -73.88361254528269)"
SIDEWALK CAFE,832737,Unenclosed,175,NILO INC.& VIOLA CONSULTING LLC,MEZZOGIORNO ASSOC.,SPRING STREET,195 SPRING STREET,,10012,9146326036,"195 SPRING STREET
NEW YORK, NY 10012
(40.725162109249084, -74.00322875159316)"
SIDEWALK CAFE,832749,Enclosed,191,VRISA RESTAURANT INC,MORNING STAR REST   E/SC 674,WEST   57 STREET,401 WEST   57 STREET,A.K.A. 879  9TH AVENUE,10019,2122461593,"401 57 STREET
MANHATTAN, NY 10019
(40.76798495999973, -73.98578683753328)"
SIDEWALK CAFE,835262,Unenclosed,84,"TARO REST, INC",DUE,THIRD AVENUE,1396 THIRD AVENUE,,10075,2122497070,"1396 THIRD AVENUE
NEW YORK, NY 10075
(40.77452192213532, -73.95713531657603)"
SIDEWALK CAFE,838821,Unenclosed,35,LA TRAVIATA CORP,LA TRAVIATA RESTAURANT,MONTAGUE STREET,139 MONTAGUE STREET,,11201,7188584100,"139 MONTAGUE STREET
BROOKLYN, NY 11201
(40.69469766790304, -73.99384577066294)"
SIDEWALK CAFE,851080,Unenclosed,180,"THE FUTABA CORPORATION, INC.",CHOSHI JAPANESE RESTAURANT,IRVING PLACE,77 IRVING PLACE,STORE #1 AND #2,10003,2124201419,"77 IRVING PLACE
NEW YORK, NY 10003
(40.73696665103033, -73.98664760572923)"
SIDEWALK CAFE,851262,Unenclosed,264,NEW BELLA LUNA INC,BELLA LUNA,COLUMBUS AVENUE,584 COLUMBUS AVENUE,,10024,2128772267,"584 COLUMBUS AVENUE
NEW YORK, NY 10024
(40.787941371886205, -73.97115359497411)"
SIDEWALK CAFE,851667,Enclosed,395,TOTORE PIZZERIA & RESTUARANT INC.,TOTORE PIZZERIA & RESTUARANT INC.,DITMARS BOULEVARD,36-20 DITMARS BOULEVARD,,11105,7189325924,"36 20 DITMARS BOULEVARD
ASTORIA, NY 11105
(40.780092072491186, -73.90960650023976)"
SIDEWALK CAFE,852766,Enclosed,142,LAMARCA INC,LAMARCA CHEESE SHOP,EAST   22 STREET,161 EAST   22 STREET,,10010,2126737920,"161 22 STREET
NEW YORK, NY 10010
(40.73858694753217, -73.98453842244564)"
SIDEWALK CAFE,853927,Unenclosed,443,THREE BEANS INC,BENNY'S BURRITOS,AVENUE A,93 AVENUE A,,10009,2122342054,"93 AVENUE
NEW YORK, NY 10009
(40.72664935898081, -73.97911148500697)"
SIDEWALK CAFE,855696,Unenclosed,175,FEENJON CORP,,MACDOUGAL STREET,103-105 MACDOUGAL STREET,,10012,2126746968,"103 105 MACDOUGAL STREET
NEW YORK, NY 10012
(40.72553802086304, -73.99789641059084)"
SIDEWALK CAFE,858542,Unenclosed,116,AREO RESTAURANT CORP,,3 AVENUE,8420 3 AVENUE,8424 3 AVE,11209,7182380079,"8420 3 AVENUE
BROOKLYN, NY 11209
(40.62486528874661, -74.0305295065066)"
SIDEWALK CAFE,882869,Unenclosed,98,LIRA OF NEW YORK INC,LUKE'S BAR & GRILL,3 AVENUE,1394 3 AVENUE,,10075,2122497070,"1394 3 AVENUE
NEW YORK, NY 10075
(40.77457086153879, -73.9570665518292)"
SIDEWALK CAFE,883054,Unenclosed,357,CABRINI PARTNERS INC,CORNER CAFE & BAKERY,JOHNSON AVENUE,3552 JOHNSON AVENUE,,10463,7186012861,"3552 JOHNSON AVENUE
BRONX, NY 10463
(40.886180449674036, -73.9097849476806)"
SIDEWALK CAFE,883095,Unenclosed,302,83RD AMSTERDAM RESTAURANT CORP,HI LIFE BAR & GRILL,AMSTERDAM AVENUE,477 AMSTERDAM AVENUE,,10024,2127877199,"477 AMSTERDAM AVENUE
NEW YORK, NY 10024
(40.78560554283831, -73.97654586698383)"
SIDEWALK CAFE,884882,Unenclosed,145,POMODORO RESTAURANT & PIZZERIA INC,,SPRING STREET,51 SPRING STREET,,10012,2129669229,"51 SPRING STREET
NEW YORK, NY 10012
(40.72204547467682, -73.99639331720888)"
SIDEWALK CAFE,885830,Unenclosed,390,KEM REST INC,DON GIOVANNI,10 AVENUE,214 10 AVENUE,,10011,2122429054,"214 10 AVENUE
MANHATTAN, NY 10011
(40.74777889260001, -74.0040672982759)"
SIDEWALK CAFE,885853,Enclosed,226,JAPONICA U S A INC,JAPONICA,UNIVERSITY PLACE,100 UNIVERSITY PLACE,,10003,2122437752,"100 UNIVERSITY PLACE
MANHATTAN, NY 10003
(40.73394555557729, -73.99278479393114)"
SIDEWALK CAFE,885879,Unenclosed,160,K.I.D. RESTAURANT CORP.,MANATUS RESTAURANT,BLEECKER STREET,340 BLEECKER STREET,,10014,2129897042,"340 BLEECKER STREET
NEW YORK, NY 10014
(40.733813587170914, -74.00447880921388)"
SIDEWALK CAFE,885881,Enclosed,212,83/AMSTERDAM RESTAURANT CORP,HI-LIFE RESTAURANT,AMSTERDAM AVENUE,477 AMSTERDAM AVENUE,,10024,2127877199,"477 AMSTERDAM AVENUE
NEW YORK, NY 10024
(40.78560554283831, -73.97654586698383)"
SIDEWALK CAFE,890521,Unenclosed,253,200 EAST 81ST RESTAURANT CORP.,,THIRD AVENUE,1431 THIRD AVENUE,A/K/A 200 EAST 81 STREET,10028,2126500850,"1431 THIRD AVENUE
NEW YORK, NY 10028
(40.77552652139294, -73.95633707584796)"
SIDEWALK CAFE,890546,Unenclosed,219,FLORIOS ENTERPRISES INC,,GRAND STREET,192 GRAND STREET,,10013,2122267610,"192 GRAND STREET
NEW YORK, NY 10013
(40.71923557707595, -73.99705040925187)"
SIDEWALK CAFE,890575,Unenclosed,351,WILD ROSE MANAGEMENT INC,,BROADWAY,2756 BROADWAY,,10025,2122224453,"2756 BROADWAY
MANHATTAN, NY 10025
(40.80119273394605, -73.96775464866774)"
SIDEWALK CAFE,890588,Unenclosed,218,DOJO RESTAURANT INC,DOJO WEST,WEST    4 STREET,14 WEST    4 STREET,,10012,2126742516,"14 4 STREET
NEW YORK, NY 10012
(40.728129871945725, -73.99366895842167)"
SIDEWALK CAFE,895505,Unenclosed,255,BARJER CORP,FIREHOUSE RESTAURANT,COLUMBUS AVENUE,522 COLUMBUS AVENUE,,10024,2127873473,"522 COLUMBUS AVENUE
NY, NY 10024
(40.78590150084545, -73.97263895589063)"
SIDEWALK CAFE,895577,Enclosed,86,ANGELO VIVOLO RESTAURANT ASSOC INC,VIVOLO,EAST   74 STREET,140 EAST   74 STREET,,10021,2123080220,"140 74 STREET
NEW YORK, NY 10021
(40.771827929349456, -73.96148222299303)"
SIDEWALK CAFE,895586,Enclosed,265,M B R P REST INC,THE STUMBLE INN,2 AVENUE,1454 2 AVENUE,,10021,2126500561,"1454 2 AVENUE
NEW YORK, NY 10021
(40.77129732935214, -73.95653595183188)"
SIDEWALK CAFE,895599,Unenclosed,260,151 SECOND AVE. REST. INC.,RYAN'S IRISH PUB,2 AVENUE,151 2 AVENUE,,10003,2127809866,"151 2 AVENUE
NEW YORK, NY 10003
(40.72948784821, -73.98699598896428)"
SIDEWALK CAFE,895613,Unenclosed,297,COASTAL AT LINCOLN INC,JOSEPHINA,BROADWAY,1900 BROADWAY,,10023,2127691212,"1900 BROADWAY
NEW YORK, NY 10023
(40.77135954602272, -73.98199663393459)"
SIDEWALK CAFE,895625,Enclosed,411,MAFRA RESTAURANT CORP,IL VIOLINO,COLUMBUS AVENUE,180 COLUMBUS AVENUE,,10023,2128732500,"180 COLUMBUS AVENUE
MANHATTAN, NY 10023
(40.77493958357081, -73.98058382289537)"
SIDEWALK CAFE,895637,Unenclosed,328,BURRITO JUNCTION INC.,,COLUMBUS AVENUE,241 COLUMBUS AVENUE,,10023,2125809494,"241 COLUMBUS AVENUE
MANHATTAN, NY 10023
(40.776745340637135, -73.97923345554365)"
SIDEWALK CAFE,895644,Unenclosed,231,FELLOW TRAVELERS LTD,THREE OF CUPS,1 AVENUE,83 1 AVENUE,,10003,2123880059,"83 1 AVENUE
NEW YORK, NY 10003
(40.725962505855136, -73.98654632794961)"
SIDEWALK CAFE,907202,Enclosed,,EMEL SOAN CORP,ATHENS CAFE,30 AVENUE,32-07 30 AVENUE,,11102,7186262164,"32 07 30 AVENUE
QUEENS, NY 11102
(40.77152402451418, -73.92643545073543)"
SIDEWALK CAFE,907203,Unenclosed,157,FRENCH ROAST INC,,WEST   11 STREET,78 WEST   11 STREET,A/K/A 456 6 AVENUE,10011,2125057570,"78 11 STREET
MANHATTAN, NY 10011
(40.735055727621386, -73.99756340730801)"
SIDEWALK CAFE,907217,Enclosed,381,KHYBER PASS CORP,BAMIYAN RESTAURANT,THIRD AVENUE,358 THIRD AVENUE,,10016,2124813232,"358 THIRD AVENUE
NEW YORK, NY 10016
(40.74085527866032, -73.98166300933053)"
SIDEWALK CAFE,907977,Unenclosed,252,MESTOLA CAFFE CORP.,VINO,2 AVENUE,1268 2 AVENUE,,10065,2127445370,"1268 2 AVENUE
NEW YORK, NY 10065
(40.76525388172523, -73.96088414689159)"
SIDEWALK CAFE,908218,Unenclosed,145,TRUMLIN REST.CORP.,DIVINO RISTORANTE,2 AVENUE,1556 2 AVENUE,,10028,2128611096,"1556 2 AVENUE
NEW YORK, NY 10028
(40.7744629428953, -73.95422469421658)"
SIDEWALK CAFE,916146,Enclosed,228,HUSSIEN ENVIRONMENT INC.,CLEOPATRAS NEEDLE.,BROADWAY,2483 BROADWAY,,10025,2127696969,"2483 BROADWAY
NEW YORK, NY 10025
(40.79233732416694, -73.97365560962625)"
SIDEWALK CAFE,916981,Enclosed,720,33-01 BROADWAY CORP.,TIERRAS COLOMBIANAS II,BROADWAY,33-01 BROADWAY,,11106,7189563012,"33 01
ASTORIA, NY 11106
(40.761699790013324, -73.9316632529567)"
SIDEWALK CAFE,917301,Unenclosed,160,BROADWAY 76 LTD,NIKO'S MEDITERREAN GRILL AND BISTRO,BROADWAY,2161 BROADWAY,,10024,2128737000,"2161 BROADWAY
NEW YORK, NY 10024
(40.78208919370377, -73.9810694567912)"
SIDEWALK CAFE,917302,Enclosed,308,BROADWAY 76 LTD,NIKO'S MEDITERREAN GRILL AND BISTRO,BROADWAY,2161 BROADWAY,,10024,2128737000,"2161 BROADWAY
NEW YORK, NY 10024
(40.78208919370377, -73.9810694567912)"
SIDEWALK CAFE,917885,Unenclosed,277,"BLEECKER TRATTORIA, INC.",,BLEECKER STREET,232 BLEECKER STREET,,10014,2122556752,"232 BLEECKER STREET
NEW YORK, NY 10014
(40.73029495867493, -74.00250393710154)"
SIDEWALK CAFE,918358,Unenclosed,297,RESTAURANT 597 INC.,BUS STOP,HUDSON STREET,597 HUDSON STREET,,10014,2122061100,"597 HUDSON STREET
NEW YORK, NY 10014
(40.73691624817201, -74.00591772446074)"
SIDEWALK CAFE,918521,Unenclosed,106,CABANA-70 ASSOCIATES L.P.,CABANA RESTAURANT AND BAR,70 ROAD,107-10 70 ROAD,,11375,2125131988,"107 10 70 ROAD
QUEENS, NY 11375
(40.720707263029794, -73.84628429608335)"
SIDEWALK CAFE,919619,Unenclosed,89,ZESTFUL MANAGEMENT CORP.,BAR 6,AVENUE OF THE AMERICAS,502 AVENUE OF THE AMERICAS,SIXTH AVENUE,10011,2126911363,"502 AVENUE
NEW YORK, NY 10011
(40.74471526669623, -74.00460000028977)"
SIDEWALK CAFE,919907,Unenclosed,210,"HEARTLAND BREWERY, INC",HEARTLAND BREWERY,UNION SQUARE WEST,35 UNION SQUARE WEST,,10003,2126453400,"35 UNION SQUARE
NEW YORK, NY 10003
(40.73681732274878, -73.99057529064089)"
SIDEWALK CAFE,919917,Unenclosed,206,"COWGIRL, INC",,HUDSON STREET,519 HUDSON STREET,,10014,2126331133,"519 HUDSON STREET
NEW YORK, NY 10014
(40.73390351937388, -74.0062504736116)"
SIDEWALK CAFE,920112,Unenclosed,186,"BARFLY, INC",BARFLY,THIRD AVENUE,244 THIRD AVENUE,,10010,2124739660,"244 THIRD AVENUE
NEW YORK, NY 10010
(40.73699248853083, -73.9845328103094)"
SIDEWALK CAFE,920314,Enclosed,159,LEKKAS RESTAURANT CORPORATION,,SEVENTH AVENUE,322 SEVENTH AVENUE,,10001,2122390760,"322 SEVENTH AVENUE
NEW YORK, NY 10001
(40.747384356593045, -73.9932732567288)"
SIDEWALK CAFE,920440,Unenclosed,125,JO-RACH INC,THE CAFFE PALERMO,MULBERRY STREET,148 MULBERRY STREET,,10013,2124314205,"148 MULBERRY STREET
NY, NY 10013
(40.71907699671988, -73.9973890804017)"
SIDEWALK CAFE,920629,Unenclosed,84,"172 BLEECKER STREET RESTAURANT,INC",CAFE ESPANOL,BLEECKER STREET,172 BLEECKER STREET,,10012,2125050657,"172 BLEECKER STREET
NEW YORK, NY 10012
(40.72882671182167, -74.00056287297751)"
SIDEWALK CAFE,920717,Unenclosed,371,THE ODEON INC,,WEST BROADWAY,145 WEST BROADWAY,,10013,2122330507,"145 BROADWAY
NEW YORK, NY 10013
(40.716999760104166, -74.00800910673831)"
SIDEWALK CAFE,920983,Unenclosed,275,"RESTAURANT VENTURES OF NY,INC.",,SPRING STREET,200 SPRING STREET,,10012,2124311212,"200 SPRING STREET
NYC, NY 10012
(40.725171102469346, -74.00324673803374)"
SIDEWALK CAFE,922650,Unenclosed,718,ZONOR REST CORP.,RIVIERA CAFE,WEST    4 STREET,225 WEST    4 STREET,,10014,2129293250,"225 4 STREET
NEW YORK, NY 10014
(40.73401546913192, -74.0028671367192)"
SIDEWALK CAFE,924263,Enclosed,439,STARBUCKS CORPORATION,STARBUCKS COFFEE CO. #818,2 AVENUE,1559 2 AVENUE,,10028,2063184048,"1559 2 AVENUE
NEW YORK, NY 10028
(40.77456186831853, -73.95415274845425)"
SIDEWALK CAFE,924582,Enclosed,,STARBUCKS CORPORATION,STARBUCKS COFFEE COMPANY,LAFAYETTE STREET,454 LAFAYETTE STREET,STORE #825,10003,2063184048,"454 LAFAYETTE STREET
NEW YORK, NY 10003
(40.72996161666133, -73.99128876964679)"
SIDEWALK CAFE,924708,Unenclosed,68,BLL RESTAURANT CORP.,PORTO BELLO RESTAURANT,THOMPSON STREET,208 THOMPSON STREET,,10012,2124737794,"208 THOMPSON STREET
NEW YORK, NY 10012
(40.728831343128604, -73.99931670076569)"
SIDEWALK CAFE,924875,Enclosed,516,449 RESTAURANT INC.,MOONSTRUCK DINER,THIRD AVENUE,449 THIRD AVENUE,,10016,2122131100,"449 THIRD AVENUE
NEW YORK, NY 10016
(40.743742102374426, -73.97955859578195)"
SIDEWALK CAFE,928548,Enclosed,418,184 3RD AVENUE RESTAURANT CORP.,GRAMERCY CAFE,3 AVENUE,184 3 AVENUE,,10003,7185672990,"184 3 AVENUE
NEW YORK, NY 10003
(40.73510861089312, -73.98585384998705)"
SIDEWALK CAFE,928680,Unenclosed,228,"300 E. 5TH ST. REST., INC.",MARYANN'S D.F.,EAST    5 STREET,300 EAST    5 STREET,,10003,2124755939,"300 5 STREET
NEW YORK, NY 10003
(40.72674563891382, -73.98897444942646)"
SIDEWALK CAFE,929109,Unenclosed,280,"GILLI, INC.",GILLI REST,AMSTERDAM AVENUE,417 AMSTERDAM AVENUE,,10024,2123621180,"417 AMSTERDAM AVENUE
NEW YORK, NY 10024
(40.78373675087649, -73.97785383922432)"
SIDEWALK CAFE,930600,Unenclosed,180,LUMI CORPORATION,,LEXINGTON AVENUE,963 LEXINGTON AVENUE,,10021,9174285668,"963 LEXINGTON AVENUE
NEW YORK, NY 10021
(40.76920190902388, -73.96308301620519)"
SIDEWALK CAFE,931051,Unenclosed,163,"M.E.G.RESTAURANT ENTERPRISES,LTD.",NOVITA,EAST   22 STREET,102 EAST   22 STREET,,10010,2126772222,"102 22 STREET
NEW YORK, NY 10010
(40.73931743799022, -73.98637545676405)"
SIDEWALK CAFE,931822,Unenclosed,397,NOHO STAR INC.,THE NOHO STAR,LAFAYETTE STREET,330 LAFAYETTE STREET,,10012,2129250070,"330 LAFAYETTE STREET
NEW YORK, NY 10012
(40.725926175038914, -73.99468984356588)"
SIDEWALK CAFE,933853,Unenclosed,386,VESELKA ENTERPRISES LTD,,2 AVENUE,144 2 AVENUE,,10003,2122289682,"144 2 AVENUE
NEW YORK, NY 10003
(40.72908315329681, -73.98729276523397)"
SIDEWALK CAFE,935481,Unenclosed,180,MICHAEL KING INC.,,1 AVENUE,1361 1 AVENUE,GR.FL,10021,2127373664,"1361 1 AVENUE
NEW YORK, NY 10021
(40.76860835648455, -73.95542079251555)"
SIDEWALK CAFE,936261,Unenclosed,272,"SEVENTH AVENUE TOMATO,INC.",RESTIVO RISTORANTE,7 AVENUE,209 7 AVENUE,,10011,2123664133,"209 7 AVENUE
NEW YORK, NY 10011
(40.743544251527965, -73.99603417535877)"
SIDEWALK CAFE,940252,Unenclosed,264,"CARMINES BROADWAY FEAST,INC.",CARMINE'S,BROADWAY,2450 BROADWAY,,10024,2123622200,"2450 BROADWAY
NEW YORK, NY 10024
(40.79095650891264, -73.9743605144526)"
SIDEWALK CAFE,941701,Unenclosed,408,ANDIKIANA CORP.,SILVER SPURS EATERY,LA GUARDIA PLACE,490 LA GUARDIA PLACE,,10012,2122282333,"490 LA GUARDIA PLACE
NEW YORK, NY 10012
(40.727006949523016, -73.99989346228452)"
SIDEWALK CAFE,943587,Unenclosed,85,R&A EAST 16TH ASSOCIATES,CHAT 'N CHEW,EAST   16 STREET,10 EAST   16 STREET,,10003,2126611313,"10 16 STREET
NEW YORK, NY 10003
(40.737203218009554, -73.99245960604283)"
SIDEWALK CAFE,945762,Unenclosed,96,136 WEST BROADWAY INC.,EDWARD'S,WEST BROADWAY,136 WEST BROADWAY,,10013,2122336436,"136 BROADWAY
NEW YORK, NY 10013
(40.71687935335922, -74.00813904987314)"
SIDEWALK CAFE,949447,Unenclosed,113,164 MULBERRY ST. CORP,DA NICO RESTAURANT,MULBERRY STREET,164 MULBERRY STREET,,10013,2123431212,"164 MULBERRY STREET
NEW YORK, NY 10013
(40.71969423131094, -73.99715832789536)"
SIDEWALK CAFE,949696,Enclosed,414,"THREE DECKER RESTAURANT,LTD",THREE DECKER RESTAURANT,2 AVENUE,1746 2 AVENUE,,10128,2122899936,"1746 2 AVENUE
NEW YORK, NY 10128
(40.78097403438744, -73.94946728068157)"
SIDEWALK CAFE,950183,Unenclosed,193,"ME'KONG DELTA, INC.",REPUBLIC RESTAURANT,UNION SQUARE WEST,37 UNION SQUARE WEST,,10003,2126277172,"37 UNION SQUARE
NEW YORK, NY 10003
(40.736889268511106, -73.99052133131914)"
SIDEWALK CAFE,950945,Enclosed,870,162-54 CORP,CAROSELLO CAFE,CROSSBAY BOULEVARD,162-54 CROSSBAY BOULEVARD,,11414,7188435055,"162 54 CROSSBAY BOULEVARD
HOWARD BEACH, NY 11414
(40.65817022817356, -73.84496263981396)"
SIDEWALK CAFE,952606,Unenclosed,113,1490 REST. INC.,WATSON'S,SECOND AVENUE,1490 SECOND AVENUE,,10075,2126764817,"1490 SECOND AVENUE
NEW YORK, NY 10075
(40.77239450222788, -73.95572656200551)"
SIDEWALK CAFE,953473,Unenclosed,558,"359 COLUMBUS AVENUE, LLC",ISABELLA'S,COLUMBUS AVENUE,359 COLUMBUS AVENUE,,10024,2127242100,"359 COLUMBUS AVENUE
NEW YORK, NY 10024
(40.78061390725591, -73.97641638674729)"
SIDEWALK CAFE,953744,Unenclosed,180,442 AMSTERDAM RESTAURANT CORP.,GIN MILL,AMSTERDAM AVENUE,442 AMSTERDAM AVENUE,,10024,2125809080,"442 AMSTERDAM AVENUE
NEW YORK, NY 10024
(40.78462528182638, -73.97724733816665)"
SIDEWALK CAFE,954269,Unenclosed,237,JUDEX ENTERPRISES INC.,PANGEA,2 AVENUE,178 2 AVENUE,,10003,2129950900,"178 2 AVENUE
NEW YORK, NY 10003
(40.730612000746646, -73.98619559235823)"
SIDEWALK CAFE,954466,Unenclosed,175,1291 PUB INC.,,THIRD AVENUE,1291 THIRD AVENUE,,10021,2127440585,"1291 THIRD AVENUE
NEW YORK, NY 10021
(40.77117142426806, -73.95956666707065)"
SIDEWALK CAFE,954963,Unenclosed,83,"BLOCKHEAD'S BURRITOS, INC.",BLOCKHEADS,3 AVENUE,499 3 AVENUE,,10016,2122133332,"499 3 AVENUE
NEW YORK, NY 10016
(40.74549578033151, -73.97829055172065)"
SIDEWALK CAFE,955462,Enclosed,420,MEXICALI ENTERPRISES LTD,RODEO BAR AND GRILL,3 AVENUE,375 3 AVENUE,,10016,2126836500,"375 3 AVENUE
NEW YORK, NY 10016
(40.74145782441997, -73.98123133475644)"
SIDEWALK CAFE,955674,Unenclosed,212,MBRP REST.INC.,THE STUMBLE INN,2 AVENUE,1454 2 AVENUE,,10021,2127379391,"1454 2 AVENUE
NEW YORK, NY 10021
(40.77129732935214, -73.95653595183188)"
SIDEWALK CAFE,955758,Unenclosed,234,"KIMAN COFFEE SHOP,INC.",BIG NICK'S BURGER JOINT & PIZZA JOINT,BROADWAY,2173-75 BROADWAY,,10024,2125131988,"2173 75
NEW YORK, NY 10024
(40.78362556816552, -73.96653900057436)"
SIDEWALK CAFE,955847,Unenclosed,379,"MSD ENTERPRISES,INC",,SECOND AVENUE,118 SECOND AVENUE,,10003,2122530425,"118 SECOND AVENUE
NEW YORK, NY 10003
(40.7280849058443, -73.98803020929796)"
SIDEWALK CAFE,955853,Unenclosed,200,"MIDWEST TOMATO,INC",PUTTANESCA,9 AVENUE,859 9 AVENUE,,10019,2125814177,"859 9 AVENUE
NEW YORK, NY 10019
(40.7670974954753, -73.9863214974423)"
SIDEWALK CAFE,956923,Unenclosed,380,CAFFE SILVESTRI INC.,CAFFE NAPOLI,HESTER STREET,191 HESTER STREET,A/K/A 130 MULBERRY STREET,10013,2122268705,"191 HESTER STREET
NEW YORK, NY 10013
(40.71811142453936, -73.99781483297676)"
SIDEWALK CAFE,957079,Unenclosed,360,TWO BACALHAUS INC,PAO,SPRING STREET,322 SPRING STREET,,10013,2123345464,"322 SPRING STREET
NEW YORK, NY 10013
(40.72594706936591, -74.00911308010356)"
SIDEWALK CAFE,957290,Unenclosed,185,"J & D OPERATORS,LLC",PROHIBITION,COLUMBUS AVENUE,503 COLUMBUS AVENUE,,10024,2125793100,"503 COLUMBUS AVENUE
NEW YORK, NY 10024
(40.785253090251864, -73.97304471737428)"
SIDEWALK CAFE,958014,Unenclosed,203,SETA RESTAURANT CORP.,,NINTH AVENUE,686 NINTH AVENUE,,10036,2122456060,"686 NINTH AVENUE
NEW YORK, NY 10036
(40.7618454548242, -73.99015260928712)"
SIDEWALK CAFE,959237,Unenclosed,289,"MOHECO,INC.",,36 STREET,32-90 36 STREET,,11106,7182045273,"32 90 36 STREET
QUEENS, NY 11106
(40.761699790013324, -73.9316632529567)"
SIDEWALK CAFE,960499,Unenclosed,356,"A.B.C. HOME FURNISHINGS, INC.",THE PIPA,EAST   19 STREET,38 EAST   19 STREET,,10003,2124733000,"38 19 STREET
NEW YORK, NY 10003
(40.73829314748262, -73.98956493815646)"
SIDEWALK CAFE,960517,Unenclosed,61,NERA CORP.,,AVENUE A,145 AVENUE A,,10009,2126737231,"145 AVENUE
NEW YORK, NY 10009
(40.72664935898081, -73.97911148500697)"
SIDEWALK CAFE,964932,Unenclosed,134,ANGELO OF MULBERRY STREET INC.,,MULBERRY STREET,146 MULBERRY STREET,,10013,2129661277,"146 MULBERRY STREET
NY, NY 10013
(40.718975190242624, -73.99743669956042)"
SIDEWALK CAFE,966602,Enclosed,227,"BELLA CUCINA, INC",,LEXINGTON AVENUE,1293 LEXINGTON AVENUE,,10128,2122899004,"1293 LEXINGTON AVENUE
NEW YORK, NY 10128
(40.78038900429782, -73.9548611399978)"
SIDEWALK CAFE,968091,Unenclosed,108,"ERJO COMPANY, LLC",MOTTSU,MOTT STREET,285 MOTT STREET,,10012,2123438017,"285 MOTT STREET
NEW YORK, NY 10012
(40.72424480077916, -73.99437942282486)"
SIDEWALK CAFE,970343,Enclosed,,C.S.L.L. REST. CORP,EJ'S LUNCHEONETTE,THIRD AVENUE,1271 THIRD AVENUE,,10021,2124720600,"1271 THIRD AVENUE
NEW YORK, NY 10021
(40.77056887850841, -73.960007334865)"
SIDEWALK CAFE,970546,Enclosed,176,R ANGEL INC,MCDONALD'S,ROOSEVELT AVENUE,57-25 ROOSEVELT AVENUE,,11377,6316984788,"57 25 ROOSEVELT AVENUE
WOODSIDE, NY 11377
(40.74519376448069, -73.9048471440804)"
SIDEWALK CAFE,974443,Enclosed,346,SAC'S PIZZA PLACE INC.,SAC'S PLACE,BROADWAY,25-41 BROADWAY,,11106,7182045002,"25 41
ASTORIA, NY 11106
(40.761699790013324, -73.9316632529567)"
SIDEWALK CAFE,976266,Unenclosed,290,"CAFE FOCACCIA, INC.",,1 AVENUE,1166 1 AVENUE,,10065,2126830371,"1166 1 AVENUE
NEW YORK, NY 10065
(40.762627864989724, -73.95977351113737)"
SIDEWALK CAFE,976336,Enclosed,185,G.K. RESTAURANT & BAGELS CORP.,BAGEL BOB'S ON YORK,YORK AVENUE,1638 YORK AVENUE,,10028,2125353838,"1638 YORK AVENUE
NEW YORK, NY 10028
(40.77605122741927, -73.94698170778466)"
SIDEWALK CAFE,976475,Enclosed,148,VIAND RESTAURANT INC,,EAST   86 STREET,300 EAST   86 STREET,,10028,2128799425,"300 86 STREET
NEW YORK, NY 10028
(40.77782606681636, -73.95167997542659)"
SIDEWALK CAFE,977278,Unenclosed,166,ROMI BAKERY INC.,GIAN & PIERO BAKERY,30 AVENUE,44-17 30 AVENUE,,11103,7182748959,"44 17 30 AVENUE
QUEENS, NY 11103
(40.76286893025696, -73.91327185810974)"
SIDEWALK CAFE,978206,Enclosed,366,SIBECA CORPORATION,POLLOS MARIO,BROADWAY,40-19 BROADWAY,,11103,7189322424,"40 19
ASTORIA, NY 11103
(40.76286893025696, -73.91327185810974)"
SIDEWALK CAFE,978960,Unenclosed,214,ST. JAMES ASSOCIATES LP,SMITH & WOLLENSKY,EAST   49 STREET,201 EAST   49 STREET,,10017,2127531530,"201 49 STREET
NEW YORK, NY 10017
(40.75519480868664, -73.97115452764089)"
SIDEWALK CAFE,978961,Enclosed,334,"ST. JAMES ASSOCIATES, LP",SMITH & WOLLENSKY,EAST   49 STREET,201 EAST   49 STREET,,10017,2127531530,"201 49 STREET
NEW YORK, NY 10017
(40.75519480868664, -73.97115452764089)"
SIDEWALK CAFE,979320,Unenclosed,370,"1337 THIRD AVENUE, LLC",ATLANTIC GRILL,3 AVENUE,1337 3 AVENUE,,10075,2129889200,"1337 3 AVENUE
NEW YORK, NY 10075
(40.77254040486646, -73.95853518892002)"
SIDEWALK CAFE,979463,Unenclosed,169,DE PALINO RESTAURANT CORP.,CITY CRAB & SEAFOOD CO.,PARK AVENUE SOUTH,235 PARK AVENUE SOUTH,,10003,2125293800,"235 PARK AVENUE
NEW YORK, NY 10003
(40.737851543082456, -73.98800322963712)"
SIDEWALK CAFE,979768,Unenclosed,140,MANEKEN CORP.,PETITE ABEILLE,HUDSON STREET,466 HUDSON STREET,,10014,2127271505,"466 HUDSON STREET
MANHATTAN, NY 10014
(40.731763439488326, -74.00655870149312)"
SIDEWALK CAFE,980100,Unenclosed,382,RADIANTE LLC,CITY HALL RESTAURANT,DUANE STREET,131 DUANE STREET,,10013,2124069038,"131 DUANE STREET
MANHATTAN, NY 10013
(40.716165623414625, -74.00738413249948)"
SIDEWALK CAFE,980182,Unenclosed,148,SUNFLOWER RESTAURANT ASSOC. INC,FLOR DE SOL,GREENWICH STREET,361 GREENWICH STREET,,10013,2123661640,"361 GREENWICH STREET
NEW YORK, NY 10013
(40.71902579095857, -74.01029049794519)"
SIDEWALK CAFE,981250,Unenclosed,139,BSWR CORP.,,AMSTERDAM AVENUE,423 AMSTERDAM AVENUE,,10024,2124966280,"423 AMSTERDAM AVENUE
NEW YORK, NY 10024
(40.783968776744985, -73.97772397884222)"
SIDEWALK CAFE,982077,Unenclosed,168,MARE MARE INC.,BISTRO CASSIS,COLUMBUS AVENUE,225 COLUMBUS AVENUE,,10023,6313671156,"225 COLUMBUS AVENUE
NEW YORK, NY 10023
(40.77634252593651, -73.97956758900227)"
SIDEWALK CAFE,984023,Enclosed,180,"PLAZA MEXICO, INC.",MAMA MEXICO,BROADWAY,2672 BROADWAY,,10025,2128642323,"2672 BROADWAY
NEW YORK, NY 10025
(40.7982007345526, -73.96903439647322)"
SIDEWALK CAFE,984345,Enclosed,328,"HELEDONA, INC",,WEST   60 STREET,200 WEST   60 STREET,,10023,2125015259,"200 60 STREET
NEW YORK, NY 10023
(40.77106739750029, -73.9871826807627)"
SIDEWALK CAFE,984692,Unenclosed,306,"PYRAMID RESTAURANT GROUP, INC",JOSIE'S,3 AVENUE,565 3 AVENUE,,10016,2124901558,"565 3 AVENUE
NEW YORK, NY 10016
(40.74779827229383, -73.97659963701241)"
SIDEWALK CAFE,987074,Unenclosed,202,A & Z RESTAURANT CORP.,WINEBAR,2 AVENUE,65 2 AVENUE,NORTH STORE,10003,2127771608,"65 2 AVENUE
NEW YORK, NY 10003
(40.72609243259407, -73.9895358571618)"
SIDEWALK CAFE,987452,Enclosed,167,UKATOSH CORP,,31 STREET,36-02 31 STREET,"A/K/A 31-02, 36 STREET",11106,7184332191,"36 02 31 STREET
ASTORIA, NY 11106
(40.761699790013324, -73.9316632529567)"
SIDEWALK CAFE,990613,Unenclosed,172,NEW STORE RESTAURANT CORP,,AMSTERDAM AVENUE,447 AMSTERDAM AVENUE,,10024,2128733444,"447 AMSTERDAM AVENUE
NEW YORK, NY 10024
(40.78466933493627, -73.97717203084368)"
SIDEWALK CAFE,997686,Unenclosed,95,TRE-GIOVANI INC,,LA GUARDIA PLACE,548 LA GUARDIA PLACE,,10012,2124757420,"548 LA GUARDIA PLACE
NEW YORK, NY 10012
(40.72886718978907, -73.99830931626734)"
SIDEWALK CAFE,999317,Enclosed,188,PEEGEES ASSOCIATES LLC,TOTONNO'S PIZZERIA NAPOLITANO,2 AVENUE,1544 2 AVENUE,,10028,2123272800,"1544 2 AVENUE
NY, NY 10028
(40.77430106493, -73.95434160608039)"
SIDEWALK CAFE,999448,Unenclosed,306,"DELUXE ON BROADWAY, INC.",,BROADWAY,2896 BROADWAY,,10025,9172082174,"2896 BROADWAY
NEW YORK, NY 10025
(40.80594046623936, -73.96524300788494)"
SIDEWALK CAFE,1000225,Unenclosed,470,"119 7TH AVEUNE CAFETERIA, LLC",CAFETERIA,7 AVENUE,119 7 AVENUE,,10011,2124141717,"119 7 AVENUE
NEW YORK, NY 10011
(40.740747360016826, -73.99808462958555)"
SIDEWALK CAFE,1000314,Unenclosed,480,"BROADWAY DESSERTS, LTD",,BROADWAY,2340 BROADWAY,,10024,2125131988,"2340 BROADWAY
NEW YORK, NY 10024
(40.78761556656549, -73.9769211176041)"
SIDEWALK CAFE,1000917,Unenclosed,109,BUCKWHEAT AND ALFALFA INC,THE ROCKING HORSE MEXICAN CAFE,EIGHTH AVENUE,182 EIGHTH AVENUE,,10011,2124639511,"182 EIGHTH AVENUE
NEW YORK, NY 10011
(40.74295780096177, -74.00014141406558)"
SIDEWALK CAFE,1001063,Unenclosed,741,112 FRENCH INC,LE MONDE,BROADWAY,2883 BROADWAY,,10025,2125313939,"2883 BROADWAY
NEW YORK, NY 10025
(40.80559535688176, -73.96583186179622)"
SIDEWALK CAFE,1001562,Enclosed,236,KARAVAS FOOD LTD,KARAVAS PLACE TAVERN,WEST    4 STREET,162 WEST    4 STREET,,10014,2122438007,"162 4 STREET
NY, NY 10014
(40.73183710942586, -74.00122571450645)"
SIDEWALK CAFE,1001940,Unenclosed,142,"BREAD OF LIFE, LLC",,2 AVENUE,1712 2 AVENUE,,10128,2127224242,"1712 2 AVENUE
NEW YORK, NY 10128
(40.779670017444914, -73.95042056203266)"
SIDEWALK CAFE,1002419,Unenclosed,84,1483 FIRST AVENUE RESTAURANT INC.,,FIRST AVENUE,1483 FIRST AVENUE,,10075,2129888877,"1483 FIRST AVENUE
NEW YORK, NY 10075
(40.77125236325071, -73.95347825693227)"
SIDEWALK CAFE,1002936,Unenclosed,92,SAWOY INC,REGIONAL THAI SAWOY,FIRST AVENUE,1479 FIRST AVENUE,,10075,2125851942,"1479 FIRST AVENUE
NEW YORK, NY 10075
(40.77114444460716, -73.9535502026946)"
SIDEWALK CAFE,1003195,Unenclosed,119,RIOMAR CORP,KANA,SPRING STREET,324 SPRING STREET,,10013,2123438180,"324 SPRING STREET
SOHO, NY 10013
(40.72600747195662, -74.00940709393444)"
SIDEWALK CAFE,1003313,Unenclosed,169,J.P.G. LLC,PHILIP MARIE,HUDSON STREET,569 HUDSON STREET,,10014,2128673820,"569 HUDSON STREET
NEW YORK, NY 10014
(40.73589102105859, -74.00594470412165)"
SIDEWALK CAFE,1004472,Unenclosed,199,TAKATSUKI CORPORATION,,2 AVENUE,188-190 2 AVENUE,,10003,2122606303,"188 190 2 AVENUE
NEW YORK, NY 10003
(40.73194394755518, -73.98887214913032)"
SIDEWALK CAFE,1006183,Unenclosed,297,520 COLUMBUS AVE LTD,NONNA RESTAURANT,COLUMBUS AVENUE,520 COLUMBUS AVENUE,,10024,2125793194,"520 COLUMBUS AVENUE
NEW YORK, NY 10024
(40.78583725327968, -73.97268629620226)"
SIDEWALK CAFE,1007220,Enclosed,272,"OLIVER KING ENTERPRISES, INC.",EMPIRE SZECHWAN VILLAGE,7 AVENUE SOUTH,173 7 AVENUE SOUTH,,10014,2122436046,"173 7 AVENUE
NEW YORK, NY 10014
(40.73607987868479, -74.0013851414331)"
SIDEWALK CAFE,1008741,Unenclosed,402,ROCCO'S ITALIAN CAFETERIA,ROCCO'S ITALIAN CAFETERIA,FORT HAMILTON PARKWAY,6408 FORT HAMILTON PARKWAY,,11219,7188332109,"6408 FORT HAMILTON PARKWAY
BROOKLYN, NY 11219
(40.631165321900916, -74.0086187468614)"
SIDEWALK CAFE,1008999,Unenclosed,155,"CLUB AMERICA, INC.",ASSAGGIO,COLUMBUS AVENUE,473 COLUMBUS AVENUE,,10024,2124009401,"473 COLUMBUS AVENUE
NEW YORK, NY 10024
(40.78436447843791, -73.97372199581184)"
SIDEWALK CAFE,1010561,Unenclosed,100,17 MILE CORPORATION,BLUE MOON MEXICAN CAFE,1 AVENUE,1444 1 AVENUE,,10021,2122889811,"1444 1 AVENUE
NEW YORK, NY 10021
(40.769876400545854, -73.9544854976051)"
SIDEWALK CAFE,1010686,Unenclosed,129,LA RIPAILLE CORP,LA RIPAILLE RESTAURANT,HUDSON STREET,605 HUDSON STREET,,10014,2122554406,"605 HUDSON STREET
NEW YORK, NY 10014
(40.73732047478242, -74.00577364392853)"
SIDEWALK CAFE,1011960,Unenclosed,103,"PEE WEE & TYSON, LTD",CAFE GITANE,MOTT STREET,242 MOTT STREET,,10003,2129650918,"242 MOTT STREET
NEW YORK, NY 10003
(40.72309852241254, -73.99483354655025)"
SIDEWALK CAFE,1013198,Unenclosed,164,"GRACE'S MARKETPLACE, INC",GRACE'S TRATTORIA CAFE & GRILL,EAST   71 STREET,201 EAST   71 STREET,,10021,2128760200,"201 71 STREET
NEW YORK, NY 10021
(40.769067963228416, -73.96107476739137)"
SIDEWALK CAFE,1013335,Unenclosed,166,"L. SZECHUAN EAST, LTD",PIG HEAVEN RESTAURANT,2 AVENUE,1540 2 AVENUE,,10028,2127444333,"1540 2 AVENUE
NEW YORK, NY 10028
(40.77418415306619, -73.95442254506304)"
SIDEWALK CAFE,1015214,Unenclosed,127,GYRO KING FOODS CORP.,,EAST FORDHAM ROAD,50 EAST FORDHAM ROAD,A/K/A 2450 WALTON AVENUE,10468,7184898050,"50 FORDHAM ROAD
BRONX, NY 10468
(40.862441933494246, -73.90027711925939)"
SIDEWALK CAFE,1016775,Unenclosed,147,"BEK ENTERPRISES, INC",SAVANN RESTAURANT,AMSTERDAM AVENUE,414 AMSTERDAM AVENUE,,10024,2125800202,"414 AMSTERDAM AVENUE
NEW YORK, NY 10024
(40.78365401403471, -73.97795780256985)"
SIDEWALK CAFE,1020216,Unenclosed,179,HAVELI RESTAURANT INC.,,2 AVENUE,100 2 AVENUE,,10003,2129820533,"100 2 AVENUE
NEW YORK, NY 10003
(40.72723954313676, -73.98864174827793)"
SIDEWALK CAFE,1021206,Enclosed,510,2180 BROADWAY REST. INC,MANHATTAN DINER,BROADWAY,2180 BROADWAY,,10024,2128777252,"2180 BROADWAY
NEW YORK, NY 10024
(40.7825208682778, -73.9806557686577)"
SIDEWALK CAFE,1022739,Enclosed,371,"TERMINUS RESTAURANT ASSOCIATES, LLC",ORSAY RESTAURANT,LEXINGTON AVENUE,1057 LEXINGTON AVENUE,,10021,2125174296,"1057 LEXINGTON AVENUE
NEW YORK, NY 10021
(40.77248443443085, -73.96069981282756)"
SIDEWALK CAFE,1023023,Unenclosed,175,EGG WHITE INC,BLOCKHEADS,SECOND AVENUE,1563 SECOND AVENUE,,10028,2123560006,"1563 SECOND AVENUE
NEW YORK, NY 10028
(40.774736252016936, -73.95406356529153)"
SIDEWALK CAFE,1023699,Unenclosed,99,P.E.C GROUP LTD.,PEPOLINO,WEST BROADWAY,281 WEST BROADWAY,,10013,2129669983,"281 BROADWAY
NEW YORK, NY 10013
(40.72067583209848, -74.00511238444041)"
SIDEWALK CAFE,1024654,Unenclosed,228,"JAYA MALAYSIAN RESTAURANT, INC",JAYA MALAYSIAN RESTAURANT,BAXTER STREET,90 BAXTER STREET,,10013,2122193331,"90 BAXTER STREET
NEW YORK, NY 10013
(40.716446620467494, -74.00002042693194)"
SIDEWALK CAFE,1025180,Unenclosed,908,"GRILLO, LTD",HENRY'S,BROADWAY,2745 BROADWAY,,10025,2128660600,"2745 BROADWAY
NEW YORK, NY 10025
(40.80089401733642, -73.96804727380692)"
SIDEWALK CAFE,1025224,Unenclosed,585,"SURTIC, INC",CITRUS,AMSTERDAM AVENUE,320 AMSTERDAM AVENUE,,10023,2125950500,"320 AMSTERDAM AVENUE
NEW YORK, NY 10023
(40.7807581971004, -73.98007120933869)"
SIDEWALK CAFE,1025932,Unenclosed,187,"KITCHEN TABLE, INC",FRANK RESTAURANT,2 AVENUE,88 2 AVENUE,,10003,2124200202,"88 2 AVENUE
NEW YORK, NY 10003
(40.72692478042649, -73.9888755720055)"
SIDEWALK CAFE,1026510,Enclosed,301,STROKOS GOURMET DELI INC,,AMSTERDAM AVENUE,1090 AMSTERDAM AVENUE,,10025,2126662121,"1090 AMSTERDAM AVENUE
NEW YORK, NY 10025
(40.80524788244413, -73.96224091603351)"
SIDEWALK CAFE,1026947,Enclosed,294,COSITAS RICAS CORP.,,ROOSEVELT AVENUE,79-19 ROOSEVELT AVENUE,,11372,7184788136,"79 19 ROOSEVELT AVENUE
JACKSON HEIGHTS, NY 11372
(40.75163073936716, -73.88361254528269)"
SIDEWALK CAFE,1027124,Unenclosed,249,HARU THIRD AVENUE CORP.,,3 AVENUE,1329 3 AVENUE,,10075,2124522230,"1329 3 AVENUE
NEW YORK, NY 10075
(40.77234597145114, -73.95867608269926)"
SIDEWALK CAFE,1027125,Unenclosed,291,HARU AMSTERDAM AVENUE CORP.,HARU,AMSTERDAM AVENUE,433 AMSTERDAM AVENUE,,10024,2125795655,"433 AMSTERDAM AVENUE
NEW YORK, NY 10024
(40.78423607851503, -73.97748824930082)"
SIDEWALK CAFE,1027305,Unenclosed,626,"COSI, INC.",,BROADWAY,841 BROADWAY,,10003,2126148544,"841 BROADWAY
NEW YORK, NY 10003
(40.73396689745794, -73.99097622768353)"
SIDEWALK CAFE,1027923,Unenclosed,337,"MARLOW, INC.",,BROADWAY,85 BROADWAY,,11211,7184863077,"85 BROADWAY
BROOKLYN, NY 11211
(40.710525294276685, -73.96559728720135)"
SIDEWALK CAFE,1027927,Unenclosed,175,GOOD ENOUGH TO EAT UPTOWN LTD,,AMSTERDAM AVENUE,483 AMSTERDAM AVENUE,,10024,2124960163,"483 AMSTERDAM AVENUE
NEW YORK, NY 10024
(40.78588433266742, -73.9763390229171)"
SIDEWALK CAFE,1028336,Unenclosed,365,"V & T RESTAURANT, INC",,AMSTERDAM AVENUE,1024 AMSTERDAM AVENUE,,10025,2126631708,"1024 AMSTERDAM AVENUE
NEW YORK, NY 10025
(40.80316537740104, -73.96376175670196)"
SIDEWALK CAFE,1028755,Enclosed,645,1236 SECOND AVENUE REST. CORP.,SILVER STAR RESTAURANT,2 AVENUE,1236 2 AVENUE,,10065,2122494250,"1236 2 AVENUE
NEW YORK, NY 10065
(40.76419534144042, -73.96169062415004)"
SIDEWALK CAFE,1028853,Unenclosed,159,"63RD STREET BAGEL CAFE, INC.",,2 AVENUE,1201 2 AVENUE,,10065,2127532614,"1201 2 AVENUE
NEW YORK, NY 10065
(40.76338329549429, -73.96230959925998)"
SIDEWALK CAFE,1029004,Unenclosed,214,JADA RESTAURANT INC.,PETITE ABEILLE,WEST BROADWAY,134 WEST BROADWAY,,10013,2127271505,"134 BROADWAY
NEW YORK, NY 10013
(40.71681640081715, -74.00819300919488)"
SIDEWALK CAFE,1030835,Unenclosed,130,GREENWICH VILLAGE BISTRO LTD,GREENWICH VILLAGE BISTRO,CARMINE STREET,13 CARMINE STREET,,10014,2122069777,"13 CARMINE STREET
NEW YORK, NY 10014
(40.73037817701902, -74.00229345668265)"
SIDEWALK CAFE,1030967,Unenclosed,137,BRASSERIE JULIEN CORP,,3 AVENUE,1422 3 AVENUE,,10028,2127446327,"1422 3 AVENUE
NEW YORK, NY 10028
(40.77538924458548, -73.95647299928982)"
SIDEWALK CAFE,1034243,Unenclosed,95,STS RESTAURANT CORP.,,3 AVENUE,505 3 AVENUE,,10016,2126899022,"505 3 AVENUE
NEW YORK, NY 10016
(40.74569800065901, -73.97811003151637)"
SIDEWALK CAFE,1034252,Unenclosed,225,31 GREAT JONES RESTAURANT CORP.,FIVE POINTS,GREAT JONES STREET,31 GREAT JONES STREET,,10012,2122535700,"31 GREAT JONES STREET
NEW YORK, NY 10012
(40.72702370584972, -73.9931113787635)"
SIDEWALK CAFE,1034831,Unenclosed,501,177 CHRYSTIE INC,ESPERANTO,AVENUE C,145 AVENUE C,,10009,2125056559,"145 AVENUE
NEW YORK, NY 10009
(40.72664935898081, -73.97911148500697)"
SIDEWALK CAFE,1035310,Unenclosed,185,TWELFTH STREET CORP,VILLAGE DEN RESTAURANT,WEST   12 STREET,225 WEST   12 STREET,,10011,2126910303,"225 12 STREET
NEW YORK, NY 10011
(40.73759677059111, -74.00148938213121)"
SIDEWALK CAFE,1035650,Unenclosed,440,BROADWAY & 166TH LLC,,BROADWAY,3956 BROADWAY,,10032,2125683700,"3956 BROADWAY
NEW YORK, NY 10032
(40.83967563964195, -73.94061695990078)"
SIDEWALK CAFE,1035729,Unenclosed,153,"MESTRE, INC",LE ZIE 2000,SEVENTH AVENUE,172 SEVENTH AVENUE,,10011,2122068686,"172 SEVENTH AVENUE
NEW YORK, NY 10011
(40.74237513288989, -73.99690651772715)"
SIDEWALK CAFE,1035738,Unenclosed,168,MILL KOREAN RESTAURANT INC.,,BROADWAY,2895 BROADWAY,,10025,2126667653,"2895 BROADWAY
NEW YORK, NY 10025
(40.80598422371241, -73.96554443848663)"
SIDEWALK CAFE,1036208,Unenclosed,212,283 SMITH STREET FOOD CORP,ZAYTOONS,SMITH STREET,283 SMITH STREET,,11231,7188751880,"283 SMITH STREET
BROOKLYN, NY 11231
(40.68227048189552, -73.99342596010705)"
SIDEWALK CAFE,1039389,Unenclosed,149,"SPOONBREAD, INC",MISS MAMIES,WEST  110 STREET,364 WEST  110 STREET,,10025,2128650700,"364 110 STREET
NEW YORK, NY 10025
(40.801266799237524, -73.96015516341164)"
SIDEWALK CAFE,1039396,Unenclosed,211,"AMSTERDAM AVENUE BROTHER JIMMY'S, LLC",BROTHER JIMMY'S WEST,AMSTERDAM AVENUE,428 AMSTERDAM AVENUE,,10024,2122443503,"428 AMSTERDAM AVENUE
NEW YORK, NY 10024
(40.78417562081171, -73.97757109409724)"
SIDEWALK CAFE,1057301,Unenclosed,154,NINO'S TRIBECA RESTAURANT LTD,OSSO BUCO,3 AVENUE,1662 3 AVENUE,,10128,2124265422,"1662 3 AVENUE
NEW YORK, NY 10128
(40.783375224205656, -73.95067237220087)"
SIDEWALK CAFE,1063188,Enclosed,420,"PLAZA MEXICO, INC.",MAMA MEXICO,BROADWAY,2672 BROADWAY,,10025,2128642323,"2672 BROADWAY
NEW YORK, NY 10025
(40.7982007345526, -73.96903439647322)"
SIDEWALK CAFE,1063397,Unenclosed,320,CHINA 1221 INC,,2 AVENUE,1221 2 AVENUE,,10065,2127520810,"1221 2 AVENUE
NEW YORK, NY 10065
(40.76373656706866, -73.96210308246661)"
SIDEWALK CAFE,1066226,Enclosed,,L & L FOODS OF FIRST AVE LLC,MCDONALDS,FIRST AVENUE,104 FIRST AVENUE,,10009,2036563661,"104 FIRST AVENUE
NEW YORK, NY 10009
(40.72664599059743, -73.98603371439293)"
SIDEWALK CAFE,1066538,Enclosed,446,ACROPOL REST. CORP.,RITZ DINER,1 AVENUE,1133 1 AVENUE,,10065,2123194993,"1133 1 AVENUE
NEW YORK, NY 10065
(40.76151805346937, -73.9606273913034)"
SIDEWALK CAFE,1067914,Unenclosed,345,"BENNY'S BURRITOS, INC",BENNY'S BURRITOS,GREENWICH AVENUE,111-113 GREENWICH AVENUE,,10014,2122133332,"111 113 GREENWICH AVENUE
NEW YORK, NY 10014
(40.73358645135369, -74.01019960472792)"
SIDEWALK CAFE,1067948,Enclosed,346,"FIRST AVENUE BROTHER JIMMY'S, LLC",,2 AVENUE,1485 2 AVENUE,,10075,2122880999,"1485 2 AVENUE
NEW YORK, NY 10075
(40.77217342745618, -73.95592758012785)"
SIDEWALK CAFE,1068447,Unenclosed,252,RANCHO WEST CORPORATION,RANCHO,AMSTERDAM AVENUE,570 AMSTERDAM AVENUE,,10024,2123621514,"570 AMSTERDAM AVENUE
NEW YORK, NY 10024
(40.78875316994089, -73.97424360258879)"
SIDEWALK CAFE,1071297,Unenclosed,517,10TH AVENUE GROUP INC,44&X-HELLS KITCHEN,10 AVENUE,622 10 AVENUE,,10036,2129771170,"622 10 AVENUE
NEW YORK, NY 10036
(40.761150782003675, -73.99431811868772)"
SIDEWALK CAFE,1072082,Unenclosed,102,CLASSIC FOOD INC,,COLUMBUS AVENUE,267 COLUMBUS AVENUE,,10023,2124962803,"267 COLUMBUS AVENUE
NEW YORK, NY 10023
(40.77763402589878, -73.97858965158112)"
SIDEWALK CAFE,1072271,Unenclosed,136,HAPPY WALKING BOYS CORP,CHOW BAR AND GRILL,WEST   10 STREET,184 WEST   10 STREET,A/K/A 230 W 4 ST,10014,2126332212,"184 10 STREET
NEW YORK, NY 10014
(40.7342182820841, -74.00321975837284)"
SIDEWALK CAFE,1072286,Enclosed,497,OMONIA CAFE INC.,"OMONIA CAFE,",BROADWAY,32-20 BROADWAY,,11106,7182746650,"32 20
ASTORIA, NY 11106
(40.761699790013324, -73.9316632529567)"
SIDEWALK CAFE,1072380,Unenclosed,410,198 8TH AVE REST. CORP,,8 AVENUE,198 8 AVENUE,,10011,2125131988,"198 8 AVENUE
NEW YORK, NY 10011
(40.74352626508738, -73.99978434822094)"
SIDEWALK CAFE,1072629,Unenclosed,110,LUNELLA RISTORANTE INC,LUNELLA,MULBERRY STREET,173 MULBERRY STREET,,10013,2129666639,"173 MULBERRY STREET
NEW YORK, NY 10013
(40.72005396012264, -73.99700544315039)"
SIDEWALK CAFE,1073015,Unenclosed,314,1274 AMSTERDAM TRATTORIA INC,,AMSTERDAM AVENUE,1274 AMSTERDAM AVENUE,,10027,9146326036,"1274 AMSTERDAM AVENUE
NEW YORK, NY 10027
(40.81118226135163, -73.95787594165557)"
SIDEWALK CAFE,1073840,Unenclosed,178,ITALIAN MOTHER CORPORATION,,AVENUE A,162 AVENUE A,,10009,2122286900,"162 AVENUE
NEW YORK, NY 10009
(40.72664935898081, -73.97911148500697)"
SIDEWALK CAFE,1074420,Enclosed,333,"MNY HOLDINGS ASSOCIATES, LLC",BAKER STREET,1 AVENUE,1152 1 AVENUE,,10065,9178422958,"1152 1 AVENUE
NEW YORK, NY 10065
(40.76221417685622, -73.96007028740706)"
SIDEWALK CAFE,1075283,Unenclosed,144,"CAFE CON LECHE, INC.",CAFE CON LECHE,AMSTERDAM AVENUE,424 AMSTERDAM AVENUE,,10024,2125957000,"424 AMSTERDAM AVENUE
NEW YORK, NY 10024
(40.78404971572763, -73.97766102630015)"
SIDEWALK CAFE,1075404,Unenclosed,268,ST MARKS CAFE INC,,ST MARKS PLACE,2 ST MARKS PLACE,,10003,2125336656,"2 ST MARKS PLACE
NEW YORK, NY 10003
(40.729497955625824, -73.98985996694526)"
SIDEWALK CAFE,1075763,Enclosed,411,"BROADWAY & 166TH, LLC",DALLAS BBQ,BROADWAY,3956 BROADWAY,,10032,2125683700,"3956 BROADWAY
NEW YORK, NY 10032
(40.83967563964195, -73.94061695990078)"
SIDEWALK CAFE,1076270,Enclosed,233,"LA COCINA ON THIRD AVENUE, INC.",,3 AVENUE,430 3 AVENUE,,10016,2125321887,"430 3 AVENUE
NEW YORK, NY 10016
(40.743103583733614, -73.98000825679662)"
SIDEWALK CAFE,1076706,Unenclosed,482,"EAE, CORP",SIDEWALK BAR & RESTAURANT,AVENUE A,94 AVENUE A,,10009,2124737373,"94 AVENUE
NEW YORK, NY 10009
(40.72664935898081, -73.97911148500697)"
SIDEWALK CAFE,1076713,Unenclosed,333,I MALATESTA TRATTORIA INC,MALATESTA TRATTORIA,WASHINGTON STREET,649 WASHINGTON STREET,,10014,2127411207,"649 WASHINGTON STREET
NYC, NY 10014
(40.732869299040146, -74.00859770410807)"
SIDEWALK CAFE,1077945,Unenclosed,722,BANJARA DINING INC,,EAST SIXTH STREET,344 EAST SIXTH STREET,,10003,2124775956,"344 SIXTH STREET
NEW YORK, NY 10003
(40.72693846986774, -73.98749075837055)"
SIDEWALK CAFE,1078735,Unenclosed,936,EMEL SOAN CORP,ATHENS CAFE,30 AVENUE,32-07 30 AVENUE,,11102,7186262164,"32 07 30 AVENUE
QUEENS, NY 11102
(40.77152402451418, -73.92643545073543)"
SIDEWALK CAFE,1079412,Unenclosed,195,C.A.P. RESTAURANT CORP.,,WEST   48 STREET,303 WEST   48 STREET,,10036,2125864853,"303 48 STREET
NY, NY 10036
(40.7611043403546, -73.98709884784006)"
SIDEWALK CAFE,1079876,Unenclosed,427,PANEANTICO BAKERY CAFE INC,,3 AVENUE,9124 3 AVENUE,,11209,7186802347,"9124 3 AVENUE
BROOKLYN, NY 11209
(40.61955057576124, -74.03270927207568)"
SIDEWALK CAFE,1080119,Unenclosed,89,"172 BLEEKER ST. REST., INC",,SULLIVAN STREET,190 SULLIVAN STREET,,10012,2125050657,"190 SULLIVAN STREET
NEW YORK, NY 10012
(40.7285071149708, -74.00071485351239)"
SIDEWALK CAFE,1083827,Unenclosed,340,176 8TH AVENUE CORP.,NISOS RESTAURANT,8 AVENUE,176 8 AVENUE,,10011,6463368121,"176 8 AVENUE
NEW YORK, NY 10011
(40.74273486170159, -74.0003419278791)"
SIDEWALK CAFE,1085915,Enclosed,285,IXHEL CORPORATION,CAFE FRIDA,COLUMBUS AVENUE,368 COLUMBUS AVENUE,,10024,2127122929,"368 COLUMBUS AVENUE
NEW YORK, NY 10024
(40.781023467294595, -73.97619160700835)"
SIDEWALK CAFE,1087174,Unenclosed,269,953 ASSOCIATES LLC,,NINTH AVENUE,798 NINTH AVENUE,,10019,2127657080,"798 NINTH AVENUE
NEW YORK, NY 10019
(40.76528086497615, -73.98762551438477)"
SIDEWALK CAFE,1092103,Unenclosed,80,"RAJMAR HOLDINGS, INC.",HUDSON BAR AND BOOKS,HUDSON STREET,636 HUDSON STREET,,10014,2123559888,"636 HUDSON STREET
NEW YORK, NY 10014
(40.738728961957506, -74.00545310146136)"
SIDEWALK CAFE,1094184,Unenclosed,565,DANA'S LLC,,9 AVENUE,630 9 AVENUE,,10036,2123332323,"630 9 AVENUE
NEW YORK, NY 10036
(40.75999274901747, -73.99144337685128)"
SIDEWALK CAFE,1095291,Unenclosed,461,CINQUE FRATELLI INC,ACQUISTA TRATTORIA,UNION TURNPIKE,178-01 UNION TURNPIKE,,11366,7189691411,"178 01 UNION TURNPIKE
FLUSHING, NY 11366
(40.72816440726166, -73.79226817393703)"
SIDEWALK CAFE,1095967,Unenclosed,360,LIVING BREAD LLC,CILANTRO,1 AVENUE,1321 1 AVENUE,,10021,2127224242,"1321 1 AVENUE
NEW YORK, NY 10021
(40.766998570052124, -73.95658091793337)"
SIDEWALK CAFE,1096363,Unenclosed,197,THIRD AVE. REST. INC.,JAKES' DILEMMA,AMSTERDAM AVENUE,430 AMSTERDAM AVENUE,,10024,2127379391,"430 AMSTERDAM AVENUE
NEW YORK, NY 10024
(40.784247566574095, -73.97751713477544)"
SIDEWALK CAFE,1097153,Unenclosed,162,RAGUBOY CORP.,,EAST    2 STREET,156 EAST    2 STREET,,10009,2124777600,"156 2 STREET
NEW YORK, NY 10009
(40.722814878752615, -73.98535022965069)"
SIDEWALK CAFE,1097155,Unenclosed,480,BAR GIACOSA CORP,,SIXTH AVENUE,268 SIXTH AVENUE,,10014,2129822498,"268 SIXTH AVENUE
NEW YORK, NY 10014
(40.72921805160121, -74.00241936176678)"
SIDEWALK CAFE,1097651,Unenclosed,157,THE ORIGINAL HOMESTEAD RESTAURANT INC,,9TH AVENUE,59 9TH AVENUE,,10011,2122429040,"59 9TH AVENUE
NEW YORK, NY 10011
(40.741293614882146, -74.00523516831409)"
SIDEWALK CAFE,1100598,Unenclosed,200,ZANZIBAR LLC,XIE XIE,9 AVENUE,645 9 AVENUE,,10036,2129579197,"645 9 AVENUE
NEW YORK, NY 10036
(40.76043781459542, -73.99120690947532)"
SIDEWALK CAFE,1101185,Unenclosed,384,"MOULINAS, LLC",,SMITH STREET,128 SMITH STREET,,11201,7189230918,"128 SMITH STREET
BROOKLYN, NY 11201
(40.687349178538916, -73.99004525014364)"
SIDEWALK CAFE,1101272,Unenclosed,126,659 REST. INC,,NINTH AVENUE,659 NINTH AVENUE,,10036,2122627755,"659 NINTH AVENUE
NEW YORK, NY 10036
(40.76077526160935, -73.99093501945259)"
SIDEWALK CAFE,1101999,Unenclosed,298,RDK RESTAURANT CORP.,BISTRO LES AMIS,SPRING STREET,180 SPRING STREET,,10012,2122268645,"180 SPRING STREET
NEW YORK, NY 10012
(40.72482036687791, -74.0025092939697)"
SIDEWALK CAFE,1102405,Unenclosed,328,S & P 66 INC,LIME LEAF,BROADWAY,2799 BROADWAY,108 STREET,10025,9174328500,"2799 BROADWAY
NEW YORK, NY 10025
(40.80296588109922, -73.96773046605493)"
SIDEWALK CAFE,1102443,Unenclosed,162,"COSMIC CANTINA, INC.",COSMIC CANTINA,3 AVENUE,101 3 AVENUE,,10003,4159949459,"101 3 AVENUE
NEW YORK, NY 10003
(40.7326062845577, -73.98764150363601)"
SIDEWALK CAFE,1102989,Unenclosed,532,ZUMSCHNEIDER CORP,,AVENUE C,107-109 AVENUE C,,10009,2125981098,"107 109 AVENUE
NEW YORK, NY 10009
(40.72664935898081, -73.97911148500697)"
SIDEWALK CAFE,1103058,Unenclosed,271,CALIENTE TEQUILA GRILL LLC,CALIENTE GRILL,BLEECKER STREET,282 BLEECKER STREET,A/K/A 59 7 AVE SO,10014,2126755265,"282 BLEECKER STREET
NEW YORK, NY 10014
(40.73183507870647, -74.00334566345697)"
SIDEWALK CAFE,1103083,Unenclosed,125,GROUBEN FOOD CORP.,,3 AVENUE,515 3 AVENUE,,10016,2125323300,"515 3 AVENUE
NEW YORK, NY 10016
(40.74612530575206, -73.97784089070603)"
SIDEWALK CAFE,1103409,Unenclosed,168,"VERB, INC.",,BEDFORD AVENUE,218 BEDFORD AVENUE,,11211,7185990977,"218 BEDFORD AVENUE
BROOKLYN, NY 11211
(40.71673610367515, -73.95895621656251)"
SIDEWALK CAFE,1103658,Unenclosed,200,CMR CORP,,COLUMBUS AVENUE,249-251 COLUMBUS AVENUE,,10023,2125799929,"249 251 COLUMBUS AVENUE
NEW YORK, NY 10023
(40.774536138232236, -73.97994335610099)"
SIDEWALK CAFE,1103683,Unenclosed,394,"KRILIC ENTERPRISES, INC.",,33 STREET,30-95 33 STREET,,11102,7182672735,"30 95 33 STREET
QUEENS, NY 11102
(40.77152402451418, -73.92643545073543)"
SIDEWALK CAFE,1103693,Unenclosed,235,"MANNAGGIA, INC.",,FIRST AVENUE,163 FIRST AVENUE,,10003,2123881190,"163 FIRST AVENUE
NEW YORK, NY 10003
(40.728930268551835, -73.98434298897786)"
SIDEWALK CAFE,1103699,Unenclosed,188,ARKADY INC.,,SECOND AVENUE,1484 SECOND AVENUE,,10075,2122495103,"1484 SECOND AVENUE
NEW YORK, NY 10075
(40.772241617482905, -73.95583448064906)"
SIDEWALK CAFE,1103740,Unenclosed,161,513 THIRD REST. LTD,,3 AVENUE,513 3 AVENUE,,10016,2126890058,"513 3 AVENUE
NEW YORK, NY 10016
(40.74607134643031, -73.9778768635872)"
SIDEWALK CAFE,1103894,Enclosed,341,31ST STREET PIZZA PALACE INC,,DITMARS BOULEVARD,29-29 DITMARS BOULEVARD,,11105,7187281060,"29 29 DITMARS BOULEVARD
ASTORIA, NY 11105
(40.780092072491186, -73.90960650023976)"
SIDEWALK CAFE,1104424,Unenclosed,249,"160 BISTRO, INC.",,7 AVENUE,160 7 AVENUE,,10011,2123664100,"160 7 AVENUE
NY, NY 10011
(40.74202439729845, -73.99715832789536)"
SIDEWALK CAFE,1105401,Unenclosed,339,52 RESTAURANT GROUP CORP.,OPAL,EAST   52 STREET,251 EAST   52 STREET,,10022,2125934321,"251 52 STREET
NEW YORK, NY 10022
(40.7566171599577, -73.96867806062862)"
SIDEWALK CAFE,1106418,Unenclosed,243,60TH STREET RESTAURANT CORP.,PATSY'S,EAST 60 STREET,206 EAST 60 STREET,,10022,2126885916,"206 60 STREET
NEW YORK, NY 10022
(40.76195337346775, -73.96561011110754)"
SIDEWALK CAFE,1106426,Unenclosed,360,"HARU TOO, INC.",HARU SAKE BAR,THIRD AVENUE,1327 THIRD AVENUE,,10021,2125131988,"1327 THIRD AVENUE
NEW YORK, NY 10021
(40.77225960392349, -73.95878425690512)"
SIDEWALK CAFE,1106438,Enclosed,309,N.N.M. REST. CORP.,BRASSERIE 360,EAST   60 STREET,200 EAST   60 STREET,,10022,2126888868,"200 60 STREET
NEW YORK, NY 10022
(40.76212551749767, -73.96607372754764)"
SIDEWALK CAFE,1109238,Unenclosed,154,IL BUCO CORP.,,BOND STREET,47 BOND STREET,,10012,2125331932,"47 BOND STREET
NEW YORK, NY 10012
(40.7262824743866, -73.99347669817425)"
SIDEWALK CAFE,1109467,Unenclosed,420,505-23 BAR INC,THE HALF KING,WEST   23 STREET,505-507 WEST   23 STREET,,10011,2124624300,"505 507 WEST 23 STREET
NEW YORK, NY 10011
(40.74471526669623, -74.00460000028977)"
SIDEWALK CAFE,1109932,Unenclosed,481,THE WESTSIDE OF BROADWAY REST GROUP INC.,,BROADWAY,2737 BROADWAY,,10025,2126637010,"2737 BROADWAY
NEW YORK, NY 10025
(40.800454795505345, -73.968143692378)"
SIDEWALK CAFE,1110042,Enclosed,280,C & C FIRST AVE CORP.,BAR COASTAL,1 AVENUE,1495 1 AVENUE,,10075,2122886635,"1495 1 AVENUE
NEW YORK, NY 10075
(40.77178296324797, -73.95309154845967)"
SIDEWALK CAFE,1110366,Unenclosed,63,THE OTHEROOM INC.,,PERRY STREET,143 PERRY STREET,,10014,2126459758,"143 PERRY STREET
NEW YORK, NY 10014
(40.73485680072491, -74.00796817868758)"
SIDEWALK CAFE,1110383,Unenclosed,140,ANOTHEROOM INC.,,WEST BROADWAY,249 WEST BROADWAY,,10013,2122261418,"249 BROADWAY
NEW YORK, NY 10013
(40.71981135948726, -74.00578094719008)"
SIDEWALK CAFE,1111757,Enclosed,280,EL CONDE REST. CORP.,EL CONDE RESTAURANT,BROADWAY,4139 BROADWAY,,10033,2127813231,"4139 BROADWAY
NEW YORK, NY 10033
(40.84620321239999, -73.93849350096049)"
SIDEWALK CAFE,1113412,Enclosed,243,1111 AVE K INC.,,AVENUE K,1111 AVENUE K,,11230,7186773033,"1111 AVENUE
BROOKLYN, NY 11230
(40.62192951023877, -73.96551106018723)"
SIDEWALK CAFE,1116343,Unenclosed,237,REBA REALTY CORP.,,NORTH MOORE STREET,16 NORTH MOORE STREET,,10013,2129410142,"16 MOORE STREET
NEW YORK, NY 10013
(40.719770506098854, -74.00686554410684)"
SIDEWALK CAFE,1120325,Enclosed,210,YIANNI'S CAFE INC,,STEINWAY STREET,31-91 STEINWAY STREET,,11103,7187281133,"31 91 STEINWAY STREET
ASTORIA, NY 11103
(40.76286893025696, -73.91327185810974)"
SIDEWALK CAFE,1120483,Unenclosed,266,1 & 3 ON 5TH CORP,FABIANE'S CAFE & PASTRY,NORTH    5 STREET,142 NORTH    5 STREET,,11211,7182189632,"142 5 STREET
BROOKLYN, NY 11211
(40.716690325417076, -73.95889489759621)"
SIDEWALK CAFE,1125981,Unenclosed,820,RENOLTA LLC,,WEST   79 STREET,201 WEST   79 STREET,,10024,9172082174,"201 79 STREET
NEW YORK, NY 10024
(40.78320260973434, -73.97835560138569)"
SIDEWALK CAFE,1127935,Unenclosed,270,156 SEVENTH AVE GROUP LLC,ELMO,SEVENTH AVENUE,156 SEVENTH AVENUE,,10011,2123378000,"156 SEVENTH AVENUE
NEW YORK, NY 10011
(40.74187151255347, -73.99726624653891)"
SIDEWALK CAFE,1132655,Unenclosed,101,AJ EASTSIDE INC,FETCH,THIRD AVENUE,1649 THIRD AVENUE,,10128,2124239302,"1649 THIRD AVENUE
NEW YORK, NY 10128
(40.782841079998974, -73.95101069681128)"
SIDEWALK CAFE,1132659,Unenclosed,290,HOT BREAD OF 104TH ST INC,HOT & CRYSPY,BROADWAY,2724 BROADWAY,,10025,2122740442,"2724 BROADWAY
NEW YORK, NY 10025
(40.79985080378242, -73.96804727380692)"
SIDEWALK CAFE,1133124,Unenclosed,193,1262 AMSTERDAM CAFE INC,,AMSTERDAM AVENUE,1262 AMSTERDAM AVENUE,,10027,2122882937,"1262 AMSTERDAM AVENUE
NEW YORK, NY 10027
(40.81073154758855, -73.95824169431991)"
SIDEWALK CAFE,1133422,Unenclosed,210,BLUE SMOKE LLC,,EAST   27 STREET,116 EAST   27 STREET,,10016,2124477733,"116 27 STREET
NEW YORK, NY 10016
(40.74235714644925, -73.98371346355736)"
SIDEWALK CAFE,1133602,Unenclosed,862,Y.N.L.C. CAFE CORP.,,30 AVENUE,35-27 30 AVENUE,,11103,7182786967,"35 27 30 AVENUE
QUEENS, NY 11103
(40.76286893025696, -73.91327185810974)"
SIDEWALK CAFE,1133801,Unenclosed,295,PISTICCI RESTAURANT CORP,PISTICCI RESTAURANT,LASALLE STREET,125 LASALLE STREET,,10027,2129323500,"125 LASALLE STREET
NEW YORK, NY 10027
(40.81394174943862, -73.96002899342801)"
SIDEWALK CAFE,1133898,Unenclosed,323,FIDDLESTICKS LLC,,GREENWICH AVENUE,54-56 GREENWICH AVENUE,,10011,2124630516,"54 56 GREENWICH AVENUE
NEW YORK, NY 10011
(40.74471526669623, -74.00460000028977)"
SIDEWALK CAFE,1133916,Unenclosed,298,TEN ELEVEN HOLDINGS L.L.C.,PENCIL FACTORY,FRANKLIN STREET,142 FRANKLIN STREET,,11222,7186095858,"142 FRANKLIN STREET
BROOKLYN, NY 11222
(40.72986594053074, -73.95757574359082)"
SIDEWALK CAFE,1133929,Unenclosed,271,SKIPWELL CORP,BISTRO TEN EIGHTEEN,AMSTERDAM AVENUE,1018 AMSTERDAM AVENUE,,10025,2126627600,"1018 AMSTERDAM AVENUE
NEW YORK, NY 10025
(40.802975016469574, -73.96390132217415)"
SIDEWALK CAFE,1134143,Unenclosed,160,"S.I.A.E.A.1,INC.",K H AMAZON CAFE,QUENTIN ROAD,1123 QUENTIN ROAD,,11229,7183828360,"1123 QUENTIN ROAD
BROOKLYN, NY 11229
(40.60790078924288, -73.96168989545271)"
SIDEWALK CAFE,1135217,Unenclosed,129,BUONA NOTTE INC,BUONA NOTTE INC,MULBERRY STREET,120 MULBERRY STREET,,10013,2129651111,"120 MULBERRY STREET
NEW YORK, NY 10013
(40.717823641489986, -73.99812060246671)"
SIDEWALK CAFE,1135221,Unenclosed,58,LUPI LLC,,EAST   85 STREET,347 EAST   85 STREET,,10028,2125173118,"347 85 STREET
NEW YORK, NY 10028
(40.776737194191526, -73.95109476043709)"
SIDEWALK CAFE,1135398,Unenclosed,185,"COBRA CATERERS, INC",DUBLIN 6/TOPSY,HUDSON STREET,575 HUDSON STREET,,10014,6466382900,"575 HUDSON STREET
NEW YORK, NY 10014
(40.736106858345636, -74.00590873124048)"
SIDEWALK CAFE,1135504,Unenclosed,91,206 7TH AVE CORP,SALSA Y SALSA MEXICAN KITCHEN,7 AVENUE,206 7 AVENUE,,10011,6463423298,"206 7 AVENUE
NEW YORK, NY 10011
(40.74362480925161, -73.9960140908879)"
SIDEWALK CAFE,1135513,Unenclosed,105,REGIONAL THAI LTD,,7 AVENUE,208 7 AVENUE,,10011,2128079872,"208 7 AVENUE
NEW YORK, NY 10011
(40.743682447611434, -73.99597182275735)"
SIDEWALK CAFE,1135770,Unenclosed,36,MRG RESTAURANT CORP,,MULBERRY STREET,122 MULBERRY STREET,,10013,7185918112,"122 MULBERRY STREET
NEW YORK, NY 10013
(40.71786860759141, -73.99809362280587)"
SIDEWALK CAFE,1135863,Unenclosed,220,NARITA JAPANESE RESTAURANT INC.,,70 ROAD,107-08 70 ROAD,,11375,7182632999,"107 08 70 ROAD
FOREST HILLS, NY 11375
(40.720707263029794, -73.84628429608335)"
SIDEWALK CAFE,1136163,Unenclosed,85,LENOX ROOM CORP,,THIRD AVENUE,1278 THIRD AVENUE,,10021,2127720404,"1278 THIRD AVENUE
NEW YORK, NY 10021
(40.77072930800743, -73.95992840352812)"
SIDEWALK CAFE,1136223,Unenclosed,170,A. VENIERO INC.,VENIERO'S PASTICCERIA & CAFE,EAST   11 STREET,342 EAST   11 STREET,,10003,2126747070,"342 11 STREET
NEW YORK CITY, NY 10003
(40.7299170399347, -73.98537428829303)"
SIDEWALK CAFE,1136669,Unenclosed,417,62 &  1ST LLC,MERCHANTS NY,FIRST AVENUE,1125 FIRST AVENUE,,10065,2128714000,"1125 FIRST AVENUE
NEW YORK, NY 10065
(40.76128586578009, -73.9607959893368)"
SIDEWALK CAFE,1137714,Unenclosed,575,"FIORELLO'S ROMAN CAFE, INC.",,LINCOLN PLAZA,1 LINCOLN PLAZA,,10023,2125955330,"1 LINCOLN PLAZA
NEW YORK, NY 10023
(40.60484759929123, -74.06874064929302)"
SIDEWALK CAFE,1138270,Unenclosed,147,LE-SE AMSTERDAM 732 RESTAURANT INC.,DIVE BAR,AMSTERDAM AVENUE,732 AMSTERDAM AVENUE,,10025,2127494358,"732 AMSTERDAM AVENUE
NEW YORK, NY 10025
(40.79385232584701, -73.9705114161672)"
SIDEWALK CAFE,1138459,Unenclosed,688,MA. VI. DO. REST. INC.,MEDITERRANEO,2 AVENUE,1260 2 AVENUE,,10065,2127347407,"1260 2 AVENUE
NEW YORK, NY 10065
(40.7649368707099, -73.96112084844971)"
SIDEWALK CAFE,1139326,Unenclosed,144,"44 AND 9TH RESTAURANT, INC.",,NINTH AVENUE,623 NINTH AVENUE,,10036,2122656777,"623 NINTH AVENUE
NEW YORK, NY 10036
(40.759830973478586, -73.99160951097457)"
SIDEWALK CAFE,1139335,Unenclosed,243,THE 8801 CORP,,THIRD AVENUE,8801 THIRD AVENUE,,11209,7184925095,"8801 THIRD AVENUE
BROOKLYN, NY 11209
(40.62202615848288, -74.03161261078446)"
SIDEWALK CAFE,1139454,Unenclosed,360,TALIAS RESTAURANT GROUP LLC,,AMSTERDAM AVENUE,668 AMSTERDAM AVENUE,,10025,2125803770,"668 AMSTERDAM AVENUE
NEW YORK, NY 10025
(40.79188327963856, -73.97199737705657)"
SIDEWALK CAFE,1139506,Unenclosed,219,"DUNMORE NEW YORK, INC.",JAKE'S SALOON,TENTH AVENUE,875 TENTH AVENUE,,10019,2123333100,"875 TENTH AVENUE
NEW YORK, NY 10019
(40.76930083444711, -73.98844389743147)"
SIDEWALK CAFE,1139678,Unenclosed,355,"THE ORIGINAL VINCENT'S, ESTABLISHED 1904 INC.",,MOTT STREET,119 MOTT STREET,,10013,2122268133,"119 MOTT STREET
NEW YORK, NY 10013
(40.71776968216824, -73.99715832789536)"
SIDEWALK CAFE,1141303,Unenclosed,99,"MARBAR, L.L.C.",LA PALAPA ROCKOLA,6 AVENUE,359 6 AVENUE,,10014,2125131988,"359 6 AVENUE
NEW YORK, NY 10014
(40.73220811036603, -74.00063365618401)"
SIDEWALK CAFE,1141700,Enclosed,692,23RD & 9TH RESTAURANT CORP,,WEST   23 STREET,368 WEST   23 STREET,,10011,2126915400,"368 23 STREET
NEW YORK, NY 10011
(40.746422082021695, -74.00112433804458)"
SIDEWALK CAFE,1141909,Unenclosed,66,"YAMASAK RESTAURANT, CORP.",LE FIGARO CAFE,BLEEKER STREET,174 BLEEKER STREET,,10012,5166250674,"174 BLEEKER STREET
NEW YORK, NY 10012
(40.728921275331516, -74.00068367025023)"
SIDEWALK CAFE,1141963,Unenclosed,183,INOVATIVE RESTAURANTS LLC,INOTECA,LUDLOW STREET,133 LUDLOW STREET,98 RIVINGTON STREET,10002,2126140473,"133 LUDLOW STREET
NEW YORK, NY 10002
(40.72020219772711, -73.98833706507614)"
SIDEWALK CAFE,1142044,Unenclosed,498,KRILIC ENTERPRISE INC,,33 STREET,30-95 33 STREET,,11102,7182672735,"30 95 33 STREET
QUEENS, NY 11102
(40.77152402451418, -73.92643545073543)"
SIDEWALK CAFE,1142288,Unenclosed,228,OLD HEIDELBERG CORP.,,SECOND AVENUE,1648 SECOND AVENUE,,10028,2126282332,"1648 SECOND AVENUE
NEW YORK, NY 10028
(40.77753862423549, -73.95197638914334)"
SIDEWALK CAFE,1142522,Unenclosed,489,MIDAN REST INC.,MORAN'S,10 AVENUE,146 10 AVENUE,,10011,2126273030,"146 10 AVENUE
NEW YORK, NY 10011
(40.74534289558653, -74.0058907447999)"
SIDEWALK CAFE,1142568,Unenclosed,361,SPARTAN SOUVLAKI CORP,SPARTAN SOUVLAKI,8 AVENUE,6818 8 AVENUE,,11220,7187485838,"6818 8 AVENUE
BROOKLYN, NY 11220
(40.63080107606167, -74.01447128134997)"
SIDEWALK CAFE,1142739,Unenclosed,192,LGR FIRST CORP,SIMONE ESSPRESSO & LITTLE BAR,1 AVENUE,134 1 AVENUE,,10009,2129826665,"134 1 AVENUE
NEW YORK, NY 10009
(40.72755850555485, -73.985287691226)"
SIDEWALK CAFE,1143227,Unenclosed,102,"JVC PIZZERIA, INC",,MULBERRY STREET,132A MULBERRY STREET,,10013,2122268306,"132A MULBERRY STREET
NEW YORK, NY 10013
(40.718588065214874, -73.99766194823178)"
SIDEWALK CAFE,1143675,Unenclosed,271,BREAD IN TRIBECA LLC,,CHURCH STREET,301 CHURCH STREET,,10013,2123348282,"301 CHURCH STREET
NEW YORK, NY 10013
(40.719472294491936, -74.00434405130181)"
SIDEWALK CAFE,1145512,Unenclosed,405,COFFEE PLACE CORP.,SUNFLOWER CAFE,QUENTIN ROAD,1223 QUENTIN ROAD,,11229,7183361340,"1223 QUENTIN ROAD
BROOKLYN, NY 11229
(40.608021994864266, -73.96073583352499)"
SIDEWALK CAFE,1145629,Unenclosed,264,"GRAND ENDEAVORS, INC",CLEM'S,GRAND STREET,264 GRAND STREET,,11211,7183879617,"264 GRAND STREET
BROOKLYN, NY 11211
(40.7133013977337, -73.95840388492438)"
SIDEWALK CAFE,1146560,Enclosed,112,ROMAGICA CORP.,CELESTE RESTAURANT,AMSTERDAM AVENUE,502 AMSTERDAM AVENUE,,10024,2125131988,"502 AMSTERDAM AVENUE
NEW YORK, NY 10024
(40.78657681062998, -73.9758174161401)"
SIDEWALK CAFE,1147364,Enclosed,,HILLVIEW SPECIALITY FOOD INC,107 WEST RESTAURANT,BROADWAY,2787 BROADWAY,,10025,2128641555,"2787 BROADWAY
NEW YORK, NY 10025
(40.80250399012003, -73.96788256493512)"
SIDEWALK CAFE,1150943,Unenclosed,326,GROTTA AZZURRA INN INC.,,MULBERRY STREET,177 MULBERRY STREET,,10013,2129258775,"177 MULBERRY STREET
NEW YORK, NY 10013
(40.720459120381996, -73.99687462153831)"
SIDEWALK CAFE,1151949,Unenclosed,158,CALSHEA REST. CORP.,THE TRIPLE CROWN,7 AVENUE,330 7 AVENUE,,10001,2127361575,"330 7 AVENUE
NEW YORK, NY 10001
(40.74764515998157, -73.99308439910266)"
SIDEWALK CAFE,1157157,Unenclosed,320,"UNO OF ASTORIA, INC.",,35 AVENUE,37-11 35 AVENUE,,11101,6172185336,"37 11 35 AVENUE
QUEENS, NY 11101
(40.74570244980828, -73.93866902925225)"
SIDEWALK CAFE,1157473,Unenclosed,298,"BABU FOOD, INC.",,HUDSON STREET,468 HUDSON STREET,,10014,2126279191,"468 HUDSON STREET
NEW YORK, NY 10014
(40.73183444995576, -74.00654686641522)"
SIDEWALK CAFE,1157684,Unenclosed,812,UNION SQUARE CATERING FACILITY INC.,COFFEE SHOP,UNION SQUARE WEST,29 UNION SQUARE WEST,,10003,2122437969,"29 UNION SQUARE
NEW YORK, NY 10003
(40.736358668513844, -73.99090803979175)"
SIDEWALK CAFE,1158198,Unenclosed,134,412 AMSTERDAM CORP.,,AMSTERDAM AVENUE,412 AMSTERDAM AVENUE,,10024,2127871660,"412 AMSTERDAM AVENUE
NEW YORK, NY 10024
(40.7835910614927, -73.97800276867127)"
SIDEWALK CAFE,1158751,Unenclosed,145,RED MULBERRY LTD,SAMBUCA'S,MULBERRY STREET,105 MULBERRY STREET,,10013,2124310408,"105 MULBERRY STREET
NEW YORK, NY 10013
(40.71730591451807, -73.99850289466156)"
SIDEWALK CAFE,1159248,Unenclosed,1300,"675 HUDSON VAULT, LLC",,HUDSON STREET,675 HUDSON STREET,,10014,2125131988,"675 HUDSON STREET
NEW YORK, NY 10014
(40.740270215845584, -74.00528337692086)"
SIDEWALK CAFE,1159486,Unenclosed,64,"L'ATRE ENTERPRISES, INC",,BLEECKER STREET,314 BLEECKER STREET,,10014,2126759463,"314 BLEECKER STREET
NEW YORK, NY 10014
(40.732883397274556, -74.00399662046419)"
SIDEWALK CAFE,1159625,Unenclosed,87,ELI'S MANHATTAN WAREHOUSE INC.,,THIRD AVENUE,1411 THIRD AVENUE,,10028,2127722011,"1411 THIRD AVENUE
NEW YORK, NY 10028
(40.775151391691466, -73.95660125169407)"
SIDEWALK CAFE,1160306,Enclosed,344,"PS CAFE,INC",MY FAVARITE BISTRO,WEST   72 STREET,53 WEST   72 STREET,,10023,2123622187,"53 72 STREET
NEW YORK, NY 10023
(40.77734077338903, -73.97863229409177)"
SIDEWALK CAFE,1160579,Unenclosed,189,MESTIZO INC,,GREENWICH AVENUE,89 GREENWICH AVENUE,,10014,2126918080,"89 GREENWICH AVENUE
NEW YORK, NY 10014
(40.73726775269976, -74.00155410150364)"
SIDEWALK CAFE,1160619,Unenclosed,182,OLYMPIAN SUMMIT INC.,,STEINWAY STREET,35-25 STEINWAY STREET,,11101,7184722124,"35 25 STEINWAY STREET
LONG ISLND CITY, NY 11101
(40.74570244980828, -73.93866902925225)"
SIDEWALK CAFE,1160623,Unenclosed,357,"WOGIE'S, INC.",,GREENWICH AVENUE,39 GREENWICH AVENUE,,10014,6463733421,"39 GREENWICH AVENUE
NEW YORK, NY 10014
(40.73546833970482, -74.00044085330234)"
SIDEWALK CAFE,1160931,Unenclosed,140,MNY CHELSEA LLC,MERCHANTS NY,SEVENTH AVENUE,112 SEVENTH AVENUE,,10011,2123667267,"112 SEVENTH AVENUE
NEW YORK, NY 10011
(40.74024102692075, -73.9984929233543)"
SIDEWALK CAFE,1161434,Unenclosed,170,CARMINE RESTAURANT INC.,,MULBERRY STREET,125 MULBERRY STREET,,10013,2122266060,"125 MULBERRY STREET
NEW YORK, NY 10013
(40.71805373539042, -73.99801518539697)"
SIDEWALK CAFE,1161546,Unenclosed,127,30 E 30 ZANA INC,,EAST   30 STREET,30 EAST   30 STREET,,10016,2124813717,"30 30 STREET
NEW YORK, NY 10016
(40.74516932195915, -73.98469971814558)"
SIDEWALK CAFE,1161760,Unenclosed,222,TULSACE CORP,SEVEN ONE EIGHT,DITMARS BOULEVARD,35-01 DITMARS BOULEVARD,,11105,7182045553,"35 01 DITMARS BOULEVARD
ASTORIA, NY 11105
(40.780092072491186, -73.90960650023976)"
SIDEWALK CAFE,1161856,Unenclosed,800,JEC II. LLC,ONE LITTLE WEST 12,LITTLE WEST   12 STREET,40546 LITTLE WEST   12 STREET,,10014,2122559717,"40546 LITTLE WEST 12 STREET
NEW YORK, NY 10014
(40.739592909528035, -74.00635602712215)"
SIDEWALK CAFE,1161913,Unenclosed,190,REMEDY BAR GROUP LLC,UPTOWN,THIRD AVENUE,1576 THIRD AVENUE,,10128,2128581388,"1576 THIRD AVENUE
NEW YORK, NY 10128
(40.780470414051024, -73.95274980608855)"
SIDEWALK CAFE,1162474,Unenclosed,528,LCN CAFE CORP.,THEATER CAFE,METROPOLITAN AVENUE,106-03 METROPOLITAN AVENUE,,11375,7182610014,"106 03 METROPOLITAN AVENUE
QUEENS, NY 11375
(40.720707263029794, -73.84628429608335)"
SIDEWALK CAFE,1162883,Unenclosed,124,"RACKS CAFE BILLIARDS, INC.",,STEINWAY STREET,19-26 STEINWAY STREET,,11105,7182041374,"19 26 STEINWAY STREET
ASTORIA, NY 11105
(40.780092072491186, -73.90960650023976)"
SIDEWALK CAFE,1163023,Unenclosed,420,MACDOUGAL BLEECKER CORP.,,MACDOUGAL STREET,89 MACDOUGAL STREET,,10012,2122260504,"89 MACDOUGAL STREET
NEW YORK, NY 10012
(40.729147020602696, -74.00124532570376)"
SIDEWALK CAFE,1163028,Unenclosed,199,KING LUKE INC,,BROADWAY,81 BROADWAY,,11211,7184863077,"81 BROADWAY
BROOKLYN, NY 11211
(40.71054220152503, -73.96573950699626)"
SIDEWALK CAFE,1163792,Unenclosed,162,ORESTE INC.,,CARMINE STREET,64 CARMINE STREET,,10014,2126758736,"64 CARMINE STREET
NEW YORK, NY 10014
(40.72978045430651, -74.00409571201304)"
SIDEWALK CAFE,1163793,Unenclosed,318,MEZCALS OF 5TH AVE REST CORP.,,FIFTH AVENUE,223 FIFTH AVENUE,,11215,7187833276,"223 FIFTH AVENUE
BROOKLYN, NY 11215
(40.67577820017742, -73.98083561752735)"
SIDEWALK CAFE,1163815,Unenclosed,268,PORTICI RESTAURANT INC,,9 AVENUE,621 9 AVENUE,,10036,2123154582,"621 9 AVENUE
NEW YORK, NY 10036
(40.75961513619154, -73.99176239571955)"
SIDEWALK CAFE,1164852,Unenclosed,112,MULBERRY STREET BAR LLC,,MULBERRY STREET,176.5 MULBERRY STREET,,10013,2122269345,"176 5 MULBERRY STREET
NEW YORK, NY 10013
(40.721242188776046, -74.00888900022716)"
SIDEWALK CAFE,1165276,Unenclosed,131,317 AMSTERDAM CORP,BELLO SGUARDO,AMSTERDAM AVENUE,410 AMSTERDAM AVENUE,,10024,2128736252,"410 AMSTERDAM AVENUE
NEW YORK, NY 10024
(40.7835371021709, -73.97803874155244)"
SIDEWALK CAFE,1165444,Unenclosed,84,MON PETIT CAFE INC.,,LEXINGTON AVENUE,801 LEXINGTON AVENUE,,10065,2123552233,"801 LEXINGTON AVENUE
NEW YORK, NY 10065
(40.76400382769452, -73.96688714838916)"
SIDEWALK CAFE,1165566,Unenclosed,392,SAL & VIK CORP.,BELLA VIA RESTAURANT,VERNON BOULEVARD,47-46 VERNON BOULEVARD,,11101,7183617510,"47 46 VERNON BOULEVARD
LIC, NY 11101
(40.74570244980828, -73.93866902925225)"
SIDEWALK CAFE,1165611,Unenclosed,154,"FILLIP'S CATERING, INC.",,7 AVENUE,200 7 AVENUE,,10011,2123664410,"200 7 AVENUE
NEW YORK, NY 10011
(40.74345189414794, -73.99614089529724)"
SIDEWALK CAFE,1165626,Unenclosed,481,AGORA INC,ZIPI ZAPE,METROPOLITAN AVENUE,152 METROPOLITAN AVENUE,,11211,7185993027,"152 METROPOLITAN AVENUE
BROOKLYN, NY 11211
(40.715929495876104, -73.96197996462257)"
SIDEWALK CAFE,1166061,Unenclosed,352,CENTO GROUP INC,CAFE CENTOSETTE,SECOND AVENUE,160 SECOND AVENUE,,10003,2124205933,"160 SECOND AVENUE
NEW YORK, NY 10003
(40.729892543123185, -73.98669921269459)"
SIDEWALK CAFE,1166206,Unenclosed,238,STONE PARK CORNER LLC,,FIFTH AVENUE,324 FIFTH AVENUE,,11215,7183690082,"324 FIFTH AVENUE
BROOKLYN, NY 11215
(40.67282734007605, -73.983297205538)"
SIDEWALK CAFE,1166753,Unenclosed,176,RIINGO RESTAURANT LLC,,EAST   45 STREET,205 EAST   45 STREET,,10017,2128674200,"205 45 STREET
NEW YORK, NY 10017
(40.75251948538039, -73.9726248229361)"
SIDEWALK CAFE,1166759,Unenclosed,316,TK REST. CORP.,,LEONARD STREET,33 LEONARD STREET,,10013,2129257188,"33 LEONARD STREET
NEW YORK, NY 10013
(40.7184092746876, -74.00730932818166)"
SIDEWALK CAFE,1166884,Unenclosed,134,FACOSULL CORP.,,WEST    4 STREET,165 WEST    4 STREET,,10014,9179741821,"165 4 STREET
NEW YORK, NY 10014
(40.73211386853558, -74.00145708719543)"
SIDEWALK CAFE,1166911,Unenclosed,475,PANDBAKERY INC,,31 STREET,22-85 31 STREET,,11105,7189324423,"22 85 31 STREET
QUEENS, NY 11105
(40.780092072491186, -73.90960650023976)"
SIDEWALK CAFE,1167146,Unenclosed,173,EMPORIUM BRASIL INC.,,WEST   46 STREET,15 WEST   46 STREET,,10036,2127644646,"15 46 STREET
NEW YORK, NY 10036
(40.75644952264838, -73.9800262432372)"
SIDEWALK CAFE,1167396,Unenclosed,174,8406 THIRD AVE REST CORP.,SOFIA,THIRD AVENUE,8406 THIRD AVENUE,,11209,7186804242,"8406 THIRD AVENUE
BROOKLYN, NY 11209
(40.62495465566055, -74.03049206901562)"
SIDEWALK CAFE,1167555,Unenclosed,183,1226 SECOND AVENUE REALTY CORP.,,SECOND AVENUE,1226 SECOND AVENUE,,10065,2127581775,"1226 SECOND AVENUE
NEW YORK, NY 10065
(40.76394087515246, -73.96191389756711)"
SIDEWALK CAFE,1167600,Enclosed,504,75TH & 3RD CORP.,BISTRO LE STEAK,3 AVENUE,1309 3 AVENUE,,10021,2125173800,"1309 3 AVENUE
NEW YORK, NY 10021
(40.77157611918125, -73.95926089758069)"
SIDEWALK CAFE,1167909,Unenclosed,137,THIERRY INC.,,EAST   69 STREET,19 EAST   69 STREET,,10021,2127941628,"19 69 STREET
NEW YORK, NY 10021
(40.769845525034576, -73.96677959944591)"
SIDEWALK CAFE,1168002,Unenclosed,140,"SOUNDS OF CUBA,INC",SON CUBANO,WEST   14 STREET,405 WEST   14 STREET,,10014,2123361640,"405 14 STREET
NEW YORK, NY 10014
(40.74122400069234, -74.00599866344339)"
SIDEWALK CAFE,1168148,Unenclosed,200,YUCA BAR & RESTAURANT INC.,YUCA BAR & RESTAURANT,AVENUE A,111 AVENUE A,,10009,2129879533,"111 AVENUE
NEW YORK, NY 10009
(40.72664935898081, -73.97911148500697)"
SIDEWALK CAFE,1168356,Unenclosed,124,PALAZZO & CORSINI LLC,TERRAMARE CAFE,EAST   65 STREET,22 EAST   65 STREET,,10065,2125706152,"22 65 STREET
NEW YORK, NY 10065
(40.7674851701125, -73.96909199121528)"
SIDEWALK CAFE,1168780,Enclosed,482,"CHRISWILL VENTURES, LLC",,FIFTH AVENUE,24 FIFTH AVENUE,,10011,2125291700,"24 FIFTH AVENUE
NEW YORK, NY 10011
(40.733040170225706, -73.99576437874998)"
SIDEWALK CAFE,1169146,Unenclosed,112,"ZVAH, INC.",LES ENFANTS TERRIBLES,CANAL STREET,37 CANAL STREET,,10002,2127777518,"37 CANAL STREET
NEW YORK, NY 10002
(40.71464004150624, -73.99103394487582)"
SIDEWALK CAFE,1169199,Unenclosed,187,SYVROS RESTAURANT CORP.,ZORBA'S,23 AVENUE,29-05 23 AVENUE,,11105,7189567266,"29 05 23 AVENUE
ASTORIA, NY 11105
(40.780092072491186, -73.90960650023976)"
SIDEWALK CAFE,1169442,Enclosed,200,"PS BROTHERS GOURMET, INC.",,BROADWAY,2636 BROADWAY,,10025,2122229222,"2636 BROADWAY
NEW YORK, NY 10025
(40.797082142904394, -73.9698565351081)"
SIDEWALK CAFE,1169547,Unenclosed,537,SERAFINA BROADWAY LTD,,WEST   55 STREET,210 WEST   55 STREET,,10019,2123151700,"210 55 STREET
NEW YORK, NY 10019
(40.76449163918861, -73.98167709030456)"
SIDEWALK CAFE,1169925,Unenclosed,151,POUPETTO INC.,,EAST   63 STREET,25 EAST   63 STREET,,10065,2127513036,"25 63 STREET
NEW YORK, NY 10065
(40.76609500219196, -73.96951334946928)"
SIDEWALK CAFE,1170078,Unenclosed,294,IGUANA NEW YORK LTD.,,WEST   54 STREET,240 WEST   54 STREET,,10019,2127655454,"240 54 STREET
NEW YORK, NY 10019
(40.76430709925716, -73.98323535185993)"
SIDEWALK CAFE,1170662,Unenclosed,250,APPLEJACK COFFEE SHOP INC.,,WEST   55 STREET,230 WEST   55 STREET,,10019,2125866075,"230 55 STREET
NEW YORK, NY 10019
(40.76483650376538, -73.98251225743059)"
SIDEWALK CAFE,1170995,Unenclosed,98,"ENTERPRISE RESTAURANT, LLC.",AMARANTH,EAST   62 STREET,21 EAST   62 STREET,,10065,2129806700,"21 62 STREET
NEW YORK, NY 10065
(40.76563160056759, -73.97043947040487)"
SIDEWALK CAFE,1171118,Unenclosed,69,356 WEST 44TH ST. RESTAURANT INC.,,WEST   44 STREET,356 WEST   44 STREET,,10036,9178922958,"356 44 STREET
NEW YORK, NY 10036
(40.75952520398863, -73.9911868296208)"
SIDEWALK CAFE,1171759,Unenclosed,163,K.K.& D. OF 79TH ST. REST. CORP.,,MADISON AVENUE,1022 MADISON AVENUE,,10075,2125354115,"1022 MADISON AVENUE
NEW YORK, NY 10075
(40.77611769542921, -73.96226463315855)"
SIDEWALK CAFE,1172157,Unenclosed,127,E. A. T. IS OWNED BY ELI ZABAR INC.,,MADISON AVENUE,1064 MADISON AVENUE,,10028,2127722011,"1064 MADISON AVENUE
NEW YORK, NY 10028
(40.77727782084702, -73.96141927045102)"
SIDEWALK CAFE,1172166,Unenclosed,273,"POSTO, INC.",,SECOND AVENUE,310 SECOND AVENUE,,10003,2127161200,"310 SECOND AVENUE
NEW YORK, NY 10003
(40.734964719368406, -73.98303897203539)"
SIDEWALK CAFE,1172172,Unenclosed,324,1207 AMSTERDAM CORP,,AMSTERDAM AVENUE,1207 AMSTERDAM AVENUE,,10027,2126626330,"1207 AMSTERDAM AVENUE
NEW YORK, NY 10027
(40.80895312367629, -73.95946195671338)"
SIDEWALK CAFE,1172205,Unenclosed,453,STS RESTAURANT CORP,,3 AVENUE,505 3 AVENUE,,10016,2126899022,"505 3 AVENUE
NEW YORK, NY 10016
(40.74569800065901, -73.97811003151637)"
SIDEWALK CAFE,1172236,Unenclosed,270,THREE FRIENDS LLC,,BROADWAY,2418 BROADWAY,,10024,2123622000,"2418 BROADWAY
NEW YORK, NY 10024
(40.790142376830666, -73.97491731029959)"
SIDEWALK CAFE,1173208,Unenclosed,118,SERVICE CORP,,PRINCE STREET,20 PRINCE STREET,,10012,2129668886,"20 PRINCE STREET
NEW YORK, NY 10012
(40.722814878752615, -73.99438841604513)"
SIDEWALK CAFE,1173625,Unenclosed,260,LOUYA CORP,,EAST   85 STREET,204-206 EAST   85 STREET,,10028,2123272272,"204 206 EAST 85 STREET
NEW YORK, NY 10028
(40.776344978837756, -73.95296667956859)"
SIDEWALK CAFE,1174880,Unenclosed,166,THAFATH INC,,EAST   51 STREET,356 EAST   51 STREET,,10022,2122301117,"356 51 STREET
NEW YORK, NY 10022
(40.75490612537778, -73.96673630529972)"
SIDEWALK CAFE,1175526,Unenclosed,150,SPRING LEOPARD LLC,,SPRING STREET,307 SPRING STREET,,10013,2123522269,"307 SPRING STREET
NEW YORK, NY 10013
(40.72591753975365, -74.00843582614277)"
SIDEWALK CAFE,1175917,Unenclosed,299,804 LEXINGTON AVENUE RESTAURANT INC.,BURGER HEAVEN,LEXINGTON AVENUE,804 LEXINGTON AVENUE,,10065,2128383580,"804 LEXINGTON AVENUE
NEW YORK, NY 10065
(40.764201678540985, -73.96673426364413)"
SIDEWALK CAFE,1177240,Unenclosed,115,"GIGINO, INC.",GIGINO TRATTORIA,GREENWICH STREET,323 GREENWICH STREET,,10013,2124311112,"323 GREENWICH STREET
NEW YORK, NY 10013
(40.71726606183182, -74.01068413121607)"
SIDEWALK CAFE,1179946,Enclosed,346,PER TAVERN CORP,,3 AVENUE,8622 3 AVENUE,,11209,7186807862,"8622 3 AVENUE
BROOKLYN, NY 11209
(40.623299300631516, -74.03116880032297)"
SIDEWALK CAFE,1180070,Unenclosed,168,CHEZ JOSEPHINE LTD.,,WEST   42 STREET,414 WEST   42 STREET,,10036,2125941925,"414 42 STREET
NEW YORK, NY 10036
(40.758760780263685, -73.99344412791436)"
SIDEWALK CAFE,1183179,Enclosed,178,DALE RESTAURANT INC.,,WEST  231 STREET,189 WEST  231 STREET,,10463,7185494445,"189 231 STREET
BRONX, NY 10463
(40.87864618510202, -73.90399361432337)"
SIDEWALK CAFE,1183527,Unenclosed,70,GADBERRY PIZZA INC.,BLEECKER STREET PIZZA,7 AVENUE SOUTH,69-71 7 AVENUE SOUTH,,10014,2129244466,"69 71 7 AVENUE
NEW YORK, NY 10014
(40.73358645135369, -74.01019960472792)"
SIDEWALK CAFE,1184384,Unenclosed,135,MAVIMA RESTAURANT INC.,BRIO,LEXINGTON AVENUE,786 LEXINGTON AVENUE,A/K/A 137 EAST 61 STREET,10065,2129802300,"786 LEXINGTON AVENUE
NEW YORK, NY 10065
(40.76361711922192, -73.96715694499795)"
SIDEWALK CAFE,1185970,Unenclosed,199,"LA BOUCHERIE, INC.",,PARK AVENUE SOUTH,411-413 PARK AVENUE SOUTH,,10016,2126794111,"411 413 PARK AVENUE
NEW YORK, NY 10016
(40.745242969987146, -73.97823298586354)"
SIDEWALK CAFE,1186113,Unenclosed,162,FLEJ INC.,,COLUMBUS AVENUE,229 COLUMBUS AVENUE,,10023,2127213009,"229 COLUMBUS AVENUE
NEW YORK, NY 10023
(40.77645943780033, -73.97947765679936)"
SIDEWALK CAFE,1186385,Unenclosed,130,"CASWELL/PEARSON ENTERPRISES, LTD.",,WEST   14 STREET,202 WEST   14 STREET,,10011,2122552060,"202 14 STREET
NEW YORK, NY 10011
(40.73876885155238, -74.00018904313413)"
SIDEWALK CAFE,1186742,Unenclosed,1010,SMITHFIELD ASSOCIATES LLC,PASTIS,9 AVENUE,40805 9 AVENUE,,10014,2129894244,"40805 9 AVENUE
NEW YORK, NY 10014
(40.74097132017101, -74.00545167427691)"
SIDEWALK CAFE,1187200,Enclosed,340,NOTEWORTHY CAFE CORP,,ALLEN STREET,200 ALLEN STREET,,10002,2122601122,"200 ALLEN STREET
NEW YORK, NY 10002
(40.72277969032105, -73.98867901050107)"
SIDEWALK CAFE,1187606,Unenclosed,197,"PQ BROADWAY, INC.",,EAST   19 STREET,38 EAST   19 STREET,,10003,2126737900,"38 19 STREET
NEW YORK, NY 10003
(40.73829314748262, -73.98956493815646)"
SIDEWALK CAFE,1187708,Unenclosed,132,CHELSEA 26 LLC,PARS GRILL HOUSE & BAR,WEST   26 STREET,249 WEST   26 STREET,,10001,2129299860,"249 26 STREET
NEW YORK, NY 10001
(40.74690771591753, -73.99638491095016)"
SIDEWALK CAFE,1187714,Unenclosed,342,BROADWAY 104 LLC,CAFE DU SOLEIL,WEST  104 STREET,245 WEST  104 STREET,,10025,2123165000,"245 104 STREET
NEW YORK, NY 10025
(40.79995343727105, -73.96854805351344)"
SIDEWALK CAFE,1187717,Unenclosed,536,DA SILVANO CORP.,,6 AVENUE,260 6 AVENUE,,10014,2129822498,"260 6 AVENUE
NEW YORK, NY 10014
(40.72903818719533, -74.00251828719001)"
SIDEWALK CAFE,1187891,Unenclosed,600,"CULINARY CONCEPTS BY JEAN GEORGES, LLC",SPICE MARKET,NINTH AVENUE,29-35 NINTH AVENUE,,10014,2126753110,"29 35 NINTH AVENUE
NEW YORK, NY 10014
(40.73358645135369, -74.01019960472792)"
SIDEWALK CAFE,1187924,Unenclosed,193,CLAUDISAL REST. CORP.,DA'MASSIMO AND CAFFE RELLINI,THOMPSON STREET,206 THOMPSON STREET,,10012,2122287701,"206 THOMPSON STREET
NY, NY 10012
(40.72863958746575, -73.99943719416973)"
SIDEWALK CAFE,1188068,Unenclosed,343,LUCIFER RESTAURANT LLC,,EAST   20 STREET,401 EAST   20 STREET,,10010,6464187440,"401 20 STREET
NEW YORK, NY 10010
(40.73502958827221, -73.97983535151856)"
SIDEWALK CAFE,1188669,Unenclosed,246,"NF TRADING,LLC",202,9 AVENUE,75 9 AVENUE,,10011,6466381173,"75 9 AVENUE
NEW YORK, NY 10011
(40.741880143007116, -74.00478864041595)"
SIDEWALK CAFE,1188827,Unenclosed,146,POINT JUDITH LLC,,2 AVENUE,96 2 AVENUE,,10003,2124659500,"96 2 AVENUE
NEW YORK, NY 10003
(40.72712263127295, -73.98873168048084)"
SIDEWALK CAFE,1188845,Enclosed,233,KEDROS LTD,,THIRD AVENUE,1505 THIRD AVENUE,,10028,2122496505,"1505 THIRD AVENUE
NEW YORK, NY 10028
(40.77805123779217, -73.95453945692685)"
SIDEWALK CAFE,1188879,Unenclosed,249,NECF INC.,MR. DENNEHY'S,CARMINE STREET,63 CARMINE STREET,,10014,2124141223,"63 CARMINE STREET
NEW YORK, NY 10014
(40.72969469227672, -74.0044608227733)"
SIDEWALK CAFE,1188887,Unenclosed,179,MACELLERIA RESTAURANT INC,MACELLERIA,GANSEVOORT STREET,48 GANSEVOORT STREET,,10014,2127412555,"48 GANSEVOORT STREET
NEW YORK, NY 10014
(40.73937694566355, -74.0065276389733)"
SIDEWALK CAFE,1189213,Unenclosed,241,STANTON RESTAURANT CORP,EPSTEIN BAR,STANTON STREET,82 STANTON STREET,,10002,2124772232,"82 STANTON STREET
NEW YORK, NY 10002
(40.72155582791157, -73.98883959912433)"
SIDEWALK CAFE,1189217,Unenclosed,116,PEPRICO INC.,CACIO & PEPE,2 AVENUE,182 2 AVENUE,,10003,2125055931,"182 2 AVENUE
NEW YORK, NY 10003
(40.7307289126104, -73.98611465337558)"
SIDEWALK CAFE,1189247,Unenclosed,213,LES BRASSEURS,LA MANGEOIRE,2 AVENUE,1008 2 AVENUE,,10022,2127597086,"1008 2 AVENUE
NEW YORK, NY 10022
(40.756969335352586, -73.96694914522031)"
SIDEWALK CAFE,1189644,Unenclosed,235,KIEFFER & NORELL LLC,PICNIC MARKET CAFE,BROADWAY,2665 BROADWAY,,10025,9145337176,"2665 BROADWAY
NEW YORK, NY 10025
(40.79809192453755, -73.96944472299376)"
SIDEWALK CAFE,1189655,Unenclosed,256,"SBCPS,LLC",,CENTRAL PARK SOUTH,40 CENTRAL PARK SOUTH,,10019,2128265959,"40 CENTRAL PARK
NEW YORK, NY 10019
(40.76482143266113, -73.97423991446307)"
SIDEWALK CAFE,1189682,Unenclosed,325,IL COMMANDATORE RESTAURANT INC,CASA BELLA RESTAURANT,MULBERRY STREET,127 MULBERRY STREET,,10013,9146321603,"127 MULBERRY STREET
NEW YORK, NY 10013
(40.71812851746468, -73.99796641447898)"
SIDEWALK CAFE,1189835,Unenclosed,242,URBAN RUSTIC LLC,,GRAND STREET,318 GRAND STREET,,11211,7184869400,"318 GRAND STREET
BROOKLYN, NY 11211
(40.712712228452865, -73.9567892429216)"
SIDEWALK CAFE,1190049,Unenclosed,91,"HORSESHOES, NY INC.",DALTON'S BAR & GRILL,9 AVENUE,611 9 AVENUE,,10036,2122455511,"611 9 AVENUE
NEW YORK, NY 10036
(40.75931835992185, -73.99197823300659)"
SIDEWALK CAFE,1190070,Unenclosed,330,62 WEST OPERATING LLC,,COLUMBUS AVENUE,61 COLUMBUS AVENUE,,10023,2123970666,"61 COLUMBUS AVENUE
NEW YORK, NY 10023
(40.77236203493421, -73.9824621464592)"
SIDEWALK CAFE,1190075,Unenclosed,375,384 COLUMBUS AVENUE ASSOCIATES LLC,OCEAN GRILL,COLUMBUS AVENUE,384 COLUMBUS AVENUE,,10024,2125792300,"384 COLUMBUS AVENUE
NEW YORK, NY 10024
(40.78149072654216, -73.97585075552976)"
SIDEWALK CAFE,1190138,Enclosed,336,PMC CORP,VERTIGO,THIRD AVENUE,354 THIRD AVENUE,,10010,9179912522,"354 THIRD AVENUE
NEW YORK, NY 10010
(40.740558502390684, -73.98188783983784)"
SIDEWALK CAFE,1190200,Unenclosed,496,ORAMA INC.,,SECOND AVENUE,1331 SECOND AVENUE,,10021,2125353800,"1331 SECOND AVENUE
NEW YORK, NY 10021
(40.76758915304997, -73.95928330400415)"
SIDEWALK CAFE,1190469,Unenclosed,140,FELTRIM RESTAURANT CORP,TWELVE,EAST   34 STREET,206 EAST   34 STREET,,10016,2125459912,"206 34 STREET
NEW YORK, NY 10016
(40.745540746432994, -73.97768800596106)"
SIDEWALK CAFE,1190476,Unenclosed,73,GISELLA & KATE CAFE INC,,2 AVENUE,73 2 AVENUE,,10003,2125337183,"73 2 AVENUE
NEW YORK, NY 10003
(40.72640317364949, -73.98927127369842)"
SIDEWALK CAFE,1190534,Unenclosed,349,"LEGENDARY NIGHTSPOTS, INC.",THE DUPLEX,CHRISTOPHER STREET,61 CHRISTOPHER STREET,,10014,2122555438,"61 CHRISTOPHER STREET
NEW YORK, NY 10014
(40.73370057944451, -74.00238189564706)"
SIDEWALK CAFE,1190559,Unenclosed,254,MARIA LOUISA RESTAURANT INC,,FOURTH AVENUE,10018 FOURTH AVENUE,,11209,7188331313,"10018 FOURTH AVENUE
BROOKLYN, NY 11209
(40.6127447036305, -74.03377024804492)"
SIDEWALK CAFE,1190733,Unenclosed,385,MANGIA INC.,,5 AVENUE,119 5 AVENUE,,11217,7186365759,"119 5 AVENUE
BROOKLYN, NY 11217
(40.67901334293919, -73.97865814251078)"
SIDEWALK CAFE,1190801,Unenclosed,577,"T. HOSPITALITY, INC.",SEA,WASHINGTON STREET,835 WASHINGTON STREET,AKA 39 LITTLE WEST 12TH STREET,10014,2122433339,"835 WASHINGTON STREET
NEW YORK, NY 10014
(40.74026744739758, -74.00792731228103)"
SIDEWALK CAFE,1190933,Unenclosed,135,BY THE GLASS INC.,,2 AVENUE,1486 2 AVENUE,,10075,2124724552,"1486 2 AVENUE
NEW YORK, NY 10075
(40.77229557680465, -73.9557985077679)"
SIDEWALK CAFE,1190996,Unenclosed,703,"CDGP, LLC",FLO,30TH AVE,37-20 30TH AVE,,11103,7182046096,"37 20 30TH AVE
ASTORIA, NY 11103
(40.76286893025696, -73.91327185810974)"
SIDEWALK CAFE,1191275,Unenclosed,231,"PARADIS 5, INC.",MOUTARDE,5 AVENUE,239 5 AVENUE,,11215,7186233600,"239 5 AVENUE
BROOKLYN, NY 11215
(40.67515642914799, -73.98127622562203)"
SIDEWALK CAFE,1191523,Unenclosed,83,SHIRT RESTAURANT    CORP,,MADISON AVENUE,1305 MADISON AVENUE,,10128,2129961200,"1305 MADISON AVENUE
MANHATTAN, NY 10128
(40.78497601741782, -73.9557985077679)"
SIDEWALK CAFE,1191822,Unenclosed,136,ARTAKI CORP.,PETER'S ON 83RD,FIRST AVENUE,1606 FIRST AVENUE,,10028,2127349600,"1606 FIRST AVENUE
NEW YORK, NY 10028
(40.77515542085786, -73.9506363993197)"
SIDEWALK CAFE,1191870,Unenclosed,257,HARU GRAMERCY PARK CORP.,HARU,PARK AVENUE SOUTH,220 PARK AVENUE SOUTH,,10003,6464280989,"220 PARK AVENUE
NEW YORK, NY 10003
(40.73704215325614, -73.98875866014174)"
SIDEWALK CAFE,1192051,Enclosed,808,EAST PUB INC,,BOWERY,359-361 BOWERY,,10003,2123581902,"359 361
NEW YORK, NY 10003
(40.73194394755518, -73.98887214913032)"
SIDEWALK CAFE,1192285,Unenclosed,145,D.E.L. INC,ALEXANDRA,HUDSON STREET,455 HUDSON STREET,,10014,9174429781,"455 HUDSON STREET
NEW YORK, NY 10014
(40.731376424471534, -74.00665516852479)"
SIDEWALK CAFE,1192327,Unenclosed,416,GIANNINO'S PIZZA CORP.,,COURT STREET,305 COURT STREET,,11231,7188526890,"305 COURT STREET
BROOKLYN, NY 11231
(40.68370972601971, -73.99520952428485)"
SIDEWALK CAFE,1192416,Unenclosed,268,CIELI PARTNERS LP,TRATTORIA DELL'ARTE,7 AVENUE,900 7 AVENUE,,10019,2122459800,"900 7 AVENUE
NEW YORK, NY 10019
(40.7655465462409, -73.9800603554702)"
SIDEWALK CAFE,1192697,Unenclosed,300,RAMBLING HOUSE INC,TARA HILL,KATONAH AVENUE,4292 KATONAH AVENUE,,10470,7187984510,"4292 KATONAH AVENUE
BRONX, NY 10470
(40.89836827766048, -73.8672952223326)"
SIDEWALK CAFE,1193023,Unenclosed,363,ARTHUR AVENUE RESTAURANT LLC,UMBERTOS CLAM HOUSE,ARTHUR AVENUE,2356 ARTHUR AVENUE,,10458,7182202526,"2356 ARTHUR AVENUE
BRONX, NY 10458
(40.854510714405265, -73.88841355545816)"
SIDEWALK CAFE,1193198,Unenclosed,420,P. M. W. INC.,,SPRING STREET,62 SPRING STREET,,10012,2129660290,"62 SPRING STREET
NEW YORK, NY 10012
(40.72227169132924, -73.99714874515365)"
SIDEWALK CAFE,1193240,Unenclosed,145,TSAMIR RESTAURANT CORP.,RECTANGLES RESTAURANT,FIRST AVENUE,1431 FIRST AVENUE,,10021,2127447470,"1431 FIRST AVENUE
NEW YORK, NY 10021
(40.76929184122679, -73.95490817895887)"
SIDEWALK CAFE,1193339,Unenclosed,253,EISEN & SON INC.,,EIGHTH AVENUE,196 EIGHTH AVENUE,,10011,2122424551,"196 EIGHTH AVENUE
NEW YORK, NY 10011
(40.74331042780034, -73.99993723296592)"
SIDEWALK CAFE,1193773,Unenclosed,483,ALBACHIARA LLC,ALBA,READE STREET,10 READE STREET,AKA 2 LAFAYETTE_STREET,10007,2122675900,"10 READE STREET
NEW YORK, NY 10007
(40.71404688737392, -74.00441392976501)"
SIDEWALK CAFE,1194128,Unenclosed,86,EROS RESTAURANT CORP,,SECOND AVENUE,947 SECOND AVENUE,,10022,2127554155,"947 SECOND AVENUE
NEW YORK, NY 10022
(40.755082553163845, -73.96837102973745)"
SIDEWALK CAFE,1194473,Unenclosed,209,241 W B WAY CAFE INC,CERCLE ROUGE,WEST BROADWAY,241 WEST BROADWAY,,10013,9173123231,"241 BROADWAY
NEW YORK, NY 10013
(40.71969423131094, -74.00592671768106)"
SIDEWALK CAFE,1194478,Unenclosed,81,ROBUSTO NYC INC,,ORCHARD STREET,88 ORCHARD STREET,,10002,2122288880,"88 ORCHARD STREET
NEW YORK, NY 10002
(40.71802149233645, -73.99027851437125)"
SIDEWALK CAFE,1194613,Unenclosed,253,AMGP RESTAURANT CORP,YIASOU,EMMONS AVENUE,2003 EMMONS AVENUE,,11235,7183326064,"2003 EMMONS AVENUE
BROOKLYN, NY 11235
(40.58374718635545, -73.9484094876904)"
SIDEWALK CAFE,1195128,Unenclosed,180,THE IXTOC LLC,,VANDERBILT AVENUE,177 VANDERBILT AVENUE,,11205,9177238456,"177 VANDERBILT AVENUE
BROOKLYN, NY 11205
(40.69264881872304, -73.9697090754616)"
SIDEWALK CAFE,1196956,Unenclosed,336,GJ & S RESTAURANT INC.,SPIGOLO,SECOND AVENUE,1561 SECOND AVENUE,,10028,2127441100,"1561 SECOND AVENUE
NEW YORK, NY 10028
(40.774795692046155, -73.95398187726869)"
SIDEWALK CAFE,1197298,Unenclosed,620,PALEROS INC,,30 AVENUE,37-01 30 AVENUE,,11103,7187777321,"37 01 30 AVENUE
ASTORIA, NY 11103
(40.76286893025696, -73.91327185810974)"
SIDEWALK CAFE,1197788,Unenclosed,65,LLB INC.,PESCALOU,MADISON AVENUE,1308 MADISON AVENUE,,10128,2125344105,"1308 MADISON AVENUE
NEW YORK, NY 10128
(40.78509131603387, -73.95575668664335)"
SIDEWALK CAFE,1198574,Unenclosed,133,VANETT INC.,JIMMY RYAN'S,MIDDLETOWN ROAD,3005 MIDDLETOWN ROAD,,10461,7188635687,"3005 MIDDLETOWN ROAD
BRONX, NY 10461
(40.84394298428297, -73.83022185672134)"
SIDEWALK CAFE,1198845,Unenclosed,179,KIWI'S HISTORICAL BUILDING INC,HALLO BERLIN,10 AVENUE,626 10 AVENUE,,10036,2129771944,"626 10 AVENUE
NEW YORK, NY 10036
(40.76125529958476, -73.99423819347864)"
SIDEWALK CAFE,1199111,Unenclosed,263,DONATO'S PIZZERIA RESTAURANT CORP,,39 AVENUE,50-22 39 AVENUE,,11377,7185079049,"50 22 39 AVENUE
QUEENS, NY 11377
(40.74519376448069, -73.9048471440804)"
SIDEWALK CAFE,1199470,Unenclosed,119,BRASS MONKEY LLC,,LITTLE WEST   12 STREET,55 LITTLE WEST   12 STREET,,10014,2126756686,"55 LITTLE WEST 12 STREET
NEW YORK, NY 10014
(40.740733488466084, -74.00890536279485)"
SIDEWALK CAFE,1200150,Unenclosed,126,SOFIA 61ST STREET CORP.,,EAST   61 STREET,29 EAST   61 STREET,,10065,2127029898,"29 61 STREET
NEW YORK, NY 10065
(40.764615366674434, -73.9699898093902)"
SIDEWALK CAFE,1200156,Unenclosed,198,LA PALA LLC,,ALLEN STREET,198 ALLEN STREET,,10002,2124751251,"198 ALLEN STREET
NEW YORK, NY 10002
(40.722758550707276, -73.98866723627053)"
SIDEWALK CAFE,1200222,Unenclosed,107,542 3RD AVENUE FOOD CORP,,THIRD AVENUE,542 THIRD AVENUE,,10016,6462941902,"542 THIRD AVENUE
NEW YORK, NY 10016
(40.74713254642484, -73.97709445342167)"
SIDEWALK CAFE,1200498,Unenclosed,270,757 REST LLC,,6 AVENUE,757 6 AVENUE,,10010,2122426434,"757 6 AVENUE
NEW YORK, NY 10010
(40.74430867525285, -73.99177138893987)"
SIDEWALK CAFE,1200796,Unenclosed,102,PK & SON LLC,MATCH 65,EAST   65 STREET,27 EAST   65 STREET,,10065,2127374400,"27 65 STREET
NEW YORK, NY 10065
(40.76721440733911, -73.96836203651719)"
SIDEWALK CAFE,1200802,Unenclosed,382,NONNA RESTAURANT CORP,,DUANE STREET,190A DUANE STREET,,10013,2126253333,"190A DUANE STREET
NYC, NY 10013
(40.71738745807827, -74.01028573929716)"
SIDEWALK CAFE,1201246,Unenclosed,160,SAVOIA PIZZERIA & RESTAURANT INC.,SAVIOA,SMITH STREET,277 SMITH STREET,,11231,7187972727,"277 SMITH STREET
BROOKLYN, NY 11231
(40.682467733208995, -73.99328788418762)"
SIDEWALK CAFE,1201698,Unenclosed,135,BLT MAIN STREET LLC,,EAST 22ND STREET,111 EAST 22ND STREET,,10010,2122236432,"111 22ND STREET
NEW YORK, NY 10010
(40.739245492227894, -73.98618659913791)"
SIDEWALK CAFE,1202961,Unenclosed,407,CEVICHERIA GROVE INC,MERCADITO GROVE,7 AVENUE SOUTH,100 7 AVENUE SOUTH,,10014,2123880162,"100 7 AVENUE
NEW YORK, NY 10014
(40.73310694506296, -74.00312383752623)"
SIDEWALK CAFE,1203503,Unenclosed,432,OUESSANT INC,L'EPICERIE CAFE CHARBON,ORCHARD STREET,168-170 ORCHARD STREET,,10002,2124207520,"168 170 ORCHARD STREET
NEW YORK, NY 10002
(40.71612146793143, -73.98583147024613)"
SIDEWALK CAFE,1203510,Unenclosed,415,57TH RESTAURANT ASSOCIATES LLC.,RUE 57,WEST   57 STREET,60 WEST   57 STREET,,10019,2123075656,"60 57 STREET
NEW YORK, NY 10019
(40.76375703777691, -73.97591855754858)"
SIDEWALK CAFE,1204137,Unenclosed,99,EKD TAVERN INC,,AMSTERDAM AVENUE,450 AMSTERDAM AVENUE,,10024,2125955670,"450 AMSTERDAM AVENUE
NEW YORK, NY 10024
(40.784859105554006, -73.97707646698109)"
SIDEWALK CAFE,1204822,Enclosed,241,"CLIRKAT DONUTS, INC",ANGELO'S DONUT,WESTCHESTER AVENUE,2944 WESTCHESTER AVENUE,,10461,7187925534,"2944 WESTCHESTER AVENUE
BRONX, NY 10461
(40.846993679421224, -73.83222767814084)"
SIDEWALK CAFE,1206030,Unenclosed,285,ARRIBA ARRIBA MEXICAN RESTAURANT INC,,NINTH AVENUE,762 NINTH AVENUE,,10019,2124890810,"762 NINTH AVENUE
NEW YORK, NY 10019
(40.76424664464241, -73.98837195166914)"
SIDEWALK CAFE,1207810,Unenclosed,202,"PQ WEST 84TH, INC.",,AMSTERDAM AVENUE,494 AMSTERDAM AVENUE,,10024,2123599000,"494 AMSTERDAM AVENUE
NEW YORK, NY 10024
(40.78622607503854, -73.97607821952857)"
SIDEWALK CAFE,1208262,Unenclosed,560,VIDA CAFE INC.,,DYCKMAN STREET,247 DYCKMAN STREET,,10034,9172953360,"247 DYCKMAN STREET
NEW YORK, NY 10034
(40.86632328967144, -73.92820232742446)"
SIDEWALK CAFE,1208521,Unenclosed,136,"ASC, INC.",,MULBERRY STREET,134 MULBERRY STREET,,10013,2123431212,"134 MULBERRY STREET
NEW YORK, NY 10013
(40.718371191754876, -73.99775131862694)"
SIDEWALK CAFE,1209214,Unenclosed,406,AGE INC,PETALUMA,FIRST AVENUE,1356 FIRST AVENUE,,10021,2127728800,"1356 FIRST AVENUE
NEW YORK, NY 10021
(40.76837453275692, -73.95558267048085)"
SIDEWALK CAFE,1210814,Enclosed,169,ILION INC.,V.I.P.'S CAFE,EAST GUNHILL ROAD,131 EAST GUNHILL ROAD,,10467,7186558500,"131 GUNHILL ROAD
BRONX, NY 10467
(40.881301939100055, -73.87889010244716)"
SIDEWALK CAFE,1213603,Unenclosed,371,191 GRAND RESTAURANT CORP.,,GRAND STREET,191 GRAND STREET,,10013,2123431212,"191 GRAND STREET
NEW YORK, NY 10013
(40.71925356351659, -73.99708638213303)"
SIDEWALK CAFE,1214291,Unenclosed,280,ITM GARDEN INC.,,LITTLE WEST   12 STREET,10 LITTLE WEST   12 STREET,,10014,2122261844,"10 LITTLE WEST 12 STREET
NEW YORK, NY 10014
(40.73965469008554, -74.00649933900198)"
SIDEWALK CAFE,1214833,Unenclosed,565,"L.E. GLOBE, LLC",CAFE D' ALSACE,SECOND AVENUE,1695 SECOND AVENUE,,10128,2127225133,"1695 SECOND AVENUE
NEW YORK, NY 10128
(40.779076464905586, -73.95086122982701)"
SIDEWALK CAFE,1215000,Unenclosed,357,GLOBAL VILLAGE GRILL INC.,,AMSTERDAM AVENUE,421 AMSTERDAM AVENUE,,10024,2128733100,"421 AMSTERDAM AVENUE
NEW YORK, NY 10024
(40.783824618575416, -73.97778828633732)"
SIDEWALK CAFE,1215467,Unenclosed,380,60 SWEET THING INC.,REDEMPTION COCTAIL LOUNGE,2 AVENUE,1003 2 AVENUE,,10022,2125131988,"1003 2 AVENUE
NEW YORK, NY 10022
(40.75688119722247, -73.96705801957472)"
SIDEWALK CAFE,1215929,Unenclosed,524,"BARAONDA RESTAURANT, INC.",,SECOND AVENUE,1439 SECOND AVENUE,,10021,2122888555,"1439 SECOND AVENUE
NEW YORK, NY 10021
(40.770658810711325, -73.95700359928713)"
SIDEWALK CAFE,1216111,Unenclosed,188,YUNHUA ON COLUMBUS INC.,,COLUMBUS AVENUE,193 COLUMBUS AVENUE,,10023,2124968778,"193 COLUMBUS AVENUE
NEW YORK, NY 10023
(40.77524725547934, -73.98032532337443)"
SIDEWALK CAFE,1217336,Unenclosed,132,FAITH E.F.I. CORP.,EFFY'S CAFE,THIRD AVENUE,1638 THIRD AVENUE,BETWEEN 91 & 92 STREET,10128,2124278900,"1638 THIRD AVENUE
NEW YORK, NY 10128
(40.78251378445883, -73.95132566322398)"
SIDEWALK CAFE,1217616,Unenclosed,138,RBG VILLAGE LLC,,THIRD AVENUE,380 THIRD AVENUE,,10016,9175897088,"380 THIRD AVENUE
NEW YORK, NY 10016
(40.741619702385265, -73.98111442289269)"
SIDEWALK CAFE,1217775,Unenclosed,518,99 SOUTH REST. CORP.,,SEVENTH AVENUE SOUTH,97-99 SEVENTH AVENUE SOUTH,,10014,2126450600,"97 99 SEVENTH AVENUE
NEW YORK, NY 10014
(40.73358645135369, -74.01019960472792)"
SIDEWALK CAFE,1217877,Unenclosed,429,1326 RESTAURANT LLC,BEACH CAFE,SECOND AVENUE,1326 SECOND AVENUE,,10021,2129887299,"1326 SECOND AVENUE
NEW YORK, NY 10021
(40.767358298863826, -73.95941378232567)"
SIDEWALK CAFE,1218074,Unenclosed,145,425 AMSTERDAM CAFE INC.,MCALEER'S PUB,AMSTERDAM AVENUE,425 AMSTERDAM AVENUE,,10024,2123627867,"425 AMSTERDAM AVENUE
NEW YORK, NY 10024
(40.784040722507314, -73.97767001952042)"
SIDEWALK CAFE,1218320,Unenclosed,120,SOL Y SOMBRE LTD,,AMSTERDAM AVENUE,462 AMSTERDAM AVENUE,,10024,2124004036,"462 AMSTERDAM AVENUE
NEW YORK, NY 10024
(40.78525480724687, -73.97678868393172)"
SIDEWALK CAFE,1218332,Unenclosed,504,UPPER WEST REST. CORP.,FRED'S,AMSTERDAM AVENUE,476 AMSTERDAM AVENUE,,10024,2125793076,"476 AMSTERDAM AVENUE
NEW YORK, NY 10024
(40.785666426745316, -73.97653454354933)"
SIDEWALK CAFE,1218544,Unenclosed,126,174 GRAND STREET CORP.,ONIEAL'S,GRAND STREET,174 GRAND STREET,,10013,2129419119,"174 GRAND STREET
NEW YORK, NY 10013
(40.719550339786224, -73.99797671094205)"
SIDEWALK CAFE,1218880,Enclosed,311,AMERICAN SPECIALITY FOODS,,AMSTERDAM AVENUE,300 AMSTERDAM AVENUE,,10023,2127691212,"300 AMSTERDAM AVENUE
NEW YORK, NY 10023
(40.77995408066562, -73.98069179581428)"
SIDEWALK CAFE,1219287,Unenclosed,175,HAILEY GRACE CORP,,SECOND AVENUE,1708 SECOND AVENUE,,10128,2123485500,"1708 SECOND AVENUE
NEW YORK, NY 10128
(40.77954411236084, -73.95051049423557)"
SIDEWALK CAFE,1219470,Unenclosed,139,"HUDSON FALAFEL, INC.",HUDSON FALAFEL RESTAURANT,HUDSON STREET,516 HUDSON STREET,,10014,2122423939,"516 HUDSON STREET
NEW YORK, NY 10014
(40.7336388546941, -74.00625745972384)"
SIDEWALK CAFE,1219498,Unenclosed,410,BARBUTO LLC,,WASHINGTON STREET,775 WASHINGTON STREET,,10014,2125131988,"775 WASHINGTON STREET
NEW YORK, NY 10014
(40.737789868568505, -74.00814937980631)"
SIDEWALK CAFE,1219506,Unenclosed,476,"PLAZA PATISSERIE, INC.",,30 AVENUE,29-20 30 AVENUE,,11102,2125131988,"29 20 30 AVENUE
QUEENS, NY 11102
(40.77152402451418, -73.92643545073543)"
SIDEWALK CAFE,1219509,Enclosed,359,"THREE STAR ON FIRST, INC.",,FIRST AVENUE,1462 FIRST AVENUE,,10075,2128617500,"1462 FIRST AVENUE
NEW YORK, NY 10075
(40.770394459538636, -73.95406220758484)"
SIDEWALK CAFE,1219526,Unenclosed,322,JOHN-PHIL TAVERN CORP,,EAST   53 STREET,350 EAST   53 STREET,,10022,2127531761,"350 53 STREET
NEW YORK, NY 10022
(40.75620732696981, -73.96596513660023)"
SIDEWALK CAFE,1219794,Unenclosed,130,71 WINE BAR CAFE OPERATING CORP.,,COLUMBUS AVENUE,237 COLUMBUS AVENUE,,10023,9176862081,"237 COLUMBUS AVENUE
NEW YORK, NY 10023
(40.77663928425033, -73.97930967138565)"
SIDEWALK CAFE,1219795,Unenclosed,442,MEATPACKING RESTAURANT LLC.,,9 AVENUE,44 9 AVENUE,,10011,9172822843,"44 9 AVENUE
NEW YORK, NY 10011
(40.74113406848943, -74.00509934141411)"
SIDEWALK CAFE,1219900,Unenclosed,390,"M & G TOGETHER 4 EVER, LLC.",,FLATBUSH AVENUE,307 FLATBUSH AVENUE,,11217,7182308646,"307 FLATBUSH AVENUE
BROOKLYN, NY 11217
(40.67864163817154, -73.9734863798342)"
SIDEWALK CAFE,1219919,Unenclosed,244,"LIFE CAFE, INC.",,EAST   10 STREET,343 EAST   10 STREET,,10009,2124778791,"343 10 STREET
NEW YORK, NY 10009
(40.72696075330765, -73.9801341618807)"
SIDEWALK CAFE,1219985,Unenclosed,962,"LAFAYETTE STREET PARTNERS, LLC",,LAFAYETTE STREET,380 LAFAYETTE STREET,,10003,2122204110,"380 LAFAYETTE STREET
NEW YORK, NY 10003
(40.72756954427389, -73.99338637348677)"
SIDEWALK CAFE,1219992,Unenclosed,375,"MANGARONI, LLC",IL BASTARDO,SEVENTH AVENUE,191 SEVENTH AVENUE,,10011,2125131988,"191 SEVENTH AVENUE
NEW YORK, NY 10011
(40.743121570174196, -73.99633994484873)"
SIDEWALK CAFE,1220174,Unenclosed,320,BRAHO RESTAURANT CORP.,,YORK AVENUE,1453 YORK AVENUE,,10075,2128613600,"1453 YORK AVENUE
NEW YORK, NY 10075
(40.770326061560525, -73.95121196541845)"
SIDEWALK CAFE,1220381,Unenclosed,448,EP PROPERTIES LTD.,,2 AVENUE,1347 2 AVENUE,,10021,2124399200,"1347 2 AVENUE
NEW YORK, NY 10021
(40.76801480394522, -73.95891915520951)"
SIDEWALK CAFE,1220615,Unenclosed,123,LITTLE CUPCAKE CORP.,,3 AVENUE,9102 3 AVENUE,,11209,7186804127,"9102 3 AVENUE
BROOKLYN, NY 11209
(40.61994946184463, -74.03254007213475)"
SIDEWALK CAFE,1220794,Unenclosed,239,THE ATTIC CORPORATION OF DOUGLASTON,LOCALE,34 AVENUE,33-02 34 AVENUE,,11106,7187299080,"33 02 34 AVENUE
QUEENS, NY 11106
(40.761699790013324, -73.9316632529567)"
SIDEWALK CAFE,1221004,Unenclosed,108,GRILL 21 LLC,,EAST   21 STREET,346 EAST   21 STREET,,10010,2124735950,"346 21 STREET
NEW YORK, NY 10010
(40.73571369822285, -73.97981389037945)"
SIDEWALK CAFE,1221041,Unenclosed,126,"LEAHLALA, LLC",,COURT STREET,442 COURT STREET,,11231,7185226900,"442 COURT STREET
BROOKLYN, NY 11231
(40.678889808291814, -73.99762102000156)"
SIDEWALK CAFE,1221043,Unenclosed,171,"PASTA BAR, LLC",,AVENUE C,127 AVENUE C,,10009,2125297747,"127 AVENUE
NEW YORK, NY 10009
(40.72664935898081, -73.97911148500697)"
SIDEWALK CAFE,1221126,Unenclosed,154,MEZCALS 86 REST. CORP.,,86 STREET,1474 86 STREET,,11228,7183310902,"1474 86 STREET
BROOKLYN, NY 11228
(40.61166584007127, -74.00999400577616)"
SIDEWALK CAFE,1221127,Unenclosed,443,MARACAS GREENWICH AVENUE PARTNERS LLC,,GREENWICH AVENUE,33 GREENWICH AVENUE,,10014,2125936600,"33 GREENWICH AVENUE
NEW YORK, NY 10014
(40.73511592929151, -74.00027725082606)"
SIDEWALK CAFE,1221130,Unenclosed,34,"IRIDIUM RESTAURANT, CORP.",,SPRING STREET,20 SPRING STREET,,10012,2123341019,"20 SPRING STREET
NEW YORK, NY 10012
(40.72142092960718, -73.99497297536419)"
SIDEWALK CAFE,1221132,Unenclosed,360,SYMPATOCH CAFE INC.,,BROADWAY,42-21 BROADWAY,,11103,7182046811,"42 21
QUEENS, NY 11103
(40.76286893025696, -73.91327185810974)"
SIDEWALK CAFE,1221141,Unenclosed,297,"TOKYO POP, LLC",,BROADWAY,2728 BROADWAY,,10025,2129321000,"2728 BROADWAY
NEW YORK, NY 10025
(40.800057647849144, -73.96797532804459)"
SIDEWALK CAFE,1221167,Unenclosed,457,MADIBA CORPORATION,,DEKALB AVENUE,195 DEKALB AVENUE,,11205,7188559190,"195 DEKALB AVENUE
BROOKLYN, NY 11205
(40.68959996117021, -73.97180350978572)"
SIDEWALK CAFE,1221181,Unenclosed,230,ABRUZZO DOCG INC.,TARALLUCCI EVINO,EAST 18TH STREET,15 EAST 18TH STREET,,10003,2122285400,"15 18TH STREET
NEW YORK, NY 10003
(40.73809942727259, -73.99081218379587)"
SIDEWALK CAFE,1221200,Unenclosed,280,"WUCOM, INC",SUSHID,DEKALB AVENUE,207 DEKALB AVENUE,,11205,7188580058,"207 DEKALB AVENUE
BROOKLYN, NY 11205
(40.68957741816422, -73.97116103411572)"
SIDEWALK CAFE,1221449,Unenclosed,33,PEPE'S REST. GROUP LLC.,,WEST    4 STREET,170 WEST    4 STREET,,10014,6464157924,"170 4 STREET
NEW YORK, NY 10014
(40.732062539491956, -74.00145114457254)"
SIDEWALK CAFE,1221543,Unenclosed,138,"THINK RESTAURANTS, LLC",,EIGHTH AVENUE,102 EIGHTH AVENUE,,10011,2125131988,"102 EIGHTH AVENUE
NEW YORK, NY 10011
(40.740756353237146, -74.00177184990571)"
SIDEWALK CAFE,1221586,Unenclosed,202,"54TH STREET BAKERY, LLC.",CAFE METRO,SEVENTH AVENUE,839 SEVENTH AVENUE,,10019,2129837474,"839 SEVENTH AVENUE
NEW YORK, NY 10019
(40.76357599647256, -73.981429245243)"
SIDEWALK CAFE,1221677,Unenclosed,185,PORTO RESTAURANT INC.,,6 AVENUE,574 6 AVENUE,,10011,2126918465,"574 6 AVENUE
NEW YORK, NY 10011
(40.738744125446374, -73.99578268963093)"
SIDEWALK CAFE,1222107,Unenclosed,608,41-08 RESTAURANT CORP.,CHRISTOS STEAK HOUSE,23 AVENUE,41-08 23 AVENUE,,11105,7187778400,"41 08 23 AVENUE
QUEENS, NY 11105
(40.780092072491186, -73.90960650023976)"
SIDEWALK CAFE,1222176,Unenclosed,261,SILVER MOON BAKERY INC.,,BROADWAY,2740 BROADWAY,,10025,2128664717,"2740 BROADWAY
NEW YORK, NY 10025
(40.80049345434748, -73.96784581367896)"
SIDEWALK CAFE,1222183,Unenclosed,58,MAGENTA PICCOLO CORP.,,SECOND AVENUE,1728 SECOND AVENUE,,10128,2124260919,"1728 SECOND AVENUE
NEW YORK, NY 10128
(40.78025457676398, -73.94998888745857)"
SIDEWALK CAFE,1222186,Unenclosed,99,NSCF NY INC.,SOFIA'S CUCINA,MULBERRY STREET,143 MULBERRY STREET,,10013,2122199799,"143 MULBERRY STREET
NEW YORK, NY 10013
(40.718782064344516, -73.99760377660984)"
SIDEWALK CAFE,1222193,Unenclosed,216,92 ADRIANNA INC.,,SECOND AVENUE,92 SECOND AVENUE,,10003,2125292563,"92 SECOND AVENUE
NEW YORK, NY 10003
(40.727104644832366, -73.9887406737011)"
SIDEWALK CAFE,1222376,Enclosed,,BAROSA INC.,,WOODHAVEN BOULEVARD,62-29 WOODHAVEN BOULEVARD,,11374,7184241455,"62 29 WOODHAVEN BOULEVARD
REGO PARK, NY 11374
(40.72646491702238, -73.86148084756303)"
SIDEWALK CAFE,1222470,Unenclosed,451,PHILLIPOS RESTAURANT INC.,,3 AVENUE,1678 3 AVENUE,,10128,2128311800,"1678 3 AVENUE
NEW YORK, NY 10128
(40.78398676318557, -73.95021371796594)"
SIDEWALK CAFE,1222976,Unenclosed,348,"LOS POLLITOS III, INC",LA STALLA RESTAURANT,MYRTLE AVENUE,499 MYRTLE AVENUE,,11205,9177538795,"499 MYRTLE AVENUE
BROOKLYN, NY 11205
(40.693584108831146, -73.96503140365195)"
SIDEWALK CAFE,1223078,Unenclosed,87,1465 3RD AVE. REST. CORP.,GAEL PUB,THIRD AVENUE,1465 THIRD AVENUE,,10028,9146326036,"1465 THIRD AVENUE
NEW YORK, NY 10028
(40.77668426830763, -73.9555287111591)"
SIDEWALK CAFE,1223194,Unenclosed,414,GRAND ITALIAN FOOD CENTER LLC,GRAND ITALIAN FOOD CENTER,GRAND STREET,186 GRAND STREET,,10013,9146326036,"186 GRAND STREET
NEW YORK, NY 10013
(40.719379468600664, -73.9974820838259)"
SIDEWALK CAFE,1223457,Unenclosed,139,"WEST BROADWAY MANAGEMENT, LLC.",,WEST BROADWAY,179 WEST BROADWAY,,10013,2123433883,"179 BROADWAY
NEW YORK, NY 10013
(40.717967533014644, -74.00728469394528)"
SIDEWALK CAFE,1223566,Enclosed,288,"CAFE 71, INC.",,BROADWAY,2061 BROADWAY,,10023,2128752100,"2061 BROADWAY
NEW YORK, NY 10023
(40.77816814965598, -73.98214864322637)"
SIDEWALK CAFE,1223889,Enclosed,,DOMINICAN DINER RESTAURANT CORP.,,KISSENA BOULEVARD,71-02 KISSENA BOULEVARD,,11367,7187938270,"71 02 KISSENA BOULEVARD
FLUSHING, NY 11367
(40.730323085042414, -73.82610630716033)"
SIDEWALK CAFE,1223897,Unenclosed,120,NEO HOSPITALITY LLC.,,MADISON AVENUE,270 MADISON AVENUE,,10016,2122132440,"270 MADISON AVENUE
NEW YORK, NY 10016
(40.75110170919814, -73.98055333665684)"
SIDEWALK CAFE,1224192,Unenclosed,38,"LA GAULE, INC.",,ORCHARD STREET,188 ORCHARD STREET,,10002,2126775200,"188 ORCHARD STREET
NEW YORK, NY 10002
(40.722086427908835, -73.98821007370384)"
SIDEWALK CAFE,1224204,Unenclosed,506,156 TENTH AVENUE RESTAURANT LLC,10TH AVENUE COOKSHOP,10 AVENUE,156 10 AVENUE,AKA 460 WEST 20TH STREET,10011,2129244440,"156 10 AVENUE
NEW YORK, NY 10011
(40.745631833855036, -74.00563447806803)"
SIDEWALK CAFE,1224578,Unenclosed,228,NOOR EL HADA CORP,,STEINWAY STREET,24-25 STEINWAY STREET,,11103,7187219010,"24 25 STEINWAY STREET
QUEENS, NY 11103
(40.76286893025696, -73.91327185810974)"
SIDEWALK CAFE,1224759,Unenclosed,542,"SOL'S RESTAURANT,INC",IL SOLE,DYCKMAN STREET,233 DYCKMAN STREET,,10034,2125440406,"233 DYCKMAN STREET
NEW YORK, NY 10034
(40.86601160077111, -73.92776404955296)"
SIDEWALK CAFE,1224900,Enclosed,211,MADISON ON COLUMBUS CORP,,COLUMBUS AVENUE,244-246 COLUMBUS AVENUE,,10023,2125801516,"244 246 COLUMBUS AVENUE
NEW YORK, NY 10023
(40.774536138232236, -73.97994335610099)"
SIDEWALK CAFE,1224915,Unenclosed,177,8868 CORP.,VERMICELLI,2 AVENUE,1492 2 AVENUE,,10075,2122888868,"1492 2 AVENUE
NEW YORK, NY 10075
(40.77243047510905, -73.95570857556493)"
SIDEWALK CAFE,1225069,Unenclosed,177,VIRGILIA CAFE INC.,ANTONUCCI,EAST   81 STREET,168 EAST   81 STREET,,10028,2125704735,"168 81 STREET
NEW YORK, NY 10028
(40.77585689204068, -73.95695863318565)"
SIDEWALK CAFE,1225525,Unenclosed,349,HAVANA CENTRAL NY 3 LLC,,BROADWAY,2911 BROADWAY,,10025,2126628830,"2911 BROADWAY
NEW YORK, NY 10025
(40.806479953435826, -73.96518169979537)"
SIDEWALK CAFE,1225841,Unenclosed,111,"G.D.P. ENTERPRISES, INC.",AGOZAR,BOWERY,324 BOWERY,,10012,2126776773,"324 BOWERY
NEW YORK, NY 10012
(40.725474592362154, -73.99222913886835)"
SIDEWALK CAFE,1225847,Unenclosed,288,MOUQUINHO ENTERPRISES INC.,,GREENWICH STREET,549 GREENWICH STREET,,10013,2129249532,"549 GREENWICH STREET
NEW YORK, NY 10013
(40.727438504915376, -74.00879942583333)"
SIDEWALK CAFE,1225897,Unenclosed,103,J.M.M.T. CAFE INC,,THIRD AVENUE,360 THIRD AVENUE,,10016,2126962122,"360 THIRD AVENUE
NEW YORK, NY 10016
(40.74090923798212, -73.98162703644937)"
SIDEWALK CAFE,1226076,Unenclosed,288,LADL LLC.,,UNIVERSITY PLACE,80 UNIVERSITY PLACE,,10003,2126273706,"80 UNIVERSITY PLACE
NEW YORK, NY 10003
(40.733399899037465, -73.99321929740705)"
SIDEWALK CAFE,1226371,Unenclosed,162,"MANHATTAN ISLAND GROUP, LLC.",,BEEKMAN STREET,146 BEEKMAN STREET,,10038,2129620053,"146 BEEKMAN STREET
NEW YORK, NY 10038
(40.70701379069777, -74.00257224651176)"
SIDEWALK CAFE,1226454,Unenclosed,309,THE HOLY GRAIL INC.,,COURT STREET,160 COURT STREET,,11201,7186252835,"160 COURT STREET
BROOKLYN, NY 11201
(40.68843452194455, -73.99300578608562)"
SIDEWALK CAFE,1227042,Unenclosed,416,114 KENMARE ASSOCIATES LLC,LA ESQUINA,KENMARE STREET,114 KENMARE STREET,,10012,6466137100,"114 KENMARE STREET
NEW YORK, NY 10012
(40.72143925610477, -73.99745258375648)"
SIDEWALK CAFE,1227073,Unenclosed,229,LUCKY 13 LLC,,WEST   14 STREET,355 WEST   14 STREET,,10014,9148047430,"355 14 STREET
NEW YORK, NY 10014
(40.74038456650987, -74.00393431016055)"
SIDEWALK CAFE,1227347,Unenclosed,167,NAT OF NY CORP.,OH MAMA MIA,SECOND AVENUE,1471 SECOND AVENUE,,10075,2122884045,"1471 SECOND AVENUE
NEW YORK, NY 10075
(40.77170647121955, -73.95627072148905)"
SIDEWALK CAFE,1227438,Unenclosed,310,205 EAST 75TH STREET LLC,,EAST   75 STREET,205 EAST   75 STREET,,10021,2122271700,"205 75 STREET
NEW YORK, NY 10021
(40.77166016856759, -73.95901977267123)"
SIDEWALK CAFE,1227844,Unenclosed,198,"EMILIO'S ITALIAN EATERY, INC.",,AMSTERDAM AVENUE,413 AMSTERDAM AVENUE,,10024,2124960890,"413 AMSTERDAM AVENUE
NEW YORK, NY 10024
(40.78360994647036, -73.97794851984756)"
SIDEWALK CAFE,1228752,Unenclosed,210,"K & L COURT FOOD, INC.",CHANCE,SMITH STREET,223 SMITH STREET,,11201,7182421515,"223 SMITH STREET
BROOKLYN, NY 11201
(40.68417745656051, -73.99214882309406)"
SIDEWALK CAFE,1228814,Unenclosed,214,VERO INC.,,2 AVENUE,1483 2 AVENUE,,10075,2124523354,"1483 2 AVENUE
NEW YORK, NY 10075
(40.77210673773402, -73.95597548401278)"
SIDEWALK CAFE,1229522,Unenclosed,67,"9TH AVENUE SALOON, INC.",,NINTH AVENUE,627 NINTH AVENUE,,10036,2129749169,"627 NINTH AVENUE
NEW YORK, NY 10036
(40.75992989890182, -73.99152857199198)"
SIDEWALK CAFE,1229629,Enclosed,880,ERS ENTERPRISES INC.,,WEST   63 STREET,44 WEST   63 STREET,,10023,2129579700,"44 63 STREET
NEW YORK, NY 10023
(40.77122083397401, -73.98183609046507)"
SIDEWALK CAFE,1229855,Unenclosed,92,"LOCO 111, INC.",,STANTON STREET,111 STANTON STREET,,10002,2122539671,"111 STANTON STREET
NEW YORK, NY 10002
(40.721076261986575, -73.98736928964402)"
SIDEWALK CAFE,1229988,Unenclosed,242,MANETTA'S FINE FOOD CORP.,,JACKSON AVENUE,1076 JACKSON AVENUE,,11101,7187866171,"1076 JACKSON AVENUE
QUEENS, NY 11101
(40.74271967174663, -73.95222234881106)"
SIDEWALK CAFE,1230448,Unenclosed,86,643 HUDSON LLC,,HUDSON STREET,643 HUDSON STREET,,10014,2128076383,"643 HUDSON STREET
NEW YORK, NY 10014
(40.7390836142626, -74.00544108378523)"
SIDEWALK CAFE,1230536,Unenclosed,320,IL MATTONE CORP.,,GREENWICH STREET,413 GREENWICH STREET,,10013,2123430030,"413 GREENWICH STREET
NEW YORK CITY, NY 10013
(40.72134898384485, -74.00990172105054)"
SIDEWALK CAFE,1230537,Unenclosed,401,ELSAYED III CORP.,HORUS CORP,EAST   10 STREET,293 EAST   10 STREET,,10009,2122284774,"293 10 STREET
NEW YORK, NY 10009
(40.727788129574606, -73.98206770424372)"
SIDEWALK CAFE,1230824,Unenclosed,228,MO & YEO CORP,,3 AVENUE,9324 3 AVENUE,,11209,7185675741,"9324 3 AVENUE
BROOKLYN, NY 11209
(40.61847179945688, -74.03313939901372)"
SIDEWALK CAFE,1230929,Unenclosed,342,"VEZZO, INC.",,LEXINGTON AVENUE,178 LEXINGTON AVENUE,,10016,2127161200,"178 LEXINGTON AVENUE
NEW YORK, NY 10016
(40.744398607455764, -73.98116838221443)"
SIDEWALK CAFE,1231072,Unenclosed,170,"WINE AND ROSES BAR AND CAFES, LLC.",,COLUMBUS AVENUE,286 COLUMBUS AVENUE,,10023,2125010001,"286 COLUMBUS AVENUE
NEW YORK, NY 10023
(40.778328526390425, -73.97816487970836)"
SIDEWALK CAFE,1231318,Unenclosed,473,"MARTELL'S NYC, LLC.",,EAST   83 STREET,200 EAST   83 STREET,,10028,9175664966,"200 83 STREET
NEW YORK, NY 10028
(40.77681185543149, -73.95535323738994)"
SIDEWALK CAFE,1231784,Unenclosed,98,"NEW FUSHA, INC.",,FIRST AVENUE,1065 FIRST AVENUE,,10022,2127528883,"1065 FIRST AVENUE
NEW YORK, NY 10022
(40.75909352941454, -73.96236355858179)"
SIDEWALK CAFE,1232028,Unenclosed,114,"1431 RESTAURANT, INC.",ZUCCHERO E POMODON,SECOND AVENUE,1435 SECOND AVENUE,,10021,2125852100,"1435 SECOND AVENUE
NEW YORK, NY 10021
(40.77056887850841, -73.9570665518292)"
SIDEWALK CAFE,1232567,Unenclosed,369,"TRATTORIA ROMANA, INC",,HYLAN BOULEVARD,1476 HYLAN BOULEVARD,,10305,7189803113,"1476 HYLAN BOULEVARD
STATEN ISLAND, NY 10305
(40.592376881634245, -74.08720177905381)"
SIDEWALK CAFE,1233115,Unenclosed,284,ENID'S CORPORATION,ENID'S,MANHATTAN AVENUE,560 MANHATTAN AVENUE,,11222,7183493859,"560 MANHATTAN AVENUE
BROOKLYN, NY 11222
(40.72223507836052, -73.94986622591837)"
SIDEWALK CAFE,1233131,Unenclosed,268,SMORGAS CHEF WEST VILLAGE LLC,SMORGAS CHEF,WEST   12 STREET,283 WEST   12 STREET,,10014,2125148411,"283 12 STREET
NEW YORK, NY 10014
(40.73755476681282, -74.00400216853836)"
SIDEWALK CAFE,1233220,Enclosed,269,MEHRAJ & SONS INC,,1 AVENUE,1149 1 AVENUE,,10065,2123713535,"1149 1 AVENUE
NEW YORK, NY 10065
(40.76201632600976, -73.96021417893172)"
SIDEWALK CAFE,1233396,Unenclosed,232,STARBUCKS CORPORATION,STARBUCKS COFFEE,2 AVENUE,145 2 AVENUE,,10003,7189212736,"145 2 AVENUE
NEW YORK, NY 10003
(40.7293259702447, -73.9871129008281)"
SIDEWALK CAFE,1233427,Enclosed,,LENNY'S 54TH STREET LLC,,SECOND AVENUE,1024 SECOND AVENUE,,10022,2123555700,"1024 SECOND AVENUE
NEW YORK, NY 10022
(40.7574747497618, -73.96661735178037)"
SIDEWALK CAFE,1233901,Unenclosed,109,SALVATORE'S CORP.,COPPOLAS,THIRD AVENUE,378 THIRD AVENUE,,10016,2126790070,"378 THIRD AVENUE
NEW YORK, NY 10016
(40.7415567498432, -73.98115938899412)"
SIDEWALK CAFE,1234454,Unenclosed,170,BURKE'S BEAL BOCHT CORP.,,WEST  238 STREET,445 WEST  238 STREET,,10463,7188847127,"445 238 STREET
BRONX, NY 10463
(40.88725990228991, -73.9047300962357)"
SIDEWALK CAFE,1234468,Unenclosed,260,NEW MEKONG RESTAURANT CORP.,,KING STREET,16-18 KING STREET,,10014,2123438169,"16 18 KING STREET
NEW YORK, NY 10014
(40.73358645135369, -74.01019960472792)"
SIDEWALK CAFE,1237141,Enclosed,,STARBUCKS CORPORATION,STARBUCKS COFFEE COMPANY,3 AVENUE,7419 3 AVENUE,,11209,2063185682,"7419 3 AVENUE
BROOKLYN, NY 11209
(40.63200588256758, -74.027532400932)"
SIDEWALK CAFE,1237547,Unenclosed,256,LENNY'S 77TH STREET LLC,,SECOND AVENUE,1481 SECOND AVENUE,,10021,2127602700,"1481 SECOND AVENUE
NEW YORK, NY 10021
(40.7713730413305, -73.95651834249509)"
SIDEWALK CAFE,1238509,Unenclosed,480,MANGIA RESTAURANT CORPORATION,,30 AVENUE,34-01 30 AVENUE,,11103,6463272626,"34 01 30 AVENUE
ASTORIA, NY 11103
(40.76286893025696, -73.91327185810974)"
SIDEWALK CAFE,1239318,Enclosed,272,LENNY'S 77TH STREET LLC,,SECOND AVENUE,1481 SECOND AVENUE,,10075,2127602700,"1481 SECOND AVENUE
NEW YORK, NY 10075
(40.77227759036407, -73.95581649420848)"
SIDEWALK CAFE,1240086,Unenclosed,97,PAESANO REST. CORP.,,MULBERRY STREET,136 MULBERRY STREET,,10013,2129651188,"136 MULBERRY STREET
NEW YORK, NY 10013
(40.718470871366826, -73.99769642260875)"
SIDEWALK CAFE,1242405,Unenclosed,373,301 EAST 47TH STREET RESTAURANT CORP,,SECOND AVENUE,888-890 SECOND AVENUE,,10017,2123555540,"888 890 SECOND AVENUE
NEW YORK, NY 10017
(40.75245652744684, -73.97297648087982)"
SIDEWALK CAFE,1243143,Unenclosed,157,MASANIELLO RESTAURANT CORP.,,5 AVENUE,72 5 AVENUE,,11217,7185459137,"72 5 AVENUE
BROOKLYN, NY 11217
(40.680847073928206, -73.97750730412059)"
SIDEWALK CAFE,1244047,Unenclosed,75,"78 SECOND AVENUE SANDWICH SHOP,INC.",,2 AVENUE,78 2 AVENUE,,10003,2122535410,"78 2 AVENUE
NEW YORK, NY 10003
(40.72646612619155, -73.98921731437667)"
SIDEWALK CAFE,1244698,Enclosed,,NPK DONUT INC,,EAST  161 STREET,96 EAST  161 STREET,,10451,7189931380,"96 161 STREET
BRONX, NY 10451
(40.82713049092343, -73.92430797088983)"
SIDEWALK CAFE,1244977,Unenclosed,108,"FOCACCERIA, LTD",,MACDOUGAL STREET,87 MACDOUGAL STREET,,10012,2122538049,"87 MACDOUGAL STREET
NEW YORK, NY 10012
(40.72907516473966, -74.0013075202743)"
SIDEWALK CAFE,1245257,Enclosed,161,THE SMOKE JOINT LLC,THE SMOKE JOINT,SOUTH ELLIOTT PLACE,87 SOUTH ELLIOTT PLACE,,11217,7187971011,"87 ELLIOTT PLACE
BROOKLYN, NY 11217
(40.68691855348542, -73.97551648178653)"
SIDEWALK CAFE,1245357,Enclosed,323,JRC GROUP INC,,2 AVENUE,1501 2 AVENUE,,10075,2123270582,"1501 2 AVENUE
NEW YORK, NY 10075
(40.772853156462816, -73.95540280607497)"
SIDEWALK CAFE,1245534,Unenclosed,234,PECK SLIP RESTAURANT CORP.,,PECK SLIP,22 PECK SLIP,,10038,9175189792,"22 PECK
NEW YORK, NY 10038
(40.56338140045976, -74.14119841225698)"
SIDEWALK CAFE,1245908,Unenclosed,97,"CAFFE VETRO, INC.",,MOTT STREET,200 MOTT STREET,,10012,2129660904,"200 MOTT STREET
NEW YORK, NY 10012
(40.7212680448622, -73.99559350756437)"
SIDEWALK CAFE,1246104,Unenclosed,305,DLS CHICKEN CORP,,AMSTERDAM AVENUE,355 AMSTERDAM AVENUE,,10024,2127876631,"355 AMSTERDAM AVENUE
NEW YORK, NY 10024
(40.78172946489201, -73.97936074493555)"
SIDEWALK CAFE,1246497,Unenclosed,740,NEW YORK HOTEL TENANT CO. LLC,"THE RITZ-CARLTON NEW YORK, CENTRAL PARK",CENTRAL PARK SOUTH,50 CENTRAL PARK SOUTH,,10019,2125216018,"50 CENTRAL PARK
NEW YORK, NY 10019
(40.76496046701782, -73.97457792314559)"
SIDEWALK CAFE,1247422,Unenclosed,280,TB 584 AMSTERDAM REST. CORP.,BODRUM,AMSTERDAM AVENUE,584 AMSTERDAM AVENUE,,10024,2127992806,"584 AMSTERDAM AVENUE
NEW YORK, NY 10024
(40.78919418435815, -73.97395827157557)"
SIDEWALK CAFE,1247606,Unenclosed,180,"HILL COUNTRY NY, LLC",,WEST   26 STREET,30 WEST   26 STREET,,10010,2122554544,"30 26 STREET
NEW YORK, NY 10010
(40.74435364135434, -73.99034146691326)"
SIDEWALK CAFE,1247610,Unenclosed,112,243 DEKALB REST. CORP,,DEKALB AVENUE,243 DEKALB AVENUE,,11205,6463358195,"243 DEKALB AVENUE
BROOKLYN, NY 11205
(40.68951082270725, -73.96946148666142)"
SIDEWALK CAFE,1247774,Unenclosed,124,"MCCONNER STREET HOLDING, LLC",MC 104,BROADWAY,2726 BROADWAY,,10025,2122228553,"2726 BROADWAY
NEW YORK, NY 10025
(40.799985702086815, -73.96800230770549)"
SIDEWALK CAFE,1248146,Unenclosed,153,THIRD AVENUE RESTAURANT CORP.,VILLAGE POURHOUSE,3 AVENUE,64 3 AVENUE,,10003,2123751396,"64 3 AVENUE
NEW YORK, NY 10003
(40.73114260074391, -73.98874966692142)"
SIDEWALK CAFE,1248153,Enclosed,,"BAC BARS GROUP, LLC.",BAYARD'S ALEHOUSE,HUDSON STREET,533 HUDSON STREET,A/K/A 116 CHARLES STREET,10014,6462455843,"533 HUDSON STREET
NEW YORK, NY 10014
(40.734263248185584, -74.00619651428985)"
SIDEWALK CAFE,1248301,Unenclosed,249,PONENTE LLC,NIZZA,NINTH AVENUE,628 NINTH AVENUE,,10036,2123332323,"628 NINTH AVENUE
NEW YORK, NY 10036
(40.75992887717089, -73.9914894021525)"
SIDEWALK CAFE,1248596,Unenclosed,167,MANNA KITCHEN INC,,EAST   18 STREET,28 EAST   18 STREET,,10003,2122281044,"28 18 STREET
NEW YORK, NY 10003
(40.7377068789146, -73.99001704503205)"
SIDEWALK CAFE,1248607,Unenclosed,304,BIDOCHONS CORP,,SMITH STREET,263 SMITH STREET,,11231,7187970707,"263 SMITH STREET
BROOKLYN, NY 11231
(40.6829010420312, -73.99298558604383)"
SIDEWALK CAFE,1248609,Unenclosed,58,H & R CAFE INC,,AVENUE A,36 B AVENUE A,,10009,2125337183,"36 B AVENUE
NEW YORK, NY 10009
(40.72266469672157, -73.98299515770208)"
SIDEWALK CAFE,1248648,Unenclosed,380,247 DELI LLC,DELICATESSEN,LAFAYETTE STREET,265 LAFAYETTE STREET,A/K/A 54 PRINCE STREET,10012,6464725230,"265 LAFAYETTE STREET
NEW YORK, NY 10012
(40.72349868289508, -73.99655890532276)"
SIDEWALK CAFE,1248652,Unenclosed,140,22 EAST 54 STREET RESTAURANT CORP,PAPILLON,EAST   54 STREET,22 EAST   54 STREET,,10022,2125131988,"22 54 STREET
NEW YORK, NY 10022
(40.76055043110199, -73.9742256161482)"
SIDEWALK CAFE,1249100,Unenclosed,364,P & A 665 RESTAURANT CORP.,GALAXY DINER,9 AVENUE,665 9 AVENUE,,10036,2125864885,"665 9 AVENUE
NEW YORK, NY 10036
(40.761143983641375, -73.9906652228438)"
SIDEWALK CAFE,1249101,Unenclosed,220,S. WALLACE INC,,WEST   35 STREET,2 WEST   35 STREET,,10001,2125949343,"2 35 STREET
NEW YORK, NY 10001
(40.74910326346623, -73.98413829733063)"
SIDEWALK CAFE,1249286,Unenclosed,176,27-39 EAST 30 REST. CORP,THE CROOKED KNIFE,EAST   30 STREET,27-29 EAST   30 STREET,,10016,6463597372,"27 29 EAST 30 STREET
NEW YORK, NY 10016
(40.745242969987146, -73.97823298586354)"
SIDEWALK CAFE,1249289,Unenclosed,177,599 TENTH AVENUE CORP.,,10 AVENUE,599 10 AVENUE,,10036,2122398020,"599 10 AVENUE
NEW YORK, NY 10036
(40.760604390423794, -73.99476613129741)"
SIDEWALK CAFE,1249445,Unenclosed,353,LASAGNA RESTAURANT INC.,,2 AVENUE,941 2 AVENUE,,10022,2123085353,"941 2 AVENUE
NEW YORK, NY 10022
(40.75478577689421, -73.96857787380424)"
SIDEWALK CAFE,1249523,Unenclosed,184,AKRAM RESTAURANT MANAGEMENT INC,,MULBERRY STREET,129 MULBERRY STREET,,10013,2123439065,"129 MULBERRY STREET
NEW YORK, NY 10013
(40.71819295009514, -73.99792786213914)"
SIDEWALK CAFE,1249567,Unenclosed,369,BANCONE LLC,PETRARCA,WHITE STREET,34 WHITE STREET,,10013,2126252800,"34 WHITE STREET
NEW YORK, NY 10013
(40.71876792962075, -74.0046856532806)"
SIDEWALK CAFE,1249725,Unenclosed,190,CILANTRO WEST LLC,,COLUMBUS AVENUE,485 COLUMBUS AVENUE,,10024,2125131988,"485 COLUMBUS AVENUE
NEW YORK, NY 10024
(40.78471521402929, -73.97347018564363)"
SIDEWALK CAFE,1249806,Unenclosed,240,ROSE RESTAURANT GROUP INC,,BEEKMAN STREET,142-144 BEEKMAN STREET,,10038,2125662220,"142 144 BEEKMAN STREET
NEW YORK, NY 10038
(40.70935929189784, -74.00307186237649)"
SIDEWALK CAFE,1249978,Unenclosed,203,"1460 SECOND AVENUE RESTAURANT GROUP, LLC",,2 AVENUE,1460 2 AVENUE,,10021,2127510700,"1460 2 AVENUE
NEW YORK, NY 10021
(40.771630078502994, -73.95628414166367)"
SIDEWALK CAFE,1250013,Unenclosed,340,"PANZI ENTERPRISES, LLC",PANCA,7 AVENUE SOUTH,92 7 AVENUE SOUTH,,10014,2124883900,"92 7 AVENUE
NEW YORK, NY 10014
(40.73273921228516, -74.00334363183016)"
SIDEWALK CAFE,1250451,Unenclosed,76,41 WEST LLC,SHELLY'S NEW YORK,WEST   57 STREET,41 WEST   57 STREET,,10019,2127596644,"41 57 STREET
NEW YORK, NY 10019
(40.76397684803362, -73.97636600257795)"
SIDEWALK CAFE,1250556,Unenclosed,562,FUSION SUSHI INC.,,1 AVENUE,346 1 AVENUE,,10009,2129837474,"346 1 AVENUE
NEW YORK, NY 10009
(40.734756218145506, -73.97980050093591)"
SIDEWALK CAFE,1250569,Unenclosed,175,MUNDO MUNDO CORP.,MUNDO TAPAS,BROADWAY,31-18 BROADWAY,STORE # E,11106,7187772829,"31 18
ASTORIA, NY 11106
(40.761699790013324, -73.9316632529567)"
SIDEWALK CAFE,1250691,Unenclosed,204,OUT OF THE KITCHEN INC.,,HUDSON STREET,420 HUDSON STREET,,10014,6314248480,"420 HUDSON STREET
NEW YORK, NY 10014
(40.730333210917536, -74.00682603971035)"
SIDEWALK CAFE,1250759,Unenclosed,555,SOUP KITCHEN ASSOC. LTD.,BISTRO 33,DITMARS BOULEVARD,19-33 DITMARS BOULEVARD,,11105,7187211933,"19 33 DITMARS BOULEVARD
ASTORIA, NY 11105
(40.780092072491186, -73.90960650023976)"
SIDEWALK CAFE,1251386,Unenclosed,127,L & J BRAZIL RESTAURANT INC,VIA BRAZIL,WEST   46 STREET,34 WEST   46 STREET,,10036,2126439271,"34 46 STREET
NEW YORK, NY 10036
(40.75671032603691, -73.98062878899685)"
SIDEWALK CAFE,1251398,Unenclosed,134,MADOVA LLC.,,3 AVENUE,1668 3 AVENUE,,10128,2124261416,"1668 3 AVENUE
NEW YORK, NY 10128
(40.783555088611536, -73.95053747389647)"
SIDEWALK CAFE,1251412,Unenclosed,426,SAMMY'S S.B. REST. CORP.,SAMMY'S ORIGNAL SHRIMP BOX,CITY ISLAND AVENUE,64 CITY ISLAND AVENUE,,10464,7188853200,"64 CITY ISLAND AVENUE
BRONX, NY 10464
(40.839607689202985, -73.78360735906038)"
SIDEWALK CAFE,1251443,Unenclosed,180,"HAIRY MONK,CORP.",JOHNNY FOXES,2 AVENUE,1546 2 AVENUE,,10028,9176767817,"1546 2 AVENUE
NEW YORK, NY 10028
(40.77436401747207, -73.95429663997896)"
SIDEWALK CAFE,1251799,Unenclosed,152,4N CORP,BLIND PIG,EAST   14 STREET,233 EAST   14 STREET,,10003,6462070087,"233 14 STREET
NEW YORK, NY 10003
(40.73271641429517, -73.9858268703262)"
SIDEWALK CAFE,1251800,Unenclosed,198,PQ CHELSEA INC,,7 AVENUE,124 7 AVENUE,,10011,2123599000,"124 7 AVENUE
NEW YORK, NY 10011
(40.740747360016826, -73.99807563636529)"
SIDEWALK CAFE,1251803,Unenclosed,126,PQ FIRST INC,LE PAIN QUOTIDIEN,1 AVENUE,1270 1 AVENUE,,10065,2123599000,"1270 1 AVENUE
NEW YORK, NY 10065
(40.76538472909788, -73.9577206099831)"
SIDEWALK CAFE,1251807,Enclosed,262,SHANGRILA DELI CORP,SHANGRILA DELI,FORT WASHINGTON AVENUE,228 FORT WASHINGTON AVENUE,,10032,2129276685,"228 FORT WASHINGTON AVENUE
NEW YORK, NY 10032
(40.842900566723955, -73.94194950399138)"
SIDEWALK CAFE,1252203,Unenclosed,71,SALSA SALON INC,,EAST   12 STREET,47 EAST   12 STREET,,10003,2122537594,"47 12 STREET
NEW YORK, NY 10003
(40.7334487909014, -73.99157777653264)"
SIDEWALK CAFE,1252281,Unenclosed,166,ALN RESTAURANT INC,GIOVANNA'S,MULBERRY STREET,128 MULBERRY STREET,180 HESTER STREET,10013,2123439065,"128 MULBERRY STREET
NEW YORK, NY 10013
(40.71810422415635, -73.99790157181232)"
SIDEWALK CAFE,1252679,Unenclosed,720,7TH AVENUE RESTAURANT GROUP LLC,,7 AVENUE SOUTH,130-138 7 AVENUE SOUTH,,10014,2123522237,"130 138 7 AVENUE
NEW YORK, NY 10014
(40.73358645135369, -74.01019960472792)"
SIDEWALK CAFE,1252802,Unenclosed,137,108 BAGEL CORP,,ROCKAWAY BEACH BOULEVARD,108-01 ROCKAWAY BEACH BOULEVARD,,11694,5166419126,"108 01 ROCKAWAY BEACH BOULEVARD
QUEENS, NY 11694
(40.57657830564432, -73.85077700055808)"
SIDEWALK CAFE,1252836,Enclosed,306,RIZ BAGELS INC.,,WOODSIDE AVENUE,57-20 WOODSIDE AVENUE,,11377,7188033595,"57 20 WOODSIDE AVENUE
WOODSIDE, NY 11377
(40.74519376448069, -73.9048471440804)"
SIDEWALK CAFE,1253042,Unenclosed,770,"7TH & BARROW, LLC",SUSHI SAMBA  # 7,7 AVENUE SOUTH,87 7 AVENUE SOUTH,,10014,2126917885,"87 7 AVENUE
NEW YORK, NY 10014
(40.73251434095527, -74.00339861469703)"
SIDEWALK CAFE,1253169,Unenclosed,138,"T BURGER, LLC",,LAFAYETTE AVENUE,67 LAFAYETTE AVENUE,,11217,7187973790,"67 LAFAYETTE AVENUE
BROOKLYN, NY 11217
(40.6871106661029, -73.97570639238756)"
SIDEWALK CAFE,1253201,Unenclosed,83,NICA RESTAURANT CORP,NICA TRATTORIA,EAST   84 STREET,354 EAST   84 STREET,,10028,2124725040,"354 84 STREET
NEW YORK, NY 10028
(40.77598330427891, -73.9514173051294)"
SIDEWALK CAFE,1253206,Unenclosed,120,772 NINTH RESTAURANT CORP.,,9 AVENUE,772 9 AVENUE,,10019,2125865005,"772 9 AVENUE
NEW YORK, NY 10019
(40.76448946159036, -73.98820108048352)"
SIDEWALK CAFE,1253520,Unenclosed,237,PALOMBO INC.,,ARTHUR AVENUE,2400 ARTHUR AVENUE,,10458,7183298800,"2400 ARTHUR AVENUE
BRONX, NY 10458
(40.85555954941789, -73.88752751710149)"
SIDEWALK CAFE,1253585,Unenclosed,196,TABOON RESTAURANT CORP.,TABOON,10 AVENUE,773 10 AVENUE,,10019,2127130271,"773 10 AVENUE
NEW YORK, NY 10019
(40.766087849913724, -73.99080376845488)"
SIDEWALK CAFE,1253726,Enclosed,1,611 HUDSON STREET CORP.,,HUDSON STREET,611 HUDSON STREET,,10014,2126458622,"611 HUDSON STREET
NEW YORK, NY 10014
(40.737567107806456, -74.00572548449368)"
SIDEWALK CAFE,1254082,Unenclosed,416,KMG GROUP LLC,MOLLY PITCHERS'S ALE HOUSE,2 AVENUE,1641 2 AVENUE,,10028,2122493067,"1641 2 AVENUE
NEW YORK, NY 10028
(40.77730480050786, -73.95213826710864)"
SIDEWALK CAFE,1254298,Unenclosed,222,MARKT ON LADIES MILE LLC,,6 AVENUE,676 6 AVENUE,,10010,9172246363,"676 6 AVENUE
NEW YORK, NY 10010
(40.74172762102876, -73.99365097198108)"
SIDEWALK CAFE,1254413,Unenclosed,115,SCENIC ROUTE 66 CAFE INC,,9 AVENUE,858 9 AVENUE,,10019,2129777600,"858 9 AVENUE
NEW YORK, NY 10019
(40.767016556492706, -73.98637545676405)"
SIDEWALK CAFE,1254785,Unenclosed,376,"BOWERY F & B, LLC",,BOWERY,335 BOWERY,A.K.A. 4 EAST 3RD STREET,10003,2125131988,"335 BOWERY
NEW YORK, NY 10003
(40.72601805149763, -73.99179621853632)"
SIDEWALK CAFE,1254942,Unenclosed,369,3801 BROADWAY RESTAURANT CORP.,,BROADWAY,38-01 BROADWAY,,11103,7187771707,"38 01
L I C, NY 11103
(40.76286893025696, -73.91327185810974)"
SIDEWALK CAFE,1255104,Unenclosed,138,SAFRAN INC.,,7 AVENUE,88 7 AVENUE,,10011,2129291778,"88 7 AVENUE
NEW YORK, NY 10011
(40.73956866245468, -73.99897989710877)"
SIDEWALK CAFE,1255149,Unenclosed,126,DULJO CORP.,BROTHERS PIZZA,14 STREET,30-50 14 STREET,,11102,7187771111,"30 50 14 STREET
QUEENS, NY 11102
(40.77152402451418, -73.92643545073543)"
SIDEWALK CAFE,1255573,Unenclosed,364,MDV BROADWAY LLC,TIME CAFE,BROADWAY,44-18 BROADWAY,,11103,7186060500,"44 18
ASTORIA, NY 11103
(40.76286893025696, -73.91327185810974)"
SIDEWALK CAFE,1256251,Enclosed,390,VYNL ON SECOND LLC,,2 AVENUE,1491 2 AVENUE,,10075,2127654842,"1491 2 AVENUE
NEW YORK, NY 10075
(40.772511414091696, -73.95564562302286)"
SIDEWALK CAFE,1256268,Unenclosed,207,"VYNL ON SECOND, LLC",,2 AVENUE,1491 2 AVENUE,,10075,2127654842,"1491 2 AVENUE
NEW YORK, NY 10075
(40.772511414091696, -73.95564562302286)"
SIDEWALK CAFE,1256574,Unenclosed,418,SLD DELI GRILL INC,GRACIES'S CAFE,YORK AVENUE,1530 YORK AVENUE,,10028,2125172667,"1530 YORK AVENUE
NEW YORK, NY 10028
(40.772601346294664, -73.94953922644396)"
SIDEWALK CAFE,1257055,Unenclosed,103,384 3RD AVE REST LLC,ARCTICA,3 AVENUE,384 3 AVENUE,,10016,9146326036,"384 3 AVENUE
NEW YORK, NY 10016
(40.74173661424908, -73.98103348391004)"
SIDEWALK CAFE,1257073,Unenclosed,270,SCHATZI CORP.,WALLSE RESTAURANT,WEST   11 STREET,342-344 WEST   11 STREET,,10014,2123522300,"342 344 WEST 11 STREET
NEW YORK, NY 10014
(40.73358645135369, -74.01019960472792)"
SIDEWALK CAFE,1257247,Unenclosed,95,"177 NAP, INC",FAMOUS BEN'S PIZZA OF SOHO,SPRING STREET,177 SPRING STREET,,10012,2129664494,"177 SPRING STREET
NEW YORK, NY 10012
(40.724811373657644, -74.00250030074943)"
SIDEWALK CAFE,1257387,Enclosed,511,"GEORGE'S SCC, INC",GEORGES RESTAURANT,BUHRE AVENUE,3000 BUHRE AVENUE,,10461,7188635256,"3000 BUHRE AVENUE
BRONX, NY 10461
(40.847228476366354, -73.83150958052084)"
SIDEWALK CAFE,1257707,Unenclosed,110,1650 BROADWAY ASSOCIATES INC.,ELLEN'S STARBUST DINER,BROADWAY,1650 BROADWAY,,10019,2125820161,"1650 BROADWAY
NEW YORK, NY 10019
(40.762021327297084, -73.98361263022184)"
SIDEWALK CAFE,1258092,Unenclosed,154,THE DOWNTOWN LLC,HOTEL ON RIVINGTON,RIVINGTON STREET,107 RIVINGTON STREET,,10002,2124752600,"107 RIVINGTON STREET
NEW YORK, NY 10002
(40.71997302113999, -73.9880212160777)"
SIDEWALK CAFE,1258099,Unenclosed,205,JAMES-ZAC CORP.,BRUNO THE KING OF RAVIOLI,FIRST AVENUE,282-284 FIRST AVENUE,,10009,2016460505,"282 284 FIRST AVENUE
NEW YORK, NY 10009
(40.72664935898081, -73.97911148500697)"
SIDEWALK CAFE,1258388,Unenclosed,81,TACO TACO INC,,2 AVENUE,1726 2 AVENUE,,10128,2122898226,"1726 2 AVENUE
NEW YORK, NY 10128
(40.78020061744223, -73.95003385356006)"
SIDEWALK CAFE,1258524,Enclosed,364,88 2ND AVE FOOD CORP.,,2 AVENUE,88 2 AVENUE,,10003,2124208050,"88 2 AVENUE
NEW YORK, NY 10003
(40.72692478042649, -73.9888755720055)"
SIDEWALK CAFE,1259013,Unenclosed,410,"381 PARK AVENUE SOUTH, LLC",PRIME STEAKHOUSE,PARK AVENUE SOUTH,381 PARK AVENUE SOUTH,,10016,2128242600,"381 PARK AVENUE
NEW YORK, NY 10016
(40.74251902441455, -73.98458580592575)"
SIDEWALK CAFE,1259219,Unenclosed,177,174 BEDFORD AVENUE BAR LLC,CHARLESTON,BEDFORD AVENUE,174 BEDFORD AVENUE,,11211,7185999199,"174 BEDFORD AVENUE
BROOKLYN, NY 11211
(40.718057557997824, -73.95752074092232)"
SIDEWALK CAFE,1259291,Unenclosed,158,LEX 90 CORP,CORRADO BAKERY,LEXINGTON AVENUE,1361 LEXINGTON AVENUE,,10128,9146326036,"1361 LEXINGTON AVENUE
NEW YORK, NY 10128
(40.782224092008164, -73.95356818913518)"
SIDEWALK CAFE,1259520,Unenclosed,171,"JODAN, INC",CAFE BOULUD,EAST   76 STREET,20 EAST   76 STREET,,10021,2127722600,"20 76 STREET
NEW YORK, NY 10021
(40.77449891577646, -73.96386542637072)"
SIDEWALK CAFE,1260284,Unenclosed,190,276 COLUMBUS INC.,ARTE AROUND THE CORNER,COLUMBUS AVENUE,270-276 COLUMBUS AVENUE,,10023,2128752195,"270 276 COLUMBUS AVENUE
NEW YORK, NY 10023
(40.774536138232236, -73.97994335610099)"
SIDEWALK CAFE,1260889,Unenclosed,410,10 DOWNING LLC,10 DOWNING,DOWNING STREET,10 DOWNING STREET,AKA 263 6TH AVE,10014,9175234972,"10 DOWNING STREET
NEW YORK, NY 10014
(40.72955979397233, -74.00295895498436)"
SIDEWALK CAFE,1260890,Unenclosed,311,GOAT FIFTY LLC,,PECK SLIP,36 PECK SLIP,,10038,2123469090,"36 PECK
NEW YORK, NY 10038
(40.563384608764, -74.14119603573532)"
SIDEWALK CAFE,1260966,Unenclosed,53,CANTALOUPE LLC,LOVELY DAY,ELIZABETH STREET,196 ELIZABETH STREET,,10012,2129253310,"196 ELIZABETH STREET
NEW YORK, NY 10012
(40.721834617740626, -73.99447834824804)"
SIDEWALK CAFE,1261303,Unenclosed,420,LITTLE MOROCCO RESTAURANT CORP.,,STEINWAY STREET,24-39 STEINWAY STREET,,11103,7182048118,"24 39 STEINWAY STREET
QUEENS, NY 11103
(40.76286893025696, -73.91327185810974)"
SIDEWALK CAFE,1261306,Unenclosed,172,IVY'S BISTRO LLC.,,GREENWICH STREET,385 GREENWICH STREET,,10013,2123431139,"385 GREENWICH STREET
NEW YORK, NY 10013
(40.7202248313082, -74.01010856511732)"
SIDEWALK CAFE,1261653,Unenclosed,40,"LMR N.H., INC.",BISTRO 60,EAST   60 STREET,37 EAST   60 STREET,,10022,2122301350,"37 60 STREET
NEW YORK, NY 10022
(40.76394087515246, -73.97029557888021)"
SIDEWALK CAFE,1261882,Unenclosed,274,PROVENCIO LTD,,7 AVENUE,341 7 AVENUE,,11215,9178044534,"341 7 AVENUE
BROOKLYN, NY 11215
(40.66647827749764, -73.98186835126758)"
SIDEWALK CAFE,1262190,Unenclosed,172,"COSI, INC",,BROADWAY,2186 BROADWAY,,10024,2125955616,"2186 BROADWAY
NEW YORK, NY 10024
(40.782698725331585, -73.98052813112305)"
SIDEWALK CAFE,1262376,Unenclosed,219,DEAN'S REST. CORP.,DEAN'S,GREENWICH STREET,349 GREENWICH STREET,,10013,2126885916,"349 GREENWICH STREET
NEW YORK, NY 10013
(40.71859705843519, -74.0103963481667)"
SIDEWALK CAFE,1262390,Unenclosed,184,DHARADHARA LLC,,3 AVENUE,1426 3 AVENUE,,10028,6464166196,"1426 3 AVENUE
NEW YORK, NY 10028
(40.775523142077816, -73.95642150153705)"
SIDEWALK CAFE,1263648,Unenclosed,369,ARTOPOLIS CAFE LTD,,AMSTERDAM AVENUE,1090 AMSTERDAM AVENUE,,10025,2126663744,"1090 AMSTERDAM AVENUE
NEW YORK, NY 10025
(40.80524788244413, -73.96224091603351)"
SIDEWALK CAFE,1265442,Unenclosed,177,J OF K CORP,,AMSTERDAM AVENUE,427 AMSTERDAM AVENUE,,10024,2125800007,"427 AMSTERDAM AVENUE
NEW YORK, NY 10024
(40.78403681445016, -73.97763316862074)"
SIDEWALK CAFE,1268609,Enclosed,814,TOSCA COAL BURNING OVEN INC,,EAST TREMONT AVENUE,4038 EAST TREMONT AVENUE,,10465,7184020872,"4038 TREMONT AVENUE
BRONX, NY 10465
(40.8195796357204, -73.81759035218695)"
SIDEWALK CAFE,1270176,Enclosed,481,HI-LIFE SECOND AVE. LLC,HI-LIFE RESTAURANT & LOUNGE,2 AVENUE,1503 2 AVENUE,,10075,9175629424,"1503 2 AVENUE
NEW YORK, NY 10075
(40.77274503694507, -73.9555184463585)"
SIDEWALK CAFE,1271233,Enclosed,118,"NO GRANDE,INC.",,SOUTH PORTLAND AVENUE,86 SOUTH PORTLAND AVENUE,,11217,7186430000,"86 PORTLAND AVENUE
BROOKLYN, NY 11217
(40.68707240735804, -73.97465270747686)"
SIDEWALK CAFE,1271529,Unenclosed,500,"MONA LISA CAFE, INC",,86 STREET,1476 86 STREET,,11228,7188379053,"1476 86 STREET
BROOKLYN, NY 11228
(40.61164359368847, -74.00995707678072)"
SIDEWALK CAFE,1271565,Enclosed,365,MAGNOLIA COLUMBUS AVENUE LLC.,,COLUMBUS AVENUE,200 COLUMBUS AVENUE,,10023,2127571177,"200 COLUMBUS AVENUE
NEW YORK, NY 10023
(40.77551137948189, -73.98022351643253)"
SIDEWALK CAFE,1272598,Unenclosed,82,TRIBECA FOOD NY LLC,,GREENWICH STREET,329 GREENWICH STREET,,10013,9175843976,"329 GREENWICH STREET
NEW YORK, NY 10013
(40.71767974996527, -74.0105941990131)"
SIDEWALK CAFE,1272901,Enclosed,290,EL SAYED 1 CORP.,,AVENUE B,93 AVENUE B,AKA 601 EAST 6 STREET,10009,9172927822,"93 AVENUE
NEW YORK, NY 10009
(40.72664935898081, -73.97911148500697)"
SIDEWALK CAFE,1273996,Unenclosed,160,"MERMAID 88, LLC",THE MERMAID INN,AMSTERDAM AVENUE,568 AMSTERDAM AVENUE,,10024,2127997400,"568 AMSTERDAM AVENUE
NEW YORK, NY 10024
(40.78869021739882, -73.97428856869027)"
SIDEWALK CAFE,1274348,Unenclosed,138,"BZ THAI RESTAURANT, INC.",LAND,2 AVENUE,1565 2 AVENUE,,10028,2124391847,"1565 2 AVENUE
NEW YORK, NY 10028
(40.774867637808484, -73.95392791794694)"
SIDEWALK CAFE,1274576,Unenclosed,96,PAM REAL THAI II INC,,WEST   47 STREET,402 WEST   47 STREET,,10036,2123154441,"402 47 STREET
NEW YORK, NY 10036
(40.76177350906187, -73.99070119572502)"
SIDEWALK CAFE,1274769,Unenclosed,328,PQ 550 HUDSON INC,LE PAIN QUOTIDIEN,HUDSON STREET,550 HUDSON STREET,,10014,2123599000,"550 HUDSON STREET
NEW YORK, NY 10014
(40.73509062445254, -74.00606161598546)"
SIDEWALK CAFE,1274929,Unenclosed,133,LA MELA RISTORANTE ITALIANO INC,LA MELA RISTORANTE,MULBERRY STREET,167-171 MULBERRY STREET,,10013,2124319493,"167 171 MULBERRY STREET
NEW YORK, NY 10013
(40.721242188776046, -74.00888900022716)"
SIDEWALK CAFE,1274931,Unenclosed,245,SUSHI A GOGO INC,SUSHI A GOGO RESTAURANT,BROADWAY,1900 BROADWAY,,10023,6462756820,"1900 BROADWAY
NEW YORK, NY 10023
(40.77135954602272, -73.98199663393459)"
SIDEWALK CAFE,1275009,Enclosed,1044,40-01 NORTHERN BOULEVARD CORP,,NORTHERN BOULEVARD,40-01 NORTHERN BOULEVARD,,11101,9178418887,"40 01 NORTHERN BOULEVARD
QUEENS, NY 11101
(40.74570244980828, -73.93866902925225)"
SIDEWALK CAFE,1275484,Unenclosed,232,THAI MARKET INC.,,AMSTERDAM AVENUE,960 AMSTERDAM AVENUE,,10025,2122804575,"960 AMSTERDAM AVENUE
NEW YORK, NY 10025
(40.80124475292786, -73.96513347043202)"
SIDEWALK CAFE,1275517,Enclosed,,AMBER JAPANESE REST. INC.,,COLUMBUS AVENUE,221-223 COLUMBUS AVENUE,,10023,2127998100,"221 223 COLUMBUS AVENUE
NEW YORK, NY 10023
(40.774536138232236, -73.97994335610099)"
SIDEWALK CAFE,1276520,Unenclosed,102,GENINO INC,VICO,MADISON AVENUE,1302 MADISON AVENUE,,10128,2128672222,"1302 MADISON AVENUE
NEW YORK, NY 10128
(40.78492205809607, -73.95584347386932)"
SIDEWALK CAFE,1276639,Unenclosed,144,TSM RESTAURANT LLC,,COURT STREET,524 COURT STREET,,11231,7187815445,"524 COURT STREET
BROOKLYN, NY 11231
(40.67587155760323, -73.99906309530279)"
SIDEWALK CAFE,1276674,Unenclosed,770,701 W. 135TH CAFE INC.,,WEST  135 STREET,701 WEST  135 STREET,,10031,2122882937,"701 135 STREET
NEW YORK, NY 10031
(40.82065502848618, -73.95632151277681)"
SIDEWALK CAFE,1276890,Unenclosed,162,STIVALE 77 CORP,BAR ITALIA,SECOND AVENUE,1477 SECOND AVENUE,,10075,2122495300,"1477 SECOND AVENUE
NEW YORK, NY 10075
(40.771928378930276, -73.9561058757611)"
SIDEWALK CAFE,1276893,Unenclosed,146,166 PARK INC.,,DEKALB AVENUE,166 DEKALB AVENUE,,11217,7188582700,"166 DEKALB AVENUE
BROOKLYN, NY 11217
(40.689603596309055, -73.97315934499737)"
SIDEWALK CAFE,1276994,Unenclosed,273,TENZAN II NEW YORK CORP.,,SECOND AVENUE,1714 SECOND AVENUE,,10128,2123693600,"1714 SECOND AVENUE
NEW YORK, NY 10128
(40.77970599032608, -73.95039358237176)"
SIDEWALK CAFE,1277060,Unenclosed,144,1629 2ND CAFE INC.,,2 AVENUE,1629 2 AVENUE,,10028,2126282364,"1629 2 AVENUE
NEW YORK, NY 10028
(40.776972051357006, -73.95238108405653)"
SIDEWALK CAFE,1277064,Unenclosed,40,TOTOF INC.,,AVENUE B,168 AVENUE B,,10009,2128885489,"168 AVENUE
NEW YORK, NY 10009
(40.72664935898081, -73.97911148500697)"
SIDEWALK CAFE,1277071,Unenclosed,60,LARRY KEVIN K CORP,,9 AVENUE,751 9 AVENUE,,10019,2127638924,"751 9 AVENUE
NEW YORK, NY 10019
(40.763922888711875, -73.98861476861703)"
SIDEWALK CAFE,1277182,Unenclosed,158,SIGGY'S GOOD FOOD L.L.C.,,HENRY STREET,76 HENRY STREET,,11201,7182373199,"76 HENRY STREET
BROOKLYN, NY 11201
(40.69859482374489, -73.99250103935346)"
SIDEWALK CAFE,1277185,Unenclosed,233,163 5TH AVE REST CORP,,LINCOLN PLACE,2 LINCOLN PLACE,,11217,7186362100,"2 LINCOLN PLACE
BROOKLYN, NY 11217
(40.677624379902866, -73.97954364673245)"
SIDEWALK CAFE,1277267,Unenclosed,76,"ABBEY RESTAURANT,  INC.",RESTO,EAST   29 STREET,111 EAST   29 STREET,,10016,2126855585,"111 29 STREET
NEW YORK, NY 10016
(40.743616197290294, -73.98286810084977)"
SIDEWALK CAFE,1277362,Unenclosed,255,SENGUPTA FOOD SERVICES LLC,,PRINCE STREET,62 PRINCE STREET,,10012,2122192129,"62 PRINCE STREET
NEW YORK, NY 10012
(40.723777153323965, -73.99671766010101)"
SIDEWALK CAFE,1277408,Unenclosed,185,ITALIAN WINE COMPANY LLC,,8 AVENUE,38 8 AVENUE,,10014,9176647323,"38 8 AVENUE
NEW YORK, NY 10014
(40.7380673803695, -74.00423599226599)"
SIDEWALK CAFE,1277413,Unenclosed,303,"GUSTO GRILLED ORGANICS, INC",,6 AVENUE,519-523 6 AVENUE,,10011,2122020861,"519 523 6 AVENUE
NEW YORK, NY 10011
(40.74471526669623, -74.00460000028977)"
SIDEWALK CAFE,1277414,Unenclosed,113,SHANNON CAFE LLC,,2 AVENUE,951 2 AVENUE,,10022,9175432948,"951 2 AVENUE
NEW YORK, NY 10022
(40.755181478587076, -73.96829908397513)"
SIDEWALK CAFE,1277441,Unenclosed,423,ROMANOS FAMOUS PIZZA CORP.,,BROADWAY,32-21 BROADWAY,,11106,9172040210,"32 21
ASTORIA, NY 11106
(40.761699790013324, -73.9316632529567)"
SIDEWALK CAFE,1277455,Unenclosed,173,BURKINABE ENTERTAINMENT LLC,,7 AVENUE,2271-2273 7 AVENUE,AKA ADAM CLAYTON POWELL JR BLVD,10030,2126907807,"2271 2273 7 AVENUE
NEW YORK, NY 10030
(40.81843517604261, -73.94276530357587)"
SIDEWALK CAFE,1277457,Unenclosed,326,"WOW BRIGDE CAFE, LLC",,BORINQUEN PLACE,168 BORINQUEN PLACE,,11211,7183441147,"168 BORINQUEN PLACE
BROOKLYN, NY 11211
(40.710697013073116, -73.95351154404366)"
SIDEWALK CAFE,1277458,Enclosed,,UNGS FOOD SERVICES INC.,,BROADWAY,33-19 BROADWAY,,11106,7186260593,"33 19
ASTORIA, NY 11106
(40.761699790013324, -73.9316632529567)"
SIDEWALK CAFE,1277636,Unenclosed,140,THE EMERA GROUP INCORPORATED,,10 AVENUE,610 10 AVENUE,,10036,2129699100,"610 10 AVENUE
NEW YORK, NY 10036
(40.76083084269985, -73.9945607529402)"
SIDEWALK CAFE,1277645,Unenclosed,233,THINK BLEECKER LLC,,BLEECKER STREET,1 BLEECKER STREET,,10012,9176922571,"1 BLEECKER STREET
NEW YORK, NY 10012
(40.72530600077374, -73.99249983978359)"
SIDEWALK CAFE,1277648,Unenclosed,134,RESTO-LEON INC.,,EAST   12 STREET,351 EAST   12 STREET,,10003,2124960163,"351 12 STREET
NEW YORK, NY 10003
(40.73055705599047, -73.98472657479395)"
SIDEWALK CAFE,1277655,Unenclosed,320,AVENTURA RESTAURANT LLC,VAMOS,1 AVENUE,348 1 AVENUE,,10010,2127273565,"348 1 AVENUE
NEW YORK, NY 10010
(40.735210902654, -73.9797707496729)"
SIDEWALK CAFE,1277773,Unenclosed,269,MEM REST CORP.,,EAST TREMONT AVENUE,4029 EAST TREMONT AVENUE,,10465,9175603156,"4029 TREMONT AVENUE
BRONX, NY 10465
(40.81967424381293, -73.8175671914152)"
SIDEWALK CAFE,1277774,Unenclosed,219,LITTLE SIAM CORP,,9 AVENUE,658 9 AVENUE,,10036,2129560639,"658 9 AVENUE
NEW YORK, NY 10036
(40.760865193812265, -73.99086307369026)"
SIDEWALK CAFE,1277777,Unenclosed,324,IANO CORP,,AMSTERDAM AVENUE,718 AMSTERDAM AVENUE,,10025,9172253271,"718 AMSTERDAM AVENUE
NEW YORK, NY 10025
(40.79326776652795, -73.97094309074129)"
SIDEWALK CAFE,1277778,Unenclosed,171,PQ UPPER WEST INC,,BROADWAY,2463 BROADWAY,,10025,2123599000,"2463 BROADWAY
NEW YORK, NY 10025
(40.791693952976686, -73.97407273140323)"
SIDEWALK CAFE,1277779,Unenclosed,285,GRAMERCY THAI. INC,,2 AVENUE,311 2 AVENUE,,10003,2125299819,"311 2 AVENUE
NEW YORK, NY 10003
(40.734973712588726, -73.98302997881507)"
SIDEWALK CAFE,1277785,Unenclosed,200,IL MELOGRANO LLC,,WEST   51 STREET,501 WEST   51 STREET,,10019,2127579290,"501 51 STREET
NEW YORK, NY 10019
(40.76565346040128, -73.9920584053583)"
SIDEWALK CAFE,1277859,Unenclosed,163,C & O COFFEE SHOP INC.,,8 AVENUE,28 8 AVENUE,,10014,2127419266,"28 8 AVENUE
NEW YORK, NY 10014
(40.737734739942766, -74.00455564743774)"
SIDEWALK CAFE,1277876,Unenclosed,455,"LA SCALA RESTAURANT, LLC",,9 AVENUE,630 9 AVENUE,,10036,21233323,"630 9 AVENUE
NEW YORK, NY 10036
(40.75999274901747, -73.99144337685128)"
SIDEWALK CAFE,1277928,Unenclosed,129,SO-TAUN ENTERPRISES LLC,WAVE THAI,31 STREET,21-37 31 STREET,,11105,7187776789,"21 37 31 STREET
QUEENS, NY 11105
(40.780092072491186, -73.90960650023976)"
SIDEWALK CAFE,1277937,Unenclosed,115,"SKIBEREEN BAR, INC",THE KINSALE TAVERN,3 AVENUE,1672 3 AVENUE,,10128,9177579484,"1672 3 AVENUE
NEW YORK, NY 10128
(40.78367200047529, -73.9504475416935)"
SIDEWALK CAFE,1277938,Unenclosed,137,RAM EATS LLC,BLOCKHEADS BURRITOS,AMSTERDAM AVENUE,951 AMSTERDAM AVENUE,,10025,2126628226,"951 AMSTERDAM AVENUE
NEW YORK, NY 10025
(40.8008850241161, -73.96540326704081)"
SIDEWALK CAFE,1277942,Unenclosed,212,MOSSO CORP,,SPRING STREET,300 SPRING STREET,,10013,3472560553,"300 SPRING STREET
NEW YORK, NY 10013
(40.72584634094918, -74.00799522738427)"
SIDEWALK CAFE,1277957,Unenclosed,361,"259 FIFTH AVENUE, LLC",A.O.C. BISTRO,5 AVENUE,259 5 AVENUE,,11215,2126759472,"259 5 AVENUE
BROOKLYN, NY 11215
(40.67457828006279, -73.98174694372021)"
SIDEWALK CAFE,1278036,Unenclosed,405,84 E. 4TH STREET RESTAURANT INC.,BELCOURT,EAST    4 STREET,84 EAST    4 STREET,,10003,9179571085,"84 4 STREET
NEW YORK, NY 10003
(40.72642930441347, -73.9900901486792)"
SIDEWALK CAFE,1278108,Unenclosed,62,"JL MEGRE CO., INC.",,MONTAGUE STREET,120 MONTAGUE STREET,,11201,5164822999,"120 MONTAGUE STREET
BROOKLYN, NY 11201
(40.694840078771755, -73.99457695476072)"
SIDEWALK CAFE,1278271,Unenclosed,136,211 AVE A RESTAURANT INC.,SHOOLBRED'S,2 AVENUE,197 2 AVENUE,,10003,9179693440,"197 2 AVENUE
NEW YORK, NY 10003
(40.7312505193874, -73.98574593134356)"
SIDEWALK CAFE,1278297,Unenclosed,125,"PARK SLOPE MP COMPANY, INC",,7 AVENUE,160 7 AVENUE,,11215,7187889500,"160 7 AVENUE
BROOKLYN, NY 11215
(40.67215253186191, -73.97722784942239)"
SIDEWALK CAFE,1278350,Unenclosed,400,KATOUNA INC,,BROADWAY,2479 BROADWAY,,10025,2127216130,"2479 BROADWAY
NEW YORK, NY 10025
(40.79222973254499, -73.97373553483112)"
SIDEWALK CAFE,1278581,Unenclosed,309,CUCINA ROMANA INC,,5 AVENUE,1429 5 AVENUE,,10035,9172573808,"1429 5 AVENUE
NEW YORK, NY 10035
(40.80102232217333, -73.94615494284069)"
SIDEWALK CAFE,1278586,Unenclosed,164,PICK A BAGEL ON SECOND INC,,2 AVENUE,1473 2 AVENUE,,10075,9176744800,"1473 2 AVENUE
NEW YORK, NY 10075
(40.77178044045646, -73.95621577291307)"
SIDEWALK CAFE,1278587,Enclosed,501,C & V 77 ENTERPRISES LLC,,1 AVENUE,1475-77 1 AVENUE,,10075,2129884163,"1475 77 1 AVENUE
NEW YORK, NY 10075
(40.77293949176419, -73.95609016263086)"
SIDEWALK CAFE,1278803,Unenclosed,206,BAR STUZZICHINI,,BROADWAY,928 BROADWAY,,10010,2127805100,"928 BROADWAY
NEW YORK, NY 10010
(40.740027902393365, -73.98954107030721)"
SIDEWALK CAFE,1279364,Unenclosed,101,SETTEBELLO LLC,,EAST   11 STREET,647 EAST   11 STREET,,10009,2127773355,"647 11 STREET
NEW YORK, NY 10009
(40.72723368581388, -73.9788525278906)"
SIDEWALK CAFE,1279546,Unenclosed,96,"FGNY 496 LAGUARDIA, LLC",,LAGUARDIA PLACE,496 LAGUARDIA PLACE,,10012,2125055861,"496 LAGUARDIA PLACE
NEW YORK, NY 10012
(40.72736544822084, -73.99955052449332)"
SIDEWALK CAFE,1279573,Unenclosed,148,"HALF PINT ON THOMPSON, LLC",,THOMPSON STREET,234 THOMPSON STREET,,10012,2122601088,"234 THOMPSON STREET
NEW YORK, NY 10012
(40.72956666855572, -73.99865476402994)"
SIDEWALK CAFE,1279584,Unenclosed,145,PRISHTINA REST. CORP,,ARTHUR AVENUE,2325 ARTHUR AVENUE,,10458,7182204254,"2325 ARTHUR AVENUE
BRONX, NY 10458
(40.85386741785641, -73.88905133306511)"
SIDEWALK CAFE,1279912,Unenclosed,128,WATER MOON AT NYC INC.,,COLUMBUS AVENUE,467 COLUMBUS AVENUE,,10024,9173763416,"467 COLUMBUS AVENUE
NEW YORK, NY 10024
(40.78418461403203, -73.97385689411624)"
SIDEWALK CAFE,1280168,Unenclosed,212,2888 BROADWAY LLC,,BROADWAY,2888 BROADWAY,,10025,2123623004,"2888 BROADWAY
NEW YORK, NY 10025
(40.80567746451814, -73.96543086625722)"
SIDEWALK CAFE,1280169,Unenclosed,264,S.A.V. ASSOCIATES INC.,,BROADWAY,2637 BROADWAY,,10025,2126651141,"2637 BROADWAY
NEW YORK, NY 10025
(40.79712585803367, -73.97010672125401)"
SIDEWALK CAFE,1280217,Unenclosed,112,CALOUNE CORP.,TOURNESOL RESTAURANT,VERNON BOULEVARD,50-12 VERNON BOULEVARD,,11101,7184724355,"50 12 VERNON BOULEVARD
QUEENS, NY 11101
(40.74570244980828, -73.93866902925225)"
SIDEWALK CAFE,1280485,Unenclosed,453,G.V.S BAKERY INC,,DITMARS BOULEVARD,36-21 DITMARS BOULEVARD,,11105,7187266969,"36 21 DITMARS BOULEVARD
QUEENS, NY 11105
(40.780092072491186, -73.90960650023976)"
SIDEWALK CAFE,1280572,Enclosed,461,74 SEVENTH LLC,,BARROW STREET,37 BARROW STREET,,10014,2129806363,"37 BARROW STREET
NEW YORK, NY 10014
(40.73220027136173, -74.00372174978025)"
SIDEWALK CAFE,1280649,Unenclosed,87,PEARLSTONE BURGER CORPORATION,,PEARL STREET,77 PEARL STREET,,10004,2122699100,"77 PEARL STREET
NEW YORK, NY 10004
(40.703871489045376, -74.01045410227373)"
SIDEWALK CAFE,1280660,Unenclosed,131,"TWO BIKES, LLC",LITTLE GIANT FOOD & DRINK,ORCHARD STREET,85 ORCHARD STREET,,10002,2122265047,"85 ORCHARD STREET
NEW YORK, NY 10002
(40.71794172706875, -73.9903561418569)"
SIDEWALK CAFE,1280757,Enclosed,312,MTLC CORPORATION,,41 STREET,47-57 41 STREET,,11104,7187844651,"47 57 41 STREET
SUNNYSIDE, NY 11104
(40.74489336663561, -73.92054134530679)"
SIDEWALK CAFE,1281025,Unenclosed,311,RESTAURANT 101 INC.,,DYCKMAN STREET,101B DYCKMAN STREET,,10040,2125672288,"101B DYCKMAN STREET
NEW YORK, NY 10040
(40.861868050922965, -73.92492478250199)"
SIDEWALK CAFE,1281431,Unenclosed,185,BEN TAS CORP,OTHELLO DELI,24 AVENUE,26-19 24 AVENUE,,11102,7189561337,"26 19 24 AVENUE
QUEENS, NY 11102
(40.77152402451418, -73.92643545073543)"
SIDEWALK CAFE,1281748,Unenclosed,400,316 BOWERY LLC,,BOWERY,316 BOWERY,,10012,2123437017,"316 BOWERY
NEW YORK, NY 10012
(40.7251441228085, -73.99231098215745)"
SIDEWALK CAFE,1281789,Unenclosed,142,SAMALITAS OF CALIFORNIA II LLC,,1 AVENUE,1681 1 AVENUE,,10128,2127375070,"1681 1 AVENUE
NEW YORK, NY 10128
(40.77780784574763, -73.94872060858418)"
SIDEWALK CAFE,1281798,Unenclosed,196,"BELSTAR ICE CREAM CO, LLC",,BROADWAY,34-20 BROADWAY,,11106,5163010943,"34 20
ASTORIA, NY 11106
(40.761699790013324, -73.9316632529567)"
SIDEWALK CAFE,1281981,Unenclosed,54,RAYNICK CORP,,ALLEN STREET,205 ALLEN STREET,,10002,2122898226,"205 ALLEN STREET
NEW YORK, NY 10002
(40.72269025539324, -73.98889809597169)"
SIDEWALK CAFE,1282036,Unenclosed,201,14TH STREET BELLA PIZZA CORP,,FIRST AVENUE,232 FIRST AVENUE,,10009,2122283869,"232 FIRST AVENUE
NEW YORK, NY 10009
(40.73123592147614, -73.98260952353425)"
SIDEWALK CAFE,1282220,Enclosed,370,GEISHA NYC LLC,,EAST   18 STREET,111 EAST   18 STREET,,10003,2125574445,"111 18 STREET
NEW YORK, NY 10003
(40.736866410066625, -73.98786156869676)"
SIDEWALK CAFE,1282359,Unenclosed,287,"TIRAMISU RESTAURANT, LLC",,THIRD AVENUE,1410 THIRD AVENUE,,10028,2129889780,"1410 THIRD AVENUE
NEW YORK, NY 10028
(40.77508347509553, -73.95668883657686)"
SIDEWALK CAFE,1282383,Unenclosed,135,149 BROADWAY RESTAURANT LLC,,BROADWAY,149 BROADWAY,,11211,7183846343,"149 BROADWAY
BROOKLYN, NY 11211
(40.71032129608832, -73.96334593130084)"
SIDEWALK CAFE,1282391,Unenclosed,288,"DUMONT BURGER, LLC",,BEDFORD AVENUE,314 BEDFORD AVENUE,,11211,7183846128,"314 BEDFORD AVENUE
BROOKLYN, NY 11211
(40.71366773434968, -73.96187537357426)"
SIDEWALK CAFE,1282473,Unenclosed,520,DINOSAUR RESTAURANTS LLC,,12 AVENUE,2293 12 AVENUE,AKA 646 WEST 131 STREET,10027,2126941777,"2293 12 AVENUE
NEW YORK, NY 10027
(40.82001881984105, -73.9588646445019)"
SIDEWALK CAFE,1282506,Enclosed,431,SHAKE SHACK 366 COLUMBUS LLC,,COLUMBUS AVENUE,366 COLUMBUS AVENUE,,10024,2122271771,"366 COLUMBUS AVENUE
NEW YORK, NY 10024
(40.78096513726777, -73.97623556586913)"
SIDEWALK CAFE,1282650,Unenclosed,149,MEATH TRAILS INC.,,SECOND AVENUE,61 SECOND AVENUE,,10003,2123880662,"61 SECOND AVENUE
NEW YORK, NY 10003
(40.72589955331307, -73.98963999573044)"
SIDEWALK CAFE,1282674,Unenclosed,30,JZ FOOD & WINE LLC,,8 AVENUE,47 8 AVENUE,,10014,2122553900,"47 8 AVENUE
NEW YORK, NY 10014
(40.7384185780008, -74.00388621719124)"
SIDEWALK CAFE,1282774,Unenclosed,146,201 REST. 95TH STREET CORP.,,W 95TH ST,201 W 95TH ST,,10025,6462496822,"201 95TH ST
NEW YORK, NY 10025
(40.793425325175214, -73.97088392680055)"
SIDEWALK CAFE,1282833,Unenclosed,417,FIASCO GROUP LLC,,3 AVENUE,323 3 AVENUE,,10010,2126833035,"323 3 AVENUE
NEW YORK, NY 10010
(40.73961727715623, -73.98253162641004)"
SIDEWALK CAFE,1282959,Unenclosed,143,NANOOSH BROADWAY L.L.C.,,BROADWAY,2012 BROADWAY,,10023,2123627922,"2012 BROADWAY
NEW YORK, NY 10023
(40.775865885261, -73.98203173136255)"
SIDEWALK CAFE,1282969,Unenclosed,290,"64 WEST RESTAURANT, LLC",BAR BOULUD,BROADWAY,1900 BROADWAY,,10023,2125951313,"1900 BROADWAY
NEW YORK, NY 10023
(40.77135954602272, -73.98199663393459)"
SIDEWALK CAFE,1283230,Unenclosed,360,600 WEST 169TH REST. INC.,,BROADWAY,4015 BROADWAY,,10032,2129281234,"4015 BROADWAY
NEW YORK, NY 10032
(40.84164929981816, -73.93950144614907)"
SIDEWALK CAFE,1283503,Unenclosed,244,CGM OTA LLC,,BROADWAY,2170 BROADWAY,,10024,9175351951,"2170 BROADWAY
NEW YORK, NY 10024
(40.782143153025515, -73.98079966018241)"
SIDEWALK CAFE,1283520,Unenclosed,291,LA PERLE NOIRE CAFE AND BAKERY LLC,,LENOX AVENUE,420 LENOX AVENUE,,10037,2122341777,"420 LENOX AVENUE
NEW YORK, NY 10037
(40.81165890202715, -73.94256948071688)"
SIDEWALK CAFE,1283546,Unenclosed,,"DA ECIB USA, INC.",BICE RISTORANTE,EAST   54 STREET,7 EAST   54 STREET,,10022,2126881999,"7 54 STREET
NEW YORK, NY 10022
(40.76090170046884, -73.97496553851606)"
SIDEWALK CAFE,1283551,Unenclosed,91,"KEBAB GARDEN, INC.",,FIRST AVENUE,128 FIRST AVENUE,,10009,2122284805,"128 FIRST AVENUE
NEW YORK, NY 10009
(40.727356455000574, -73.98548512795509)"
SIDEWALK CAFE,1283635,Unenclosed,120,"JPS VENTURES, INC",ST. JAMES GATE,AMSTERDAM AVENUE,441 AMSTERDAM AVENUE,,10024,2123626202,"441 AMSTERDAM AVENUE
NEW YORK, NY 10024
(40.78446926576978, -73.97731856037404)"
SIDEWALK CAFE,1283643,Enclosed,224,JPS VENTURES INC.,ST. JAMES CAFE,AMSTERDAM AVENUE,441 AMSTERDAM AVENUE,,10024,212,"441 AMSTERDAM AVENUE
NEW YORK, NY 10024
(40.78446926576978, -73.97731856037404)"
SIDEWALK CAFE,1283821,Unenclosed,63,237 BEDFORD AVENUE RESTAURANT CORP.,,BEDFORD AVENUE,237 BEDFORD AVENUE,,11211,7183025353,"237 BEDFORD AVENUE
BROOKLYN, NY 11211
(40.71593966146671, -73.95974006256843)"
SIDEWALK CAFE,1283822,Unenclosed,235,THOMPSON REST. INC,,WEST   44 STREET,358 WEST   44 STREET,,10036,2128070916,"358 44 STREET
NEW YORK, NY 10036
(40.75921332909788, -73.99052196536906)"
SIDEWALK CAFE,1283835,Unenclosed,224,LIC SEAFOOD INC.,OFF THE HOOK,36 AVENUE,32-10 36 AVENUE,,11106,7187866015,"32 10 36 AVENUE
QUEENS, NY 11106
(40.761699790013324, -73.9316632529567)"
SIDEWALK CAFE,1284013,Unenclosed,412,KALAMAKI TAVERNA INC,,23 AVENUE,28-13 23 AVENUE,,11105,7187289056,"28 13 23 AVENUE
ASTORIA, NY 11105
(40.780092072491186, -73.90960650023976)"
SIDEWALK CAFE,1284057,Unenclosed,204,"MICKEY'S PLACE ON 43RD ST., LTD",BAR 43,43 STREET,43-06 43 STREET,,11104,7183613090,"43 06 43 STREET
SUNNYSIDE, NY 11104
(40.74489336663561, -73.92054134530679)"
SIDEWALK CAFE,1284842,Unenclosed,183,IL GALLO CEDRONE LTD,,HAVEMEYER STREET,116 HAVEMEYER STREET,,11211,6468724085,"116 HAVEMEYER STREET
BROOKLYN, NY 11211
(40.712782974585025, -73.95683496327754)"
SIDEWALK CAFE,1285032,Unenclosed,146,265 PASTRY LLC,,LAFAYETTE STREET,265 LAFAYETTE STREET,,10012,6465102143,"265 LAFAYETTE STREET
NEW YORK, NY 10012
(40.72349868289508, -73.99655890532276)"
SIDEWALK CAFE,1285644,Unenclosed,251,LM RESTAURANT GROUP LLC,,EAST   15 STREET,120 EAST   15 STREET,,10003,9176706632,"120 15 STREET
NEW YORK, NY 10003
(40.73463761939186, -73.98834760821919)"
SIDEWALK CAFE,1285652,Unenclosed,338,ARDIAN CORP,,DITMARS BOULEVARD,33-07 DITMARS BOULEVARD,,11105,7185458666,"33 07 DITMARS BOULEVARD
QUEENS, NY 11105
(40.780092072491186, -73.90960650023976)"
SIDEWALK CAFE,1285670,Enclosed,497,NEW KO-SUSHI JAPANESE RESTAURANT INC,,2 AVENUE,1329 2 AVENUE,,10021,2124391678,"1329 2 AVENUE
NEW YORK, NY 10021
(40.76769104801468, -73.95916197215746)"
SIDEWALK CAFE,1285810,Unenclosed,401,LOKAL RESTAURANT CORP,,LORIMER STREET,905 LORIMER STREET,,11222,7185997007,"905 LORIMER STREET
BROOKLYN, NY 11222
(40.723528223958596, -73.95171405895464)"
SIDEWALK CAFE,1286005,Unenclosed,158,CARAPINA LLC,,BLEECKER STREET,233 BLEECKER STREET,,10014,9175828684,"233 BLEECKER STREET
NEW YORK, NY 10014
(40.73018212806163, -74.00235247131118)"
SIDEWALK CAFE,1286845,Unenclosed,208,SL & H BAGEL INC.,,2 AVENUE,1228 2 AVENUE,,10065,2129440956,"1228 2 AVENUE
NEW YORK, NY 10065
(40.76393985403218, -73.96187472537068)"
SIDEWALK CAFE,1287002,Unenclosed,222,RF RESTAURANT & FOOD CORP,CAFE ESPANOL,CARMINE STREET,78 CARMINE STREET,,10014,2126451393,"78 CARMINE STREET
NEW YORK, NY 10014
(40.72964341656718, -74.00450682523098)"
SIDEWALK CAFE,1287020,Unenclosed,347,394 CITY ISLAND AVE INC,,CITY ISLAND AVENUE,394 CITY ISLAND AVENUE,,10464,7188859885,"394 CITY ISLAND AVENUE
BRONX, NY 10464
(40.84959293365569, -73.78732638667864)"
SIDEWALK CAFE,1287121,Unenclosed,262,BROOKLYN BAR NYC INC,EAST VILLAGE TAVERN,AVENUE C,158 AVENUE C,,10009,3478376120,"158 AVENUE
NEW YORK, NY 10009
(40.72664935898081, -73.97911148500697)"
SIDEWALK CAFE,1287124,Enclosed,300,STEVEN JAY LLC,PARLOR STEAKHOUSE,THIRD AVENUE,1600 THIRD AVENUE,,10128,7183530002,"1600 THIRD AVENUE
NEW YORK, NY 10128
(40.78122584455565, -73.95221920609123)"
SIDEWALK CAFE,1287126,Unenclosed,176,BB AT 55TH & 5TH LLC,,WEST   55 STREET,60 WEST   55 STREET,,10019,6469437340,"60 55 STREET
NEW YORK, NY 10019
(40.76245620533106, -73.97685117512759)"
SIDEWALK CAFE,1287689,Unenclosed,141,3952 BWAY CORP.,,BROADWAY,3952 BROADWAY,,10032,2128575412,"3952 BROADWAY
NEW YORK, NY 10032
(40.83954207233416, -73.94071333124946)"
SIDEWALK CAFE,1287835,Unenclosed,143,NARGIS CORP,,CONEY ISLAND AVENUE,2818 CONEY ISLAND AVENUE,,11235,7188727888,"2818 CONEY ISLAND AVENUE
BROOKLYN, NY 11235
(40.58793957376009, -73.96049416751836)"
SIDEWALK CAFE,1288036,Unenclosed,81,609 EDIBLES LLC,,ARTHUR AVENUE,2410 ARTHUR AVENUE,,10458,7187339879,"2410 ARTHUR AVENUE
BRONX, NY 10458
(40.85576560657786, -73.88735316104305)"
SIDEWALK CAFE,1288706,Unenclosed,199,"GRAND SICHUAN 7 AVE., INC",,7 AVENUE SOUTH,15 7 AVENUE SOUTH,,10014,2123616091,"15 7 AVENUE
NEW YORK, NY 10014
(40.730135360071074, -74.00478457870383)"
SIDEWALK CAFE,1289076,Unenclosed,336,EU RESTAURANT LLC,,EAST    4 STREET,235 EAST    4 STREET,,10009,9178800821,"235 4 STREET
NEW YORK, NY 10009
(40.7234891166481, -73.98294048897056)"
SIDEWALK CAFE,1289202,Unenclosed,390,VERO MIDTOWN LLC,,2 AVENUE,1004 2 AVENUE,,10022,2125336700,"1004 2 AVENUE
NEW YORK, NY 10022
(40.75688119722247, -73.9670490263544)"
SIDEWALK CAFE,1289238,Unenclosed,91,ALFREDO'S COAL OVEN PIZZERIA CORP,,W 57TH ST,117 W 57TH ST,,10019,2126882762,"117 57TH ST
NEW YORK, NY 10019
(40.76474127175857, -73.97819162629742)"
SIDEWALK CAFE,1289245,Unenclosed,110,OPA-EUROPA INC,,9 AVENUE,749 9 AVENUE,,10019,9172457992,"749 9 AVENUE
NEW YORK, NY 10019
(40.76386892939013, -73.98865074149819)"
SIDEWALK CAFE,1289251,Unenclosed,147,M & M 28TH ST RESTAURANT LLC,,8 AVENUE,382 8 AVENUE,,10001,9177055119,"382 8 AVENUE
NEW YORK, NY 10001
(40.74912904132992, -73.99567444654701)"
SIDEWALK CAFE,1289261,Unenclosed,209,PASSIONE RISTORANTE LLC,,LEXINGTON AVENUE,1590 LEXINGTON AVENUE,,10029,2126432616,"1590 LEXINGTON AVENUE
NEW YORK, NY 10029
(40.78919383773524, -73.94850500611022)"
SIDEWALK CAFE,1289268,Unenclosed,106,PROGETTO INC.,,WEST   44 STREET,352 WEST   44 STREET,,10036,2123994141,"352 44 STREET
NEW YORK, NY 10036
(40.759462251446564, -73.99103394487582)"
SIDEWALK CAFE,1289619,Unenclosed,545,FUSHA JAPANESE REST. INC.,,AMSTERDAM AVENUE,311 AMSTERDAM AVENUE,,10023,2128779300,"311 AMSTERDAM AVENUE
NEW YORK, NY 10023
(40.78026133431278, -73.98038867568707)"
SIDEWALK CAFE,1290047,Unenclosed,695,WOODHAVEN BLVD REST INC,,WOODHAVEN BOULEVARD,63-98 WOODHAVEN BOULEVARD,,11374,9177716890,"63 98 WOODHAVEN BOULEVARD
REGO PARK, NY 11374
(40.72646491702238, -73.86148084756303)"
SIDEWALK CAFE,1290090,Unenclosed,211,FOOTPRINT CAFE INC.,,CLARENDON ROAD,5814 CLARENDON ROAD,,11203,7184513181,"5814 CLARENDON ROAD
BROOKLYN, NY 11203
(40.64493186623036, -73.9210202277115)"
SIDEWALK CAFE,1290477,Unenclosed,150,"4 RUNNERS, INC",,WEST   14 STREET,310 WEST   14 STREET,,10014,2124638626,"310 14 STREET
NEW YORK, NY 10014
(40.739860181491736, -74.00282844758836)"
SIDEWALK CAFE,1290541,Unenclosed,330,"LONG ISLAND CITY APPLE, LLC",,35 AVENUE,38-01 35 AVENUE,,11101,9147772331,"38 01 35 AVENUE
QUEENS, NY 11101
(40.74570244980828, -73.93866902925225)"
SIDEWALK CAFE,1292173,Unenclosed,297,WILLIAMSBURGER LLC,,WYTHE AVENUE,342 WYTHE AVENUE,,11211,6463186359,"342 WYTHE AVENUE
BROOKLYN, NY 11211
(40.71447172219791, -73.96509507653262)"
SIDEWALK CAFE,1292343,Unenclosed,175,ALFIE COMPANY LLC,,1 AVENUE,1712 1 AVENUE,,10128,2129879260,"1712 1 AVENUE
NEW YORK, NY 10128
(40.77861760939433, -73.94803727446144)"
SIDEWALK CAFE,1292658,Enclosed,189,PRY RESTAURANT CORP,,YORK AVENUE,1479 YORK AVENUE,,10075,9179710027,"1479 YORK AVENUE
NEW YORK, NY 10075
(40.77091062087953, -73.95078928406468)"
SIDEWALK CAFE,1292862,Unenclosed,652,NEW YORK STEAK HOUSE LLC,,EMMONS AVENUE,2007 EMMONS AVENUE,,11235,7184408080,"2007 EMMONS AVENUE
BROOKLYN, NY 11235
(40.583752258531696, -73.94836552882961)"
SIDEWALK CAFE,1293466,Unenclosed,230,"LEXINGTON AVENUE BBQ, LLC",,LEXINGTON AVENUE,181 LEXINGTON AVENUE,,10016,2128606466,"181 LEXINGTON AVENUE
NEW YORK, NY 10016
(40.74455166608659, -73.9810192005436)"
SIDEWALK CAFE,1295792,Unenclosed,154,"CHERRY CAFE & RESTAURANT, INC.",,BROADWAY,34-02 BROADWAY,,11106,7186061452,"34 02
ASTORIA, NY 11106
(40.761699790013324, -73.9316632529567)"
SIDEWALK CAFE,1295832,Unenclosed,467,TJ 104 RESTAURANT CORP.,,YORK AVENUE,1737 YORK AVENUE,,10128,2128609191,"1737 YORK AVENUE
NEW YORK, NY 10128
(40.779213014940176, -73.94478203963416)"
SIDEWALK CAFE,1297821,Enclosed,252,3RD AVE 26 REST. CORP.,,3 AVENUE,359 3 AVENUE,,10016,6465260252,"359 3 AVENUE
NEW YORK, NY 10016
(40.740815433312136, -73.98165618876195)"
SIDEWALK CAFE,1298434,Unenclosed,60,SUSHI VIDA INC.,,DYCKMAN STREET,237 DYCKMAN STREET,,10034,2123041217,"237 DYCKMAN STREET
NEW YORK, NY 10034
(40.86612787909837, -73.92792516579355)"
SIDEWALK CAFE,1298516,Unenclosed,190,THE SHOREHAM LLC,,WEST   55 STREET,39 WEST   55 STREET,,10019,2129578300,"39 55 STREET
NEW YORK, NY 10019
(40.7623940412621, -73.97663579918674)"
SIDEWALK CAFE,1299204,Unenclosed,69,CAVATAPPO WINE BAR LLC,,3 AVENUE,347 3 AVENUE,,10010,9174970071,"347 3 AVENUE
NEW YORK, NY 10010
(40.74036808869556, -73.98198139101744)"
SIDEWALK CAFE,1299328,Unenclosed,363,179 THIRD AVENUE REST. INC,,THIRD AVENUE,179 THIRD AVENUE,200 EAST 17 STREET,10003,2124776066,"179 THIRD AVENUE
NEW YORK, NY 10003
(40.735045658351055, -73.98589881608854)"
SIDEWALK CAFE,1299566,Unenclosed,262,POINT 31 INC.,,31 AVENUE,38-01 31 AVENUE,,11103,9176130783,"38 01 31 AVENUE
QUEENS, NY 11103
(40.76286893025696, -73.91327185810974)"
SIDEWALK CAFE,1301309,Enclosed,735,RED BAMBOO ON 7TH AVENUE INC,,7 AVENUE SOUTH,47-49 7 AVENUE SOUTH,,10014,2122552848,"47 49 7 AVENUE
NEW YORK, NY 10014
(40.73358645135369, -74.01019960472792)"
SIDEWALK CAFE,1301635,Unenclosed,61,BONARUE BLEU INDUSTRIES INC,,SULLIVAN STREET,185 SULLIVAN STREET,,10012,2126776830,"185 SULLIVAN STREET
NEW YORK, NY 10012
(40.728274955168224, -74.00082275861485)"
SIDEWALK CAFE,1301753,Unenclosed,725,SCUDERIA GALLO LLC,,DOWNING STREET,10 DOWNING STREET,257-263  6 AVENUE,10014,9178154244,"10 DOWNING STREET
NEW YORK, NY 10014
(40.72955979397233, -74.00295895498436)"
SIDEWALK CAFE,1301779,Enclosed,,"FRESCO BAGEL, LLC",,1 AVENUE,1239 1 AVENUE,,10065,2125359030,"1239 1 AVENUE
NEW YORK, NY 10065
(40.76454397407157, -73.95840995999819)"
SIDEWALK CAFE,1301969,Enclosed,,"JAVIER AND DAVID RESTAURANT, CORP.",,ST NICHOLAS AVENUE,1618 ST NICHOLAS AVENUE,,10040,2127811880,"1618 ST NICHOLAS AVENUE
NEW YORK, NY 10040
(40.85552217772791, -73.92915232345905)"
SIDEWALK CAFE,1304190,Unenclosed,261,CAFE LA NUEVA BAKERY INC,,37 AVENUE,85-02 37 AVENUE,,11372,7185053700,"85 02 37 AVENUE
JACKSON HEIGHTS, NY 11372
(40.75163073936716, -73.88361254528269)"
SIDEWALK CAFE,1305277,Unenclosed,77,GROOVE ENTERPRISES INC,,MACDOUGAL STREET,125 MACDOUGAL STREET,,10012,9177319367,"125 MACDOUGAL STREET
NEW YORK, NY 10012
(40.730513075323415, -74.00003615838915)"
SIDEWALK CAFE,1305461,Unenclosed,205,"MMR VENTURES, LLC",,CENTRAL PARK SOUTH,42 CENTRAL PARK SOUTH,,10019,2126887777,"42 CENTRAL PARK
NEW YORK, NY 10019
(40.76484909172368, -73.97430752550486)"
SIDEWALK CAFE,1305734,Enclosed,412,POLLOS MARIO WOODHAVEN CORP.,,WOODHAVEN BOULEVARD,63-20 WOODHAVEN BOULEVARD,,11374,7188565883,"63 20 WOODHAVEN BOULEVARD
REGO PARK, NY 11374
(40.72646491702238, -73.86148084756303)"
SIDEWALK CAFE,1305870,Unenclosed,390,FIFTH & 5TH LLC,,FIFTH STREET,330 FIFTH STREET,,11215,7188329777,"330 FIFTH STREET
BROOKLYN, NY 11215
(40.671654669526156, -73.98449111295082)"
SIDEWALK CAFE,1306814,Unenclosed,308,"STEVEN JAY, LLC",,3 AVENUE,1600 3 AVENUE,,10128,914476588,"1600 3 AVENUE
NEW YORK, NY 10128
(40.78122584455565, -73.95221920609123)"
SIDEWALK CAFE,1307585,Unenclosed,168,GAT 35 CORP.,,WEST   13 STREET,35 WEST   13 STREET,,10011,2123671979,"35 13 STREET
NEW YORK, NY 10011
(40.73581734527472, -73.99524961992947)"
SIDEWALK CAFE,1307588,Unenclosed,168,480 REST AMSTERDAM INC.,,AMSTERDAM AVENUE,480 AMSTERDAM AVENUE,,10024,2125794299,"480 AMSTERDAM AVENUE
NEW YORK, NY 10024
(40.785821380125356, -73.97638398901853)"
SIDEWALK CAFE,1307658,Unenclosed,206,802 RESTAURANT CORP,,9 AVENUE,802 9 AVENUE,,10019,9144692932,"802 9 AVENUE
NEW YORK, NY 10019
(40.76553267514436, -73.98744564997895)"
SIDEWALK CAFE,1307957,Unenclosed,170,BEST BOAT SEAFOOD RESTAURANT INC,,AMSTERDAM AVENUE,722 AMSTERDAM AVENUE,,10025,9175958472,"722 AMSTERDAM AVENUE
NEW YORK, NY 10025
(40.79355554957732, -73.97073624667456)"
SIDEWALK CAFE,1308014,Unenclosed,246,"TAPAS FOOD AND WINE, INC.",,BROADWAY,2020 BROADWAY,,10023,2125952805,"2020 BROADWAY
NEW YORK, NY 10023
(40.77639648525826, -73.98200475170165)"
SIDEWALK CAFE,1308287,Unenclosed,99,247 CAFE INC.,,DEKALB AVENUE,247 DEKALB AVENUE,,11205,6314248480,"247 DEKALB AVENUE
BROOKLYN, NY 11205
(40.68950142978864, -73.96924544953329)"
SIDEWALK CAFE,1308502,Unenclosed,290,NEW ORGANICO INC.,,7 AVENUE SOUTH,89 7 AVENUE SOUTH,,10014,6462216545,"89 7 AVENUE
NEW YORK, NY 10014
(40.73258788751083, -74.00335465583623)"
SIDEWALK CAFE,1308512,Unenclosed,233,ASB PIZZERIA INC,,3 AVENUE,1658-1660 3 AVENUE,,10128,2124106787,"1658 1660 3 AVENUE
NEW YORK, NY 10128
(40.781770000585084, -73.95062814906976)"
SIDEWALK CAFE,1308519,Unenclosed,190,"STINKY VINE, LLC",,SMITH STREET,282 SMITH STREET,,11231,7188751500,"282 SMITH STREET
BROOKLYN, NY 11231
(40.68225820909279, -73.99351612761077)"
SIDEWALK CAFE,1308601,Unenclosed,170,MANNA 2ND AVENUE LLC,,2 AVENUE,1575 2 AVENUE,,10028,9179028947,"1575 2 AVENUE
NEW YORK, NY 10028
(40.775101448706614, -73.9537998121268)"
SIDEWALK CAFE,1308836,Unenclosed,350,J.T. CULINARY LLC,,AMSTERDAM AVENUE,1187 AMSTERDAM AVENUE,,10027,2126667042,"1187 AMSTERDAM AVENUE
NEW YORK, NY 10027
(40.80847865003568, -73.95980926000668)"
SIDEWALK CAFE,1308999,Unenclosed,162,DESMO 916 CORP.,LAVAGNA,EAST    5 STREET,545 EAST    5 STREET,,10009,2129791005,"545 5 STREET
NEW YORK, NY 10009
(40.72443304671631, -73.98333036566906)"
SIDEWALK CAFE,1309076,Unenclosed,319,18 BEDFORD AVE LLC,,BEDFORD AVENUE,18 BEDFORD AVENUE,,11222,6465106467,"18 BEDFORD AVENUE
BROOKLYN, NY 11222
(40.72329009296456, -73.95189214025116)"
SIDEWALK CAFE,1309290,Unenclosed,850,"ABG STANDARD OPERATOR, LLC",,WASHINGTON STREET,848 WASHINGTON STREET,,10014,2125131988,"848 WASHINGTON STREET
NEW YORK, NY 10014
(40.74065773513024, -74.0077319902028)"
SIDEWALK CAFE,1309505,Unenclosed,199,2005 MAMBO SUSHI CORP,,EMMONS AVENUE,2005 EMMONS AVENUE,,11235,7186463100,"2005 EMMONS AVENUE
BROOKLYN, NY 11235
(40.58374972244357, -73.94838750826)"
SIDEWALK CAFE,1309603,Unenclosed,275,CHOW DOWN INC,,NINTH AVENUE,824 NINTH AVENUE,,10019,212765,"824 NINTH AVENUE
NEW YORK, NY 10019
(40.766117234463366, -73.98702296862518)"
SIDEWALK CAFE,1309731,Unenclosed,275,Q & P PIZZA INC,,STEINWAY STREET,28-01 STEINWAY STREET,,11103,7182744870,"28 01 STEINWAY STREET
QUEENS, NY 11103
(40.76286893025696, -73.91327185810974)"
SIDEWALK CAFE,1309926,Unenclosed,202,ELORA SPANISH MEXICAN RESTAURANT INC.,,PROSPECT PARK WEST,272 PROSPECT PARK WEST,,11215,9176555524,"272 PROSPECT PARK
BROOKLYN, NY 11215
(40.6634630509197, -73.98947567161177)"
SIDEWALK CAFE,1309948,Unenclosed,122,"ZORROR ASIAN, INC.",,MONTAGUE STREET,118 MONTAGUE STREET,,11201,7188558688,"118 MONTAGUE STREET
BROOKLYN, NY 11201
(40.694860367476736, -73.99465007863492)"
SIDEWALK CAFE,1309963,Unenclosed,254,46-02 SKILLMAN CAFE LLC,,SKILLMAN AVENUE,46-02 SKILLMAN AVENUE,,11104,7187911501,"46 02 SKILLMAN AVENUE
SUNNYSIDE, NY 11104
(40.74489336663561, -73.92054134530679)"
SIDEWALK CAFE,1310081,Unenclosed,169,JTN RIVIERA CORP,,FIRST AVENUE,1113 FIRST AVENUE,,10065,2122236220,"1113 FIRST AVENUE
NEW YORK, NY 10065
(40.760964119235496, -73.96098759587693)"
SIDEWALK CAFE,1310240,Unenclosed,108,401 W 50 TAVERN INC.,,WEST   50 STREET,401 WEST   50 STREET,10019,10019,2129699703,"401 50 STREET
NEW YORK, NY 10019
(40.763519230129276, -73.98892207333665)"
SIDEWALK CAFE,1310255,Unenclosed,224,1702 RATHBONES INC.,,2 AVENUE,1702 2 AVENUE,,10128,2122087272,"1702 2 AVENUE
NEW YORK, NY 10128
(40.77937324117528, -73.95064539253997)"
SIDEWALK CAFE,1310316,Unenclosed,84,"NAHM, INC.",,NINTH AVENUE,690 NINTH AVENUE,,10036,6463318738,"690 NINTH AVENUE
NEW YORK, NY 10036
(40.761935387027165, -73.9900806635248)"
SIDEWALK CAFE,1310342,Unenclosed,208,CAFE STEINHOF INC.,,SEVENTH AVENUE,422 SEVENTH AVENUE,,11215,7183893189,"422 SEVENTH AVENUE
BROOKLYN, NY 11215
(40.6639240533837, -73.98409759690072)"
SIDEWALK CAFE,1310522,Unenclosed,306,PESCATORE 15 INC,,2 AVENUE,955-957 2 AVENUE,,10022,2127527151,"955 957 2 AVENUE
NEW YORK, NY 10022
(40.758630224005685, -73.96809182217982)"
SIDEWALK CAFE,1310867,Unenclosed,207,IL PORTO LLC,,WASHINGTON AVENUE,37 WASHINGTON AVENUE,,11205,9177969441,"37 WASHINGTON AVENUE
BROOKLYN, NY 11205
(40.69751959566193, -73.96768002229076)"
SIDEWALK CAFE,1310868,Unenclosed,88,ALI BABA'S TERRACE,,2 AVENUE,862 2 AVENUE,,10017,2128888622,"862 2 AVENUE
NEW YORK, NY 10017
(40.752334394282, -73.9703231501742)"
SIDEWALK CAFE,1310960,Unenclosed,56,BELCANTATA REST. INC,,3 AVENUE,922 3 AVENUE,,10022,2128322021,"922 3 AVENUE
NEW YORK, NY 10022
(40.759309366701586, -73.9682271382128)"
SIDEWALK CAFE,1310982,Unenclosed,342,SEAN OG ENTERPRISES LLC,,WOODSIDE AVENUE,60-02 WOODSIDE AVENUE,,11377,7188993499,"60 02 WOODSIDE AVENUE
QUEENS, NY 11377
(40.74519376448069, -73.9048471440804)"
SIDEWALK CAFE,1310995,Unenclosed,275,GLOBAL ENTERTAINMENT GROUP LLC,,QUEENS BOULEVARD,77-17 QUEENS BOULEVARD,,11373,7186519009,"77 17 QUEENS BOULEVARD
ELMHURST, NY 11373
(40.73871040256307, -73.87835115518163)"
SIDEWALK CAFE,1311123,Unenclosed,208,MAZ MEZCAL INC.,,EAST   86 STREET,316 EAST   86 STREET,,10028,6314248480,"316 86 STREET
NEW YORK, NY 10028
(40.77767048775498, -73.95131496301332)"
SIDEWALK CAFE,1311161,Unenclosed,315,"SABOR LATINO I,CORP",,40 ROAD,95-35 40 ROAD,,11373,7184573966,"95 35 40 ROAD
QUEENS, NY 11373
(40.73871040256307, -73.87835115518163)"
SIDEWALK CAFE,1311304,Unenclosed,144,IFETA CORP,,31 AVENUE,41-15 31 AVENUE,,11103,7187771355,"41 15 31 AVENUE
ASTORIA, NY 11103
(40.76286893025696, -73.91327185810974)"
SIDEWALK CAFE,1311307,Unenclosed,68,ANAGAP RESTAURANT INC.,,2 AVENUE,531 2 AVENUE,,10016,2127259440,"531 2 AVENUE
NEW YORK, NY 10016
(40.741988424417286, -73.97791283646836)"
SIDEWALK CAFE,1311319,Unenclosed,98,PASTA BISTRO GRILL INC.,,MACDOUGAL STREET,93 MACDOUGAL STREET,,10012,2122605679,"93 MACDOUGAL STREET
NEW YORK, NY 10012
(40.7292744334016, -74.00113673524248)"
SIDEWALK CAFE,1312021,Unenclosed,35,LX AVENUE BAGELS INC.,TAI BAGELS,LEXINGTON AVENUE,1228 LEXINGTON AVENUE,,10028,9175234972,"1228 LEXINGTON AVENUE
NEW YORK, NY 10028
(40.77820047454975, -73.95655347233438)"
SIDEWALK CAFE,1312039,Unenclosed,195,CURRY MAHAL INC.,,LEXINGTON AVENUE,119 LEXINGTON AVENUE,,10016,2126856385,"119 LEXINGTON AVENUE
NEW YORK, NY 10016
(40.742743854921855, -73.98237347373367)"
SIDEWALK CAFE,1312041,Unenclosed,204,CAFE CASANO LLC,,WEST STREET,38 WEST STREET,,10280,2122677000,"38 WEST STREET
NEW YORK, NY 10280
(40.710183617614945, -74.01496191568795)"
SIDEWALK CAFE,1312044,Unenclosed,320,OSTERIA CASANO LLC,,WEST STREET,28 WEST STREET,,10280,2122678000,"28 WEST STREET
NEW YORK, NY 10280
(40.710183617614945, -74.01496191568795)"
SIDEWALK CAFE,1312498,Unenclosed,188,110 VARICK ST CORP.,,VARICK STREET,110 VARICK STREET,,10013,2129255998,"110 VARICK STREET
NEW YORK, NY 10013
(40.724412719631296, -74.00595057299304)"
SIDEWALK CAFE,1312628,Unenclosed,108,JOS HOSPITALITY GROUP LLC,,AMSTERDAM AVENUE,566 AMSTERDAM AVENUE,,10024,6462453459,"566 AMSTERDAM AVENUE
NEW YORK, NY 10024
(40.78862726485676, -73.97433353479175)"
SIDEWALK CAFE,1312716,Unenclosed,184,KANG YUE USA CORP.,,70 ROAD,107-18 70 ROAD,,11375,7182633333,"107 18 70 ROAD
FOREST HILLS, NY 11375
(40.720707263029794, -73.84628429608335)"
SIDEWALK CAFE,1312717,Unenclosed,144,58 2ND REST CORP.,,2 AVENUE,58 2 AVENUE,,10003,2127772840,"58 2 AVENUE
NEW YORK, NY 10003
(40.72580062788984, -73.98971194149277)"
SIDEWALK CAFE,1313044,Unenclosed,250,BECAF LLC,,AVENUE B,33 AVENUE B,,10009,2122284461,"33 AVENUE
NEW YORK, NY 10009
(40.72664935898081, -73.97911148500697)"
SIDEWALK CAFE,1313270,Unenclosed,102,CYRIL 254 FIFTH AVENUE LLC,,5 AVENUE,254 5 AVENUE,,10001,6464582436,"254 5 AVENUE
NEW YORK, NY 10001
(40.74489323457192, -73.98713088726868)"
SIDEWALK CAFE,1313474,Unenclosed,266,"133 MULBERRY STREET RESTAURANT, LLC",,MULBERRY STREET,133 MULBERRY STREET,,10013,2129253120,"133 MULBERRY STREET
NEW YORK, NY 10013
(40.71856108555397, -73.99767993467236)"
SIDEWALK CAFE,1313701,Unenclosed,393,MOJITO CUBAN CUISINE CORP,,WASHINGTON AVENUE,82 WASHINGTON AVENUE,,11205,7187973100,"82 WASHINGTON AVENUE
BROOKLYN, NY 11205
(40.69623579585814, -73.96749247502058)"
SIDEWALK CAFE,1313851,Unenclosed,216,PAOLA'S RETAURANT GROUP LLC,,MADISON AVENUE,1295 MADISON AVENUE,,10128,2127941890,"1295 MADISON AVENUE
NEW YORK, NY 10128
(40.784547282982096, -73.95607900581763)"
SIDEWALK CAFE,1314137,Unenclosed,421,451 GRAHAM AVENUE CORP,,GRAHAM AVENUE,451 GRAHAM AVENUE,,11222,7183890839,"451 GRAHAM AVENUE
BROOKLYN, NY 11222
(40.71886377251168, -73.94515983077149)"
SIDEWALK CAFE,1314257,Unenclosed,243,662 FULTON ST RESTAURANT CORP,,FULTON STREET,662 FULTON STREET,,11217,7188526503,"662 FULTON STREET
BROOKLYN, NY 11217
(40.68671870554047, -73.97555082633563)"
SIDEWALK CAFE,1314393,Unenclosed,129,"JASPER'S PIZZA & MORE, LLC",,RIVERDALE AVENUE,3535 RIVERDALE AVENUE,,10463,7186019000,"3535 RIVERDALE AVENUE
BRONX, NY 10463
(40.88610155472735, -73.9070285591605)"
SIDEWALK CAFE,1314421,Unenclosed,,2896 BROADWAY FOOD SERVICE INC.,,BROADWAY,2893 BROADWAY,,10025,2126652800,"2893 BROADWAY
NEW YORK, NY 10025
(40.80591941255172, -73.965592342388)"
SIDEWALK CAFE,1314788,Unenclosed,54,ROMY EAST LLC,,3 AVENUE,1420 3 AVENUE,,10028,2122880012,"1420 3 AVENUE
NEW YORK, NY 10028
(40.77532629204342, -73.9565179653913)"
SIDEWALK CAFE,1314793,Unenclosed,175,AAM RESTAURANT LLC,,3 AVENUE,415 3 AVENUE,,10016,2127258484,"415 3 AVENUE
NEW YORK, NY 10016
(40.74271687526101, -73.98030503306632)"
SIDEWALK CAFE,1314804,Unenclosed,145,CAPICUA CORPORATION,,COLUMBUS AVENUE,204 - 208 COLUMBUS AVENUE,,10023,2123625265,"204 208 COLUMBUS AVENUE
NEW YORK, NY 10023
(40.774536138232236, -73.97994335610099)"
SIDEWALK CAFE,1314914,Unenclosed,101,SUBLIME PORTE LLC,TURKS & FROGS TRIBECA,GREENWICH STREET,458 GREENWICH STREET,,10013,2129664774,"458 GREENWICH STREET
NEW YORK, NY 10013
(40.72369621434132, -74.00948803291709)"
SIDEWALK CAFE,1315083,Unenclosed,78,RAVAGH RESTAURANT CORP.,,1 AVENUE,1237 1 AVENUE,,10065,2128617900,"1237 1 AVENUE
NEW YORK, NY 10065
(40.764462481929456, -73.95842452809342)"
SIDEWALK CAFE,1315172,Unenclosed,89,"NEW YORK PIZZA 33, INC.",PIZZA 33,6 AVENUE,527 6 AVENUE,,10011,2122556333,"527 6 AVENUE
NEW YORK, NY 10011
(40.73723101088228, -73.99692450416774)"
SIDEWALK CAFE,1315213,Unenclosed,113,"E.D.O. FOOD IV, LLC.",,7 AVENUE SOUTH,71 7 AVENUE SOUTH,,10014,2129242022,"71 7 AVENUE
NEW YORK, NY 10014
(40.73197082168487, -74.00370715786927)"
SIDEWALK CAFE,1315235,Unenclosed,344,CHICKEN SHACK INC,,30 AVENUE,35-02 30 AVENUE,,11103,7187213035,"35 02 30 AVENUE
QUEENS, NY 11103
(40.76286893025696, -73.91327185810974)"
SIDEWALK CAFE,1315316,Unenclosed,330,"AMSTERDAM ALE HOUSE,INCORPORATED",,AMSTERDAM AVENUE,340 AMSTERDAM AVENUE,,10024,9174073144,"340 AMSTERDAM AVENUE
NEW YORK, NY 10024
(40.78130678353824, -73.9796665144255)"
SIDEWALK CAFE,1315480,Unenclosed,124,ALPHA FUSION INC,,WEST   34 STREET,365 WEST   34 STREET,,10001,2122798887,"365 34 STREET
NEW YORK, NY 10001
(40.75320297012263, -73.9958812906138)"
SIDEWALK CAFE,1315623,Unenclosed,297,ALA TURK INC,,2 AVENUE,1417 2 AVENUE,,10021,2127442424,"1417 2 AVENUE
NY, NY 10021
(40.77001129885025, -73.95746225352207)"
SIDEWALK CAFE,1315977,Unenclosed,140,RECTOR STREET FOOD ENTERPRISES LTD.,,RECTOR STREET,11 RECTOR STREET,87-89 GREENWICH STREET,10006,2122698026,"11 RECTOR STREET
NEW YORK, NY 10006
(40.7079495337925, -74.0136351533353)"
SIDEWALK CAFE,1316160,Unenclosed,178,ISTANBUL CAFE CORP.,,WEST   57 STREET,325 WEST   57 STREET,,10019,6462666593,"325 57 STREET
NEW YORK, NY 10019
(40.76723239377969, -73.98411815847055)"
SIDEWALK CAFE,1316170,Unenclosed,99,"MARCO POLO TAKE OUT, LLC",,COURT STREET,347 COURT STREET,,11231,7182431000,"347 COURT STREET
BROOKLYN, NY 11231
(40.68228291514426, -73.99590234577445)"
SIDEWALK CAFE,1316363,Unenclosed,147,"LITTLE APPLE, LTD",,WEST  207 STREET,537 WEST  207 STREET,,10034,2125678555,"537 207 STREET
NEW YORK, NY 10034
(40.86547106258941, -73.91975233112566)"
SIDEWALK CAFE,1316751,Unenclosed,57,SULLIVAN RESTAURANT LLC,,9 AVENUE,230 9 AVENUE,,10001,2122431105,"230 9 AVENUE
NEW YORK, NY 10001
(40.74723659357827, -74.00073080523352)"
SIDEWALK CAFE,1317766,Unenclosed,138,BROOKLYN HEIGHTS WINE BAR LLC,,HENRY STREET,50 HENRY STREET,,11201,7188341776,"50 HENRY STREET
BROOKLYN, NY 11201
(40.69941675713345, -73.99210174987581)"
SIDEWALK CAFE,1318210,Unenclosed,108,"WATAWA, INC",,DITMARS BOULEVARD,33-10 DITMARS BOULEVARD,,11105,7185459596,"33 10 DITMARS BOULEVARD
ASTORIA, NY 11105
(40.780092072491186, -73.90960650023976)"
SIDEWALK CAFE,1318225,Enclosed,287,SOUTHWEST 85TH RESTAURANT CORP.,,SECOND AVENUE,1633 SECOND AVENUE,,10028,2127449194,"1633 SECOND AVENUE
NEW YORK, NY 10028
(40.77709795644114, -73.95229115185361)"
SIDEWALK CAFE,1318462,Unenclosed,203,VALDOME INC,,EAST   27 STREET,122 EAST   27 STREET,,10016,2122138771,"122 27 STREET
NEW YORK, NY 10016
(40.742303187127504, -73.98357856525297)"
SIDEWALK CAFE,1318806,Unenclosed,170,PGT REST. CORP.,,BOWERY,304 BOWERY,,10012,2122537030,"304 BOWERY
NEW YORK, NY 10012
(40.72476640755616, -73.99244588046184)"
SIDEWALK CAFE,1318895,Unenclosed,180,BLOSSOM RESTAURANT & CAFE INC.,,COLUMBUS AVENUE,466 COLUMBUS AVENUE,,10024,2128752609,"466 COLUMBUS AVENUE
NEW YORK, NY 10024
(40.78420260047261, -73.9738389076756)"
SIDEWALK CAFE,1319263,Unenclosed,425,GREENWICH HOTEL RESTURANT LLC,,GREENWICH STREET,377 GREENWICH STREET,,10013,9172241800,"377 GREENWICH STREET
NEW YORK, NY 10013
(40.71961732156957, -74.01019227450553)"
SIDEWALK CAFE,1319273,Unenclosed,162,PITA GRILL 77 LLC,VIA RESTAURANT,WEST   77 STREET,225 WEST   77 STREET,,10024,2123624500,"225 77 STREET
NEW YORK, NY 10024
(40.78232137679288, -73.98037683232903)"
SIDEWALK CAFE,1319786,Unenclosed,285,TAZZINI CORP.,,HENRY STREET,311 HENRY STREET,,11201,7182430487,"311 HENRY STREET
BROOKLYN, NY 11201
(40.691028855917175, -73.99606180286328)"
SIDEWALK CAFE,1319843,Unenclosed,83,C & P FOOD CORPORATION,,3 AVENUE,514 3 AVENUE,,10016,2125450144,"514 3 AVENUE
NEW YORK, NY 10016
(40.74606235320999, -73.97788585680746)"
SIDEWALK CAFE,1320327,Unenclosed,268,"DEFONTE'S OF NEW YORK, INC.",,THIRD AVENUE,261 THIRD AVENUE,,10010,7183176413,"261 THIRD AVENUE
NEW YORK, NY 10010
(40.73747382783017, -73.98415413135172)"
SIDEWALK CAFE,1320689,Unenclosed,165,324 SEVENTH AVE. RESTAURANT CORP.,,7 AVENUE,324 7 AVENUE,,10001,2126953806,"324 7 AVENUE
NEW YORK, NY 10001
(40.74734481079795, -73.99334469491156)"
SIDEWALK CAFE,1320701,Unenclosed,200,352 RESTAURANT CORP,,7 AVENUE,352 7 AVENUE,,10001,2122688930,"352 7 AVENUE
NEW YORK, NY 10001
(40.74822971930058, -73.99265272452857)"
SIDEWALK CAFE,1320710,Unenclosed,379,5693 RESTAURANT CORP,MUSTANG'S,RIVERDALE AVENUE,5693 RIVERDALE AVENUE,,10471,7186012572,"5693 RIVERDALE AVENUE
BRONX, NY 10471
(40.90670773248542, -73.90418634001045)"
SIDEWALK CAFE,1320797,Unenclosed,181,511 AMSTERDAM VINO CORP.,,AMSTERDAM AVENUE,511 AMSTERDAM AVENUE,,10024,2128772267,"511 AMSTERDAM AVENUE
NEW YORK, NY 10024
(40.78673868859522, -73.97570050427629)"
SIDEWALK CAFE,1320914,Unenclosed,160,CAFE 522 HUDSON INC.,,HUDSON STREET,522 HUDSON STREET,,10014,6462266046,"522 HUDSON STREET
NEW YORK, NY 10014
(40.73384167387637, -74.00622431895437)"
SIDEWALK CAFE,1321086,Unenclosed,177,37 BROADWAY GROUP INC,POMME CAFE,BROADWAY,37-19 BROADWAY,,11103,7185458822,"37 19
ASTORIA, NY 11103
(40.76286893025696, -73.91327185810974)"
SIDEWALK CAFE,1321094,Unenclosed,256,"MANDUCATIS RUSTICA VIG, LTD.",,VERNON BOULEVARD,46-35 VERNON BOULEVARD,,11101,7185458822,"46 35 VERNON BOULEVARD
LIC, NY 11101
(40.74570244980828, -73.93866902925225)"
SIDEWALK CAFE,1321660,Unenclosed,138,"NABUCCO, LLC",,AMSTERDAM AVENUE,283 AMSTERDAM AVENUE,,10023,9173280964,"283 AMSTERDAM AVENUE
NEW YORK, NY 10023
(40.779409810142496, -73.98098627448582)"
SIDEWALK CAFE,1322918,Unenclosed,172,"NOROC, LLC.",,40 STREET,43-45 40 STREET,,11104,7183892300,"43 45 40 STREET
SUNNYSIDE, NY 11104
(40.74489336663561, -73.92054134530679)"
SIDEWALK CAFE,1323044,Unenclosed,163,GULLUOGLU LLC,,2 AVENUE,982 2 AVENUE,,10022,2128130500,"982 2 AVENUE
NEW YORK, NY 10022
(40.75600885485403, -73.96768754499521)"
SIDEWALK CAFE,1323151,Unenclosed,278,A & A FOOD ENTERPRISES LLC,,70 ROAD,107-02 70 ROAD,,11375,7185442433,"107 02 70 ROAD
QUEENS, NY 11375
(40.720707263029794, -73.84628429608335)"
SIDEWALK CAFE,1323159,Unenclosed,173,LA MERIDIANA 2 LTD.,,2 AVENUE,176 2 AVENUE,,10003,9178659278,"176 2 AVENUE
NEW YORK, NY 10003
(40.73054904820458, -73.9862315652394)"
SIDEWALK CAFE,1323228,Unenclosed,153,112 RESTAURANT CORP.,,BOND STREET,112 BOND STREET,,11217,7188520301,"112 BOND STREET
BROOKLYN, NY 11217
(40.68622799579279, -73.9853458972445)"
SIDEWALK CAFE,1323280,Unenclosed,533,SYLVIA WOODS INC,,LENOX AVENUE,328 LENOX AVENUE,AKA MALCOLM X BLVD,10027,2129660660,"328 LENOX AVENUE
NEW YORK, NY 10027
(40.8087720783131, -73.94466490104514)"
SIDEWALK CAFE,1323624,Enclosed,,"SHARAKU, INC",,STUYVESANT STREET,14 STUYVESANT STREET,,10003,2125980403,"14 STUYVESANT STREET
NEW YORK, NY 10003
(40.729855717071985, -73.98917963533063)"
SIDEWALK CAFE,1323685,Unenclosed,208,PORFIRIO SUERO SR.,,JAY STREET,73 JAY STREET,,11201,7187972851,"73 JAY STREET
BROOKLYN, NY 11201
(40.702446375697306, -73.98665301192958)"
SIDEWALK CAFE,1324003,Unenclosed,323,30-03 47TH STREET CORP.,,30 AVENUE,47-02 30 AVENUE,,11103,2124651318,"47 02 30 AVENUE
ASTORIA, NY 11103
(40.76286893025696, -73.91327185810974)"
SIDEWALK CAFE,1324320,Unenclosed,213,S & K HALAL CHINESE FUSION INC,,HORACE HARDING EXPRESSWAY,184-22 HORACE HARDING EXPRESSWAY,,11365,9174156515,"184 22 HORACE HARDING EXPRESSWAY
FRESH MEADOWS, NY 11365
(40.73987184371066, -73.79462153515567)"
SIDEWALK CAFE,1324561,Unenclosed,204,13TH STREET ENTERTAINMENT LLC,,WEST   13 STREET,409 WEST   13 STREET,,10014,2122251933,"409 13 STREET
NEW YORK, NY 10014
(40.740450698401936, -74.00625732522656)"
SIDEWALK CAFE,1325458,Unenclosed,320,"SPUNTO, INC.",,CARMINE STREET,65 CARMINE STREET,,10014,2122421200,"65 CARMINE STREET
NEW YORK, NY 10014
(40.72966771261588, -74.00454176175595)"
SIDEWALK CAFE,1326142,Unenclosed,285,68TH ST CAFE INC.,,BROADWAY,2014 BROADWAY,,10023,2127241400,"2014 BROADWAY
NEW YORK, NY 10023
(40.77604246904676, -73.98198616177321)"
SIDEWALK CAFE,1326438,Unenclosed,175,SEA BREEZE PHARMACY & MEDICAL SUPPLY INC,,BRIGHTON BEACH AVENUE,1129 BRIGHTON BEACH AVENUE,,11235,7186460660,"1129 BRIGHTON BEACH AVENUE
BROOKLYN, NY 11235
(40.57780407888207, -73.95600113266143)"
SIDEWALK CAFE,1326701,Enclosed,,ZUCCA TRATTORIA INC.,,7 AVENUE SOUTH,95 7 AVENUE SOUTH,,10014,2122551980,"95 7 AVENUE
NEW YORK, NY 10014
(40.73280852717751, -74.00322277925387)"
SIDEWALK CAFE,1327313,Unenclosed,98,B & C THAI GIFT TRADING INC,,BROADWAY,34-16 BROADWAY,,11106,7189328827,"34 16
ASTORIA, NY 11106
(40.761699790013324, -73.9316632529567)"
SIDEWALK CAFE,1327665,Unenclosed,363,3321 ASTORIA INC,,31 AVENUE,33-21 31 AVENUE,,11106,7187777011,"33 21 31 AVENUE
ASTORIA, NY 11106
(40.761699790013324, -73.9316632529567)"
SIDEWALK CAFE,1328754,Unenclosed,198,AQ KAFE LLC,,BROADWAY,1800 BROADWAY,,10019,212,"1800 BROADWAY
NEW YORK, NY 10019
(40.76727757574197, -73.98167641280297)"
SIDEWALK CAFE,1329305,Enclosed,144,542 3RD AVENUE FOOD CORP,,3 AVENUE,542 3 AVENUE,,10016,6462941902,"542 3 AVENUE
NEW YORK, NY 10016
(40.74713254642484, -73.97709445342167)"
SIDEWALK CAFE,1329670,Unenclosed,217,LENZ'S FOOD INC.,20TH ST. FOOD CORP,EAST   20 STREET,514 EAST   20 STREET,,10009,2129795736,"514 20 STREET
NEW YORK CITY, NY 10009
(40.73393301639925, -73.97783322126088)"
SIDEWALK CAFE,1331625,Unenclosed,168,JEMANYA CORP,,SOUTH    5 STREET,57 SOUTH    5 STREET,,11211,7182304040,"57 5 STREET
BROOKLYN, NY 11211
(40.718642703801066, -73.9619129112623)"
SIDEWALK CAFE,1333967,Unenclosed,123,DAVE 60 NYC INC,,EAST   60 STREET,33 EAST   60 STREET,,10022,2128884295,"33 60 STREET
NEW YORK, NY 10022
(40.764174462900804, -73.97078786474891)"
SIDEWALK CAFE,1334107,Unenclosed,586,TREL RESTAURANT INC,,SEVENTH AVENUE,800 SEVENTH AVENUE,,10019,212,"800 SEVENTH AVENUE
NEW YORK, NY 10019
(40.76239874500661, -73.9823736151816)"
SIDEWALK CAFE,1334619,Unenclosed,126,MADISON GLOBAL LLC,,MADISON AVENUE,696 MADISON AVENUE,,10065,2127368700,"696 MADISON AVENUE
NEW YORK, NY 10065
(40.76569030751916, -73.96991475220038)"
SIDEWALK CAFE,1336537,Unenclosed,104,PARISENNE CAFE INCORPORATED,,ARTHUR AVENUE,2339 ARTHUR AVENUE,,10458,6464020758,"2339 ARTHUR AVENUE
BRONX, NY 10458
(40.85422986710935, -73.88874066227686)"
SIDEWALK CAFE,1336661,Unenclosed,73,NEW YORK PAO DE QUEIJO LLC,,30 STREET,31-90 30 STREET,,11106,7182041979,"31 90 30 STREET
ASTORIA, NY 11106
(40.761699790013324, -73.9316632529567)"
SIDEWALK CAFE,1337067,Unenclosed,191,GARI INTERNATIONAL INC.,,COLUMBUS AVENUE,370 COLUMBUS AVENUE,,10024,2129327466,"370 COLUMBUS AVENUE
NEW YORK, NY 10024
(40.78104598014977, -73.97613217885032)"
SIDEWALK CAFE,1338364,Unenclosed,252,121ST STREET CAFE LTD.,,AMSTERDAM AVENUE,1241 AMSTERDAM AVENUE,,10027,9179124409,"1241 AMSTERDAM AVENUE
NEW YORK, NY 10027
(40.81001839624603, -73.95868493537625)"
SIDEWALK CAFE,1338515,Enclosed,,"H.B RESTAURANT GROUP, INC.",HUNAN BALCONY,BROADWAY,2596 BROADWAY,,10025,2128650400,"2596 BROADWAY
NEW YORK, NY 10025
(40.79583463942705, -73.97074962515744)"
SIDEWALK CAFE,1338890,Unenclosed,126,TUTTO BENE RESTAURANT INC.,,8 AVENUE,108 8 AVENUE,,10011,2129247786,"108 8 AVENUE
NEW YORK, NY 10011
(40.740625425052826, -74.00182979423583)"
SIDEWALK CAFE,1338960,Unenclosed,335,CAFE RUSTICA INC,,3 AVENUE,8320 3 AVENUE,,11209,3475174743,"8320 3 AVENUE
BROOKLYN, NY 11209
(40.62554458413769, -74.03025079941531)"
SIDEWALK CAFE,1338974,Enclosed,,ABITINO'S PIZZA 49TH STREET CORP,,2 AVENUE,936 2 AVENUE,,10022,2123081234,"936 2 AVENUE
NEW YORK, NY 10022
(40.75464027497887, -73.96864981191949)"
SIDEWALK CAFE,1339224,Unenclosed,253,VINO FIVE GROUP LLC,,EAST   31 STREET,201 EAST   31 STREET,,10016,2127288466,"201 31 STREET
NEW YORK, NY 10016
(40.74381796934267, -73.97941104505841)"
SIDEWALK CAFE,1339241,Unenclosed,181,LENNYS 74TH STREET LLC,,COLUMBUS AVENUE,302 COLUMBUS AVENUE,,10023,2125808300,"302 COLUMBUS AVENUE
NEW YORK, NY 10023
(40.77884264117796, -73.97775095850307)"
SIDEWALK CAFE,1341044,Enclosed,,CARABEAN LLC,,7 AVENUE SOUTH,133 7 AVENUE SOUTH,,10014,9176913630,"133 7 AVENUE
NEW YORK, NY 10014
(40.73453564784322, -74.0022226381198)"
SIDEWALK CAFE,1341402,Unenclosed,360,DONIZETTI LLC,,BROADWAY,2315 BROADWAY,,10024,2127572277,"2315 BROADWAY
NEW YORK, NY 10024
(40.78695496666427, -73.97783316592154)"
SIDEWALK CAFE,1341610,Unenclosed,,BU YAO PA LLC,VINE SUSHI,BROADWAY,2955-2957 BROADWAY,,10025,6467390337,"2955 2957
NEW YORK, NY 10025
(40.79685012763133, -73.96372581059762)"
SIDEWALK CAFE,1341925,Unenclosed,85,D & D THAI RESTAURANT CORP,,AMSTERDAM AVENUE,450 AMSTERDAM AVENUE,,10024,6467508762,"450 AMSTERDAM AVENUE
NEW YORK, NY 10024
(40.784859105554006, -73.97707646698109)"
SIDEWALK CAFE,1342248,Unenclosed,479,"BROOKLYN FOOD & DRINK, LLC.",,VANDERBILT AVENUE,570 VANDERBILT AVENUE,,11238,7186230570,"570 VANDERBILT AVENUE
BROOKLYN, NY 11238
(40.67953220017649, -73.96822976542948)"
SIDEWALK CAFE,1342712,Unenclosed,230,"CAFE MOCHA, INC.",,2 AVENUE,116 2 AVENUE,,10003,2122532050,"116 2 AVENUE
NEW YORK, NY 10003
(40.72788705499784, -73.98817410082268)"
SIDEWALK CAFE,1342907,Unenclosed,157,"EMILIA, INC.",,SPRING STREET,184 SPRING STREET,,10012,2123431445,"184 SPRING STREET
NEW YORK, NY 10012
(40.72489194174372, -74.00273731777742)"
SIDEWALK CAFE,1343045,Unenclosed,306,FRIENDLY FOODS LLC,,BOWERY,282 BOWERY,,10012,2129255340,"282 BOWERY
NEW YORK, NY 10012
(40.723886426597936, -73.99280786978804)"
SIDEWALK CAFE,1343247,Unenclosed,600,FIG & OLIVE THIRTEEN STREET LLC,,WEST   13 STREET,420 WEST   13 STREET,,10014,9172096177,"420 13 STREET
NEW YORK, NY 10014
(40.74065603008545, -74.00688021596142)"
SIDEWALK CAFE,1343308,Unenclosed,200,SUMMIT OF THE WORLD INC.,,GREENWICH AVENUE,75 GREENWICH AVENUE,,10014,2126479600,"75 GREENWICH AVENUE
NEW YORK, NY 10014
(40.736589866244806, -74.00114102589188)"
SIDEWALK CAFE,1343596,Enclosed,,A LA TURK INC,,2 AVENUE,1417 2 AVENUE,,10021,2127442424,"1417 2 AVENUE
NY, NY 10021
(40.77001129885025, -73.95746225352207)"
SIDEWALK CAFE,1343613,Unenclosed,61,COPEL 2007 INC,,EAST   19 STREET,39 EAST   19 STREET,,10003,2125823000,"39 19 STREET
NEW YORK, NY 10003
(40.7380943600304, -73.98901946353021)"
SIDEWALK CAFE,1343834,Unenclosed,450,CHEZ OSKAR INC.,,DEKALB AVENUE,211 DEKALB AVENUE,,11205,7188526250,"211 DEKALB AVENUE
BROOKLYN, NY 11205
(40.68957187617454, -73.97100754915039)"
SIDEWALK CAFE,1343867,Unenclosed,105,AQUALIS LLC,,FULTON STREET,773 FULTON STREET,,11217,7187973494,"773 FULTON STREET
BROOKLYN, NY 11217
(40.68606291595486, -73.97375052109531)"
SIDEWALK CAFE,1343896,Unenclosed,85,ALBEROBELLO CAFFE INC,,1 AVENUE,1135 1 AVENUE,,10065,2123712166,"1135 1 AVENUE
NEW YORK, NY 10065
(40.76177350906187, -73.9603940433376)"
SIDEWALK CAFE,1344043,Unenclosed,,A & D WINE CORP.,,2 AVENUE,65 2 AVENUE,,10003,9173291981,"65 2 AVENUE
NEW YORK, NY 10003
(40.72609243259407, -73.9895358571618)"
SIDEWALK CAFE,1344183,Unenclosed,207,"DON PABLO, INC.",,2 AVENUE,1725 2 AVENUE,,10128,2122898944,"1725 2 AVENUE
NEW YORK, NY 10128
(40.77992182761312, -73.95023170440652)"
SIDEWALK CAFE,1345353,Unenclosed,333,HL KOELN CORP,,FULTON STREET,710 FULTON STREET,,11217,7188588898,"710 FULTON STREET
BROOKLYN, NY 11217
(40.68592736760224, -73.97357039605497)"
SIDEWALK CAFE,1345473,Unenclosed,140,"TEN JAPANESE CUISINE, CORP.",,7 AVENUE,440 7 AVENUE,,11215,7187689888,"440 7 AVENUE
BROOKLYN, NY 11215
(40.66331262935884, -73.98460134542496)"
SIDEWALK CAFE,1345738,Unenclosed,153,HELL'S KITCHEN CREAM & SUGAR INC,,10 AVENUE,626 10 AVENUE,,10036,2123994450,"626 10 AVENUE
NEW YORK, NY 10036
(40.76125529958476, -73.99423819347864)"
SIDEWALK CAFE,1345817,Unenclosed,300,BURKINABE ENTERTAINMENT LLC,,ADAM CLAYTON POWELL JR. BLVD,2269 ADAM CLAYTON POWELL JR. BLVD,,10030,212690699,"2269 ADAM CLAYTON POWELL JR BLVD
NEW YORK, NY 10030
(40.814197519489795, -73.94435552943406)"
SIDEWALK CAFE,1345829,Unenclosed,253,J.A.V. FOOD CORP.,,1 AVENUE,1505 1 AVENUE,,10075,2124520690,"1505 1 AVENUE
NEW YORK, NY 10075
(40.772224322383344, -73.9528110200628)"
SIDEWALK CAFE,1345894,Unenclosed,251,SUTOL OPERATING COMPANY LLC,ABE & ARTHUR'S RESTAURANT,WEST   14 STREET,409 WEST   14 STREET,,10014,2126271235,"409 14 STREET
NEW YORK, NY 10014
(40.74130493967499, -74.00618752106953)"
SIDEWALK CAFE,1346272,Unenclosed,317,AMBER ASIAN ONE INC.,,3 AVENUE,1406 3 AVENUE,,10075,2122495020,"1406 3 AVENUE
NEW YORK, NY 10075
(40.774858644588164, -73.95685071454216)"
SIDEWALK CAFE,1346477,Enclosed,,INNOVATION 2010 INC.,,GREENWICH AVENUE,15 GREENWICH AVENUE,,10014,2129611535,"15 GREENWICH AVENUE
NEW YORK, NY 10014
(40.734443112591464, -73.99982931432237)"
SIDEWALK CAFE,1346491,Unenclosed,98,"ACUMEN GMAT, LLC",,BROADWAY,2905 BROADWAY,,10025,2126625265,"2905 BROADWAY
NEW YORK, NY 10025
(40.80628270212235, -73.96532541146662)"
SIDEWALK CAFE,1347094,Unenclosed,207,L PLUS L PRODUCTIONS LLC,,7 AVENUE SOUTH,113 7 AVENUE SOUTH,,10014,6463181847,"113 7 AVENUE
NEW YORK, NY 10014
(40.734011438017376, -74.00257224651176)"
SIDEWALK CAFE,1347261,Unenclosed,320,"ACT 718,LLC",,4 AVENUE,149 4 AVENUE,,11217,7188574337,"149 4 AVENUE
BROOKLYN, NY 11217
(40.67928989376088, -73.98164801929452)"
SIDEWALK CAFE,1347971,Unenclosed,,333 LAFAYETTE LLC,PINCHE TAQUERIA,LAFAYETTE STREET,333 LAFAYETTE STREET,,10012,2123439977,"333 LAFAYETTE STREET
NEW YORK, NY 10012
(40.72593075811833, -73.99460174180251)"
SIDEWALK CAFE,1348205,Unenclosed,,THIRD AVE CAFE LLC,,3 AVENUE,431 3 AVENUE,,10016,2122520146,"431 3 AVENUE
NEW YORK, NY 10016
(40.74341834644383, -73.97978342628932)"
SIDEWALK CAFE,1348216,Enclosed,,151 BLEECKER LLC,,BLEECKER STREET,151 BLEECKER STREET,,10012,2122609797,"151 BLEECKER STREET
NEW YORK, NY 10012
(40.72833671601251, -73.99951455161215)"
SIDEWALK CAFE,1348224,Unenclosed,104,NANA SUSHI & LOUNGE INC,,3 AVENUE,511 3 AVENUE,,10016,2126831088,"511 3 AVENUE
NEW YORK, NY 10016
(40.74589017689484, -73.97796841798318)"
SIDEWALK CAFE,1348439,Unenclosed,,OLIMATT LLC,LE P'TIT PARIS,PROSPECT PARK WEST,256 PROSPECT PARK WEST,,11215,7183693590,"256 PROSPECT PARK
BROOKLYN, NY 11215
(40.66378810651796, -73.99001015900488)"
SIDEWALK CAFE,1350796,Enclosed,,"CORNED BEEF EXPRESS, LLC",ARTIES'S DELICATESSEN,BROADWAY,2290 BROADWAY,,10024,2125795959,"2290 BROADWAY
NEW YORK, NY 10024
(40.78622607503854, -73.97808370765392)"
SIDEWALK CAFE,1354338,Enclosed,,JAN CO CENTRAL INC,,BROADWAY,3451 BROADWAY,,10031,4019464000,"3451 BROADWAY
NY, NY 10031
(40.82371381327501, -73.95260132843397)"
SIDEWALK CAFE,1354470,Enclosed,,AMBER WEST 70 INC,,COLUMBUS AVENUE,221-223 COLUMBUS AVENUE,,10023,2127998100,"221 223 COLUMBUS AVENUE
NEW YORK, NY 10023
(40.774536138232236, -73.97994335610099)"
SIDEWALK CAFE,1354705,Enclosed,,LANSKY'S OPERATING CORPORATION,,COLUMBUS AVENUE,235 COLUMBUS AVENUE,,10023,6462756820,"235 COLUMBUS AVENUE
NEW YORK, NY 10023
(40.77657259455106, -73.97935757525414)"
SIDEWALK CAFE,1357229,Unenclosed,,SUSHI HANA FUSION INC,,AMSTERDAM AVENUE,466 AMSTERDAM AVENUE,,10024,2128740369,"466 AMSTERDAM AVENUE
NEW YORK, NY 10024
(40.785380712331005, -73.9766987517288)"
